PERMIT NUMBER,OWNER NAME,OPERATING NAME,STREET,CITY,STATE,ZIP,COUNTY
CA-W-20361,VIAN ESTATES LLC,VIAN ESTATES,22406 HIDDEN RANCH RD,AUBURN,CA,95602,NEVADA
CA-W-21184,CLAVEY VINEYARDS & WINERY LLC,CLAVEY VINEYARDS & WINERY,14709 POWERLINE RD,CHICAGO PARK,CA,95712,NEVADA
CA-W-3247,"LUCCHESI VINEYARDS & WINERY, INC.",,19698 VIEW FOREVER LN,GRASS VALLEY,CA,95945,NEVADA
CA-W-3635,"NAGGIAR VINEYARDS, LLC",NAGGIAR VINEYARDS,18261 ROSEMARY LN,GRASS VALLEY,CA,95949,NEVADA
CA-W-3564,"SMITH VINEYARD & WINERY, INC.",,13719 DOG BAR RD STE A,GRASS VALLEY,CA,95949,NEVADA
CA-W-15335,MARK LAVON HENRY,MONTOLIVA VINEYARD AND WINERY,15629 MT OLIVE RD,GRASS VALLEY,CA,95945,NEVADA
CA-W-2675,JOHN & LINDA CHASE BRENDA & STEPHEN TAYLOR,SIERRA KNOLLS VINEYARD AND FOOTHILL WINERY,19635 KINGSWOOD CT,GRASS VALLEY,CA,95949,NEVADA
CA-W-2261,PHILLIP A. STARR & ANNE F. STARR,SIERRA STARR VINEYARD & WINERY,11179 GIBSON DR,GRASS VALLEY,CA,95945,NEVADA
CA-W-21968,"DEO VOLENTE VINEYARDS, INC.",,16228 FOOTEHOLD DR,GRASS VALLEY,CA,95949,NEVADA
CA-W-23415,"ON THE ROCKS WINERY, LLC",,22875 MCCOURTNEY RD,GRASS VALLEY,CA,95949,NEVADA
CA-W-1162,"N.C.W.G., INC.",NEVADA CITY WINERY,321 SPRING ST,NEVADA CITY,CA,95959,NEVADA
CA-W-2380,GARY M. & ANNA K. JOHNSON,VILLANELLE,13372 MCKITRICK RANCH RD,NEVADA CITY,CA,95959,NEVADA
CA-W-16810,"REVE D'OR VINEYARDS & WINERY, LLC",SZABO VINEYARDS,14293 GOLD FORK RD,NEVADA CITY,CA,95959,NEVADA
CA-W-22070,ANT PRODUCTIONS LLC,TINTYPE WINERY,75 BOST AVE UNIT 3,NEVADA CITY,CA,95959,NEVADA
CA-W-2437,ROBERT B. & VIRGINIA L. HILSMAN,DOUBLE OAK VINEYARDS & WINERY,14510 BLIND SHADY RD,NEVADA CITY,CA,95959,NEVADA
CA-W-15422,AVANGUARDIA WINES LLC,AVANGUARDIA WINES,13028 JONES BAR RD,NEVADA CITY,CA,95959,NEVADA
CA-W-23832,NEVADA COUNTY MEAD COMPANY LLC,NEVADA COUNTY MEAD COMPANY,10175 COMMERCIAL AVE,PENN VALLEY,CA,95946,NEVADA
CA-W-23739,ELLSWORTH WINES LLC,ELLSWORTH WINES,16930 KOZY NEST CT,PENN VALLEY,CA,95946,NEVADA
CA-W-17403,"GRAY PINE WINERY, LLC",GRAY PINE WINERY,19396 BRANDING IRON RD,PENN VALLEY,CA,95946,NEVADA
CA-W-15043,"PILOT PEAK VINEYARD & WINERY, LLC",,12888 SPENCEVILLE RD,PENN VALLEY,CA,95946,NEVADA
CA-W-16010,OAKSPRINGS VINEYARDS & WINERY LLC,,10460 OAKSPRINGS RD,PENN VALLEY,CA,95946,NEVADA
CA-W-22588,"ROUGH AND READY VINEYARDS, INC.",ROUGH & READY VINEYARDS,17860 CATTLE DR,ROUGH & READY,CA,95975,NEVADA
CA-W-15226,JANET WHEELING AND HENRY COUFOS,COUFOS CELLARS,10065 ROUGH AND READY ROAD,ROUGH AND READY,CA,95975,NEVADA
CA-W-16850,RUSSELL D JONES & JOAN A DERYK-JONES,TRUCKEE RIVER WINERY,10151 BROCKWAY RD,TRUCKEE,CA,96161,NEVADA
CA-W-22631,"TRUCKEE WINERY, INC.",TRUCKEE RIVER WINERY,10061 S RIVER ST,TRUCKEE,CA,96161,NEVADA
CA-W-23782,"OF SPINE AND VINE, LLC",,15060 BLACK GOLD RD,ROUGH AND READY,CA,95975,NEVADA COUNTY
CA-W-2875,MCCORMACK-WILLIAMSON COMPANY,,3125 E ORANGE ST,ACAMPO,CA,95220,ORANGE
CA-W-16484,"OC CUSTOM WINE, INC.",OC CUSTOM WINE,1211 N LAS BRISAS ST,ANAHEIM,CA,92806,ORANGE
CA-W-22829,"HONEY POT MEADERY, LLC",HONEY POT MEADERY,5120 E LA PALMA STE 104,ANAHEIM,CA,92807,ORANGE
CA-W-3459,JEFFREY A. DOBKIN & JULIE G. THOMPSON-DOBKIN,THOMPKIN CELLARS,1954 PLACENTIA AVE STE 107,COSTA MESA,CA,92627,ORANGE
CA-W-17216,DENNIS MIDDEN,PURPLE FEET,7240 HEIL AVE,HUNTINGTON BEACH,CA,92647,ORANGE
CA-W-3594,MARLOWE HUBER & ELAINE TAN,LAGUNA CANYON WINERY,2133 LAGUNA CANYON RD,LAGUNA BEACH,CA,92651,ORANGE
CA-W-17076,RED VELVET LLC,THE WINE ARTIST,21064 BAKE PKWY STE 100,LAKE FOREST,CA,92630,ORANGE
CA-W-17156,"SEAL BEACH WINERY& BREWERY, LLC",SEAL BEACH WINERY,3387 CERRITOS AVE,LOS ALAMITOS,CA,90720,ORANGE
CA-W-2818,"NEWPORT BEACH VINEYARDS & WINERY, LLC",NEWPORT BEACH VINEYARDS & WINERY,2128 MESA DR,NEWPORT BEACH,CA,92660,ORANGE
CA-W-22893,FRANSON FAMILY WINERY LLC,RANCHO CAPISTRANO WINERY,921 CALLE AMANECER UNIT G,SAN CLEMENTE,CA,92673,ORANGE
CA-W-22228,"PEPPERTREE CANYON FARM, THE MICHAEL N. JENNINGS LIVING TRUST AND THE LYNN M. HESS LIVING TRUST",,9902 RANGEVIEW DR,SANTA ANA,CA,92705,ORANGE
CA-W-16220,"GIRACCI VINEYARDS & FARMS, INC.",GIRACCI VINEYARDS & FARMS,16162 JACKSON RANCH RD,SILVERADO,CA,92676,ORANGE
CA-W-15044,"STEWARTS VINEYARDS, LLC",STEWARTS' VINEYARD,5798 GRANDVIEW AVE,YORBA LINDA,CA,92886,ORANGE
CA-W-17067,JPH CUSTOM WINERY INC,WINERY AT MAIN STREET,4861 MAIN ST,YORBA LINDA,CA,92886,ORANGE
CA-W-23923,"SURF CITY STILL WORKS, LLC",SURF CITY STILL WORKS,16561 GEMINI LN,HUNTINGTON BEACH,CA,92647,ORANGE COUNTY
CA-W-22124,"BELLANTE WINE COMPANY, INC.",,25327 AVENUE STANFORD STE 105,SANTA CLARITA,CA,91355,ORANGE COUNTY
CA-W-22540,"SUTTER HOME WINERY, INC.",,8998 N RIVER RD,PASO ROBLES,CA,93446,PASO ROBLES
CA-W-23256,HIGHNOTE ENTERTAINMENT LLC,HIGHNOTE WINERY,2850 RANCHITA CANYON RD,SAN MIGUEL,CA,93451,PASO ROBLES
CA-W-21736,TIMOTHY HAROLD CALVERT,LEE RANCH CIDER COMPANY,432 LEE RD,ALTA,CA,95701,PLACER
CA-W-21828,STACY WILLIAMS,WILLIAMS BRIDGE VINEYARD,8010 MOUNT VERON RD,AUBURN,CA,95603,PLACER
CA-W-16702,TERMINAL VELOCITY INC,PRUETT VINEYARD,2955 SLADE RIDGE RD,AUBURN,CA,95603,PLACER
CA-W-21612,"MERAKI BREWING COMPANY, LLC",MERAKI CIDER HOUSE,12410 HOMESTEAD WAY,AUBURN,CA,95603,PLACER
CA-W-17443,BONITATA BOUTIQUE WINE CORPORATION,BONITATA BOUTIQUE WINE,291 AUBURN FOLSOM RD,AUBURN,CA,95603,PLACER
CA-W-17324,ZANE RAY DOBSON AND PAMELA JEAN DOBSON,PAZA VINEYARD & WINERY,3357 AYRES HOLMES RD,AUBURN,CA,95602,PLACER
CA-W-15965,"LONE BUFFALO VINEYARDS, LLC",LONE BUFFALO VINEYARDS,7505 WISE RD,AUBURN,CA,95603,PLACER
CA-W-16218,LYNDA LEE TAYLOR,MT. VERNON WINERY,10850 MOUNT VERNON RD,AUBURN,CA,95603,PLACER
CA-W-15087,"VINA CASTELLANO, LLC",VINA CASTELLANO,4590 BELL RD,AUBURN,CA,95602,PLACER
CA-W-15081,"FAWNRIDGE WINERY, INC.",FAWNRIDGE WINERY,5560 FAWNRIDGE RD,AUBURN,CA,95602,PLACER
CA-W-21982,COMMON CIDER COMPANY,COMMON CIDER COMPANY,"12856 EARHART AVE. STE 101, 103 & 104",AUBURN,CA,95602,PLACER
CA-W-16343,"IRON MOUNTAIN VINEYARDS, LLC",,986 S CANYON WAY,COLFAX,CA,95713,PLACER
CA-W-22217,LORETTA MCCORMICK,FOREST HILL WINERY,21745 FORESTHILL RD,FORESTHILL,CA,95631,PLACER
CA-W-23487,TWIN ROCKS ESTATE VINEYARDS AND WINERY INC,TWIN ROCKS ESTATE WINERY,6805 CAVITT STALLMAN RD,GRANITE BAY,CA,95746,PLACER
CA-W-23251,"DOMAINE FOURNIER WINERY & VINEYARDS, LLC",,4525 REMUDA CT,GRANITE BAY,CA,95746,PLACER
CA-W-16844,"WISE VILLA WINERY, LLC",,4200 WISE RD,LINCOLN,CA,95648,PLACER
CA-W-24000,MITCH & JULIE CORBETT,SMOKIN' BARREL WINERY,3700 WISE RD,LINCOLN,CA,95648,PLACER
CA-W-17686,LINDEMANN WINERY LLC,LINDEMANN WINERY,6024 PRAIRIE WAY,LINCOLN,CA,95648,PLACER
CA-W-16800,JOE CIOTTI,CIOTTI CELLARS,3285 CROSBY HEROLD RD,LINCOLN,CA,95648,PLACER
CA-W-3522,RANCHO ROBLE VINEYARDS LLC,RANCHO ROBLE VINEYARDS & WINERY,340 FLEMING RD,LINCOLN,CA,95648,PLACER
CA-W-23277,DORA DAIN WINES,DORA DAIN WINES,2560 CROSBY HEROLD RD,LINCOLN,CA,95648,PLACER
CA-W-22613,STEPHENS RANCH LLC,DUELING DOGS BREWING COMPANY,3030 BARRETT PARK LN,LINCOLN,CA,95648,PLACER
CA-W-22866,"RANCHO ROBLES WINERY, LLC",RANCHO ROBLE VINEYARDS,340 FLEMING RD,LINCOLN,CA,95648,PLACER
CA-W-17053,MICHAEL THOMAS DUARTE,DUARTE FAMILY VINEYARDS,5860 LAIRD RD,LOOMIS,CA,95650,PLACER
CA-W-23744,"HILL TOP OAKS, LLC",HILL TOP OAKS WINERY,4150 RIDGE DR,LOOMIS,CA,95650,PLACER
CA-W-17361,"CASQUE WINES, LLC",CASQUE WINES,3273 SWETZER RD,LOOMIS,CA,95650,PLACER
CA-W-16477,DAVID DANIEL BROCKMAN,CRISTALDI VINEYARDS,4060 RIDGE DR,LOOMIS,CA,95650,PLACER
CA-W-15294,"BRUNO CELLARS, LLC",BRUNO CELLARS,5676 RIDGE PARK DR,LOOMIS,CA,95650,PLACER
CA-W-2841,"SECRET RAVINE VINEYARDS, LLC",SECRET RAVINE VINEYARDS,4390 GOLD TRAIL WAY,LOOMIS,CA,95650,PLACER
CA-W-20386,"DUPONT INVESTMENTS, LLC",ROCK HILL WINERY,2970 DELMAR AVE,LOOMIS,CA,95650,PLACER
CA-W-21025,"BEAR RIVER WINERY, LLC",BEAR RIVER WINERY,2751 COMBIE RD,MEADOW VISTA,CA,95722,PLACER
CA-W-2912,DAVID C. WEGNER,PESCATORE VINEYARD & WINERY,7055 RIDGE RD,NEWCASTLE,CA,95658,PLACER
CA-W-16253,DONO DAL CIELO VINEYARD LLC,DONO DAL CIELO VINEYARD,6100 WISE RD,NEWCASTLE,CA,95658,PLACER
CA-W-3184,OPHIR WINES LLC,OPHIR WINES,8030 WOODMAN LN,NEWCASTLE,CA,95658,PLACER
CA-W-23612,RICHARD BRIAN KENNEDY,CASA LOMA WINES,2338 MANDARIN HILL LN,PENRYN,CA,95663,PLACER
CA-W-16250,MARSHALL E. DAVIS AND CYNTHIA L. D. DAVIS,DAVIS DEAN CELLARS,6121 NORTHERN LIGHTS WAY,ROCKLIN,CA,95765,PLACER
CA-W-21061,PATRICK MICHAEL LYNCH,LYNCH WINES,2333 STAXTON CIR,ROSEVILLE,CA,95747,PLACER
CA-W-23618,JASVIR RANA,,7578 ANDREESSEN RD,SHERIDAN,CA,95681,PLACER
CA-W-15089,"AWESOME OIL, LLC",,46780 HWY 371,AGUANGA,CA,92536,RIVERSIDE
CA-W-17436,ROBERT OLAH,SILVERADO TRAIL WINERY,13419 PLACID HILL DR,CORONA,CA,92883,RIVERSIDE
CA-W-23682,"WILSON CREEK WINERY & VINEYARDS, INC.",WILSON CREEK WINERY & VINEYARDS,12900 EUCLID ST UNIT 110,GARDEN GROVE,CA,92840,RIVERSIDE
CA-W-21258,JAMES NEAL LUNGER AND REBECCA RAMONA ESQUIBEL,LA REBELDE WINERY,530 CRANE ST STE G,LAKE ELSINORE,CA,92530,RIVERSIDE
CA-W-682,"GALLEANO WINERY, INC.",,4231 WINEVILLE AVE,MIRA LOMA,CA,91752,RIVERSIDE
CA-W-16320,LEVECKE CORPORATION,,10810 INLAND AVE,MIRA LOMA,CA,91752,RIVERSIDE
CA-W-22397,"ORANGE COAST WINERY, LLC",LE GRANGE GRILL AND CELLARS,24683 WASHINGTON AVE,MURRIETA,CA,92562,RIVERSIDE
CA-W-2471,PLATEAU VINEYARDS,,20170 SIERRA SOTO RD,MURRIETA,CA,92562,RIVERSIDE
CA-W-22470,"ORANGE COAST WINERY, LLC",WINE RANCH GRILL AND CELLARS,24683 WASHINGTON AVE,MURRIETA,CA,92562,RIVERSIDE
CA-W-21212,"RANCHO ENCINAR, LLC",,38280 VIA MAJORCA,MURRIETA,CA,92562,RIVERSIDE
CA-W-21775,"STOALOS INVESTMENTS GROUP, LLC",STOALOS VINEYARDS,21630 AVENIDA DE ARBOLES,MURRIETA,CA,92562,RIVERSIDE
CA-W-23072,QADROS ENTERPRISES INC.,CANYON CREST WINERY,5225 CANYON CREST DR STE 7A,RIVERSIDE,CA,92507,RIVERSIDE
CA-W-1565,"THORNTON WINERY, INC.",,32575 RANCHO CALIFORNIA RD,TEMECULA,CA,92591,RIVERSIDE
CA-W-16807,"TEMECULA HILLS WINERY AT VILLA DI CALABARO, INC",TEMECULA HILLS WINERY AT VILLA DI CALABARO,41955 MAIN ST,TEMECULA,CA,92590,RIVERSIDE
CA-W-23161,"WEONA WINERY, INC.",SOMERSET WINERY,37338 DE PORTOLA RD,TEMECULA,CA,92592,RIVERSIDE
CA-W-15829,"DOFFO WINES, LLC",,36083 SUMMITVILLE ST,TEMECULA,CA,92592,RIVERSIDE
CA-W-21471,COYOTE CREEK ORCHARDS INC.,COYOTE CREEK ORCHARDS,26690 SKYROCKET DR,TEMECULA,CA,92590,RIVERSIDE
CA-W-2426,"BAILY VINEYARD & WINERY, INC.",,36150 PAUBA RD,TEMECULA,CA,92592,RIVERSIDE
CA-W-21692,LAWRENCE NUNZIO COCO,COCO VINEYARDS,39740 VIA CARMELO,TEMECULA,CA,92592,RIVERSIDE
CA-W-3278,JOHN BRODERSEN,LONGSHADOW RANCH,39847 CALLE CONTENTO,TEMECULA,CA,92591,RIVERSIDE
CA-W-22071,"FAZELI VINEYARDS, LLC",FAZELI CELLARS,37320 DE PORTOLA RD,TEMECULA,CA,92592,RIVERSIDE
CA-W-16567,LEONESSE CELLARS LLC,TEMECULA VALLEY WINERY MANAGEMENT,27495 DIAZ RD,TEMECULA,CA,92590,RIVERSIDE
CA-W-16991,VILLA DI CALABRO,,33490 MADERA DE PLAYA,TEMECULA,CA,92592,RIVERSIDE
CA-W-24029,DIRK CORNELIS UYS,UYS WINES,33605 MADERA DE PLAYA DR,TEMECULA,CA,92592,RIVERSIDE
CA-W-15595,CHAPIN FAMILY VINEYARDS LLC,CHAPIN FAMILY VINEYARDS,36084 SUMMITVILLE ST,TEMECULA,CA,92592,RIVERSIDE
CA-W-23625,"INVESTEUROPA, LLC",EUROPA VILLAGE,41211 VIA EUROPA STE A,TEMECULA,CA,92591,RIVERSIDE
CA-W-16765,FOOTE ENTERPRISES LIMITED LIABILITY COMPANY,FOOT PATH WINERY,36650 GLEN OAKS RD,TEMECULA,CA,92592,RIVERSIDE
CA-W-16268,"LUMIERE WINERY, INC.",LUMIERE WINERY,39555 CALLE CONTENTO,TEMECULA,CA,92591,RIVERSIDE
CA-W-3208,"SOUTH COAST WINERY, INC.",,34843 RANCHO CALIFORNIA RD,TEMECULA,CA,92591,RIVERSIDE
CA-W-15847,"LOUIDAR, L.L.C.",MOUNT PALOMAR WINERY,33820 RANCHO CALIFORNIA RD,TEMECULA,CA,92591,RIVERSIDE
CA-W-22916,"BOTTAIA WINES, LP",BOTTAIA WINERY,35601 RANCHO CALIFORNIA RD,TEMECULA,CA,92591,RIVERSIDE
CA-W-15705,CHRISTINA LESCH-FALIK,KENCO COMPANY,37750 DEPORTOLA RD,TEMECULA,CA,92592,RIVERSIDE
CA-W-15813,LEONESSE CELLARS LLC,LEONESSE CELLARS,38311 DE PORTOLA RD,TEMECULA,CA,92592,RIVERSIDE
CA-W-22331,"PELTZER FAMILY CELLARS, LLC",PELTZER FAMILY CELLARS,40275 CALLE CONTENTO,TEMECULA,CA,92591,RIVERSIDE
CA-W-2969,WIENS CELLARS LLC,,35055 VIA DEL PONTE,TEMECULA,CA,92592,RIVERSIDE
CA-W-15751,SCOTT F. KLINE & COLLEEN KLINE,SC CELLARS,40895 BUCHAREST LN,TEMECULA,CA,92591,RIVERSIDE
CA-W-24042,MIMOSA ROYALE LLC,,34225 RANCHO CALIFORNIA RD,TEMECULA,CA,92591,RIVERSIDE
CA-W-16408,"LORIMAR WINERY, INC.",LORIMAR WINERY,39990 ANZA RD,TEMECULA,CA,92591,RIVERSIDE
CA-W-22478,1968 CELLARS LLC,1968 CELLARS,36435 MUSTANG CIR,TEMECULA,CA,92592,RIVERSIDE
CA-W-22095,"MASIA DE LA VINYA WINERY, LLC",MASIA DE LA VINYA,40230 DE PORTOLA RD,TEMECULA,CA,92592,RIVERSIDE
CA-W-23030,"CALI WINE & VINE, LLC",,27469 COLT CT,TEMECULA,CA,92590,RIVERSIDE
CA-W-22557,AKASH WINERY & VINEYARDS LLC,AKASH VINEYARDS & WINERY,39730 CALLE CONTENTO,TEMECULA,CA,92562,RIVERSIDE
CA-W-22587,"SOCAL SPIRITS, LLC",,44475 CALLE VISTA LEJOS,TEMECULA,CA,92590,RIVERSIDE
CA-W-15521,"CURRY VINEYARDS, LLC",CURRY VINEYARDS,39850 KAPALUA WAY,TEMECULA,CA,92592,RIVERSIDE
CA-W-23396,ULTIMATE WINERY & VINEYARDS LLC,MAURICE CARRIE WINERY,34225 RANCHO CALIFORNIA RD,TEMECULA,CA,92591,RIVERSIDE
CA-W-15436,"BIPLANE ADVENTURES, LLC",VINDEMIA VINEYARDS & WINERY,33133 VISTA DEL MONTE,TEMECULA,CA,92591,RIVERSIDE
CA-W-16322,"OGB PARTNERS, LLC",,35820 RANCHO CALIFORNIA RD,TEMECULA,CA,92591,RIVERSIDE
CA-W-23795,CHO WINES LLC,CHO WINES,27495 DIAZ RD,TEMECULA,CA,92590,RIVERSIDE
CA-W-23478,"TWISTED TENDRIL VINEYARD, LLC",,39820 CALLE CONTENTO,TEMECULA,CA,92591,RIVERSIDE
CA-W-17822,CHURON INN WINERY LLC,CHURON INN WINERY,33233 RANCHO CALIFORNIA RD,TEMECULA,CA,92591,RIVERSIDE
CA-W-20509,"SOLIDAGOFARMS, INC.",MATIN DU BOIS,27495 DIAZ RD,TEMECULA,CA,92590,RIVERSIDE
CA-W-21785,LYTTON VINEYARD & WINERY LP,AVENSOLE WINERY,34567 RANCHO CALIFORNIA RD,TEMECULA,CA,92592,RIVERSIDE
CA-W-22386,"BOXEDWINE.COM, LLC",,41720 CALLE CABRILLO,TEMECULA,CA,92592,RIVERSIDE
CA-W-23088,LE CORTI DEI FARFENSI USA,,35053 RANCHO CALIFORNIA RD,TEMECULA,CA,92591,RIVERSIDE
CA-W-3357,"WINE ROAD VINTNERS, LLC",PONTE WINERY,35053 RANCHO CALIFORNIA RD,TEMECULA,CA,92591,RIVERSIDE
CA-W-20357,GAGNON CELLARS LLC,GAGNON CELLARS,27495 DIAZ RD,TEMECULA,CA,92592,RIVERSIDE
CA-W-2910,"CELEBRATION CELLARS, LLC",MIRAMONTE WINERY,33410 RANCHO CALIFORNIA RD,TEMECULA,CA,92591,RIVERSIDE
CA-W-22813,HART WINERY LLC,HART WINERY,41300 AVENIDA BIONA,TEMECULA,CA,92591,RIVERSIDE
CA-W-16718,"MIDDLE RIDGE, INC.",MIDDLE RIDGE WINERY,27495 DIAZ RD,TEMECULA,CA,92590,RIVERSIDE
CA-W-17097,"TUCALOTA CREEK RANCH, INC.",TUCALOTA CREEK RANCH,27495 DIAZ RD,TEMECULA,CA,92590,RIVERSIDE
CA-W-3029,"WINDY RIDGE, INC.",TEMECULA HILLS WINERY,47200 DE PORTOLA RD,TEMECULA,CA,92592,RIVERSIDE
CA-W-15453,"BRIAR ROSE WINERY, INC.",BOXEDWINE.COM,41720 CALLE CABRILLO,TEMECULA,CA,92592,RIVERSIDE
CA-W-16666,GARY LEE WOODWORTH AND MARLENE NAOMI WOODWORTH,WOODWORTH VINEYARDS,27495 DIAZ RD,TEMECULA,CA,92590,RIVERSIDE
CA-W-17148,"OAK MEADOWS RANCH, INC.",OAK MEADOWS WINERY,27495 DIAZ RD,TEMECULA,CA,92590,RIVERSIDE
CA-W-23031,"INVESTEUROPA, LLC",EUROPA VILLAGE,27469 COLT CT,TEMECULA,CA,92591,RIVERSIDE
CA-W-22108,"PAROW ESTATE VINEYARD & WINERY, LLC",,35010 W SANTA RITA RD,TEMECULA,CA,92592,RIVERSIDE
CA-W-15628,COUGAR VINEYARD AND WINERY,,39870 DEPORTOLA RD,TEMECULA,CA,92592,RIVERSIDE
CA-W-22798,"TRANQUILITY VINEYARDS AND WINERY, LLC",TRANQUIL HEART VINEYARD AND WINERY,27469 COLT CT,TEMECULA,CA,92590,RIVERSIDE
CA-W-15011,"BELLA VISTA WINERY OF TEMECULA, INC.",BELLA VISTA VINEYARD & WINERY,41220 CALLE CONTENTO,TEMECULA,CA,92592,RIVERSIDE
CA-W-2785,"FALKNER WINERY, INC.",,40620 CALLE CONTENTO,TEMECULA,CA,92591,RIVERSIDE
CA-W-20290,"CASA TIENE VISTA VINEYARD,LLC",CASA TIENE VISTA VINEYARD,27495 DIAZ RD,TEMECULA,CA,92590,RIVERSIDE
CA-W-23527,WIENS CELLARS LLC,WIENS BREWING COMPANY,27941 DIAZ RD UNIT A,TEMECULA,CA,92590,RIVERSIDE
CA-W-15035,"WILSON CREEK WINERY & VINEYARDS, INC.",WILSON CREEK WINERY & VINEYARDS,35960 RANCHO CALIFORNIA RD,TEMECULA,CA,92591,RIVERSIDE
CA-W-22730,CHEZ BOUJIE,SWEET OAKS WINE,43240 LOS CORRALITOS RD,TEMECULA,CA,92592,RIVERSIDE
CA-W-23398,CHUBBY CHEEKS MEADERY LLC,CHUBBY CHEEKS MEADERY,42225 REMINGTON AVE STE A-6,TEMECULA,CA,92590,RIVERSIDE
CA-W-20289,SPERANZA WINERY LLC,SPERANZA WINERY,27495 DIAZ RD,TEMECULA,CA,92592,RIVERSIDE
CA-W-16887,"RANCHO VISTA LAS ESTRELLAS, INC.",RAUL RAMIREZ BODEGAS Y VINEDOS,34225 RANCHO CALIFORNIA RD,TEMECULA,CA,92591,RIVERSIDE
CA-W-21932,"SAN AGUSTIN VINEYARDS, LLC",SAN AGUSTIN VINEYARDS,27495 DIAZ RD,TEMECULA,CA,92590,RIVERSIDE
CA-W-17598,"THE SILVERTON PARTNERS, INC.",KEYWAYS VINEYARD AND WINERY,37338 DE PORTOLA RD,TEMECULA,CA,92592,RIVERSIDE
CA-W-15429,"CALLAWAY TEMECULA, LP, PDM-CALLAWAY, LLC, GP",CALLAWAY VINEYARD & WINERY,32720 RANCHO CALIFORNIA RD,TEMECULA,CA,92591,RIVERSIDE
CA-W-21031,"BEL VINO, LLC",BEL VINO WINERY,33515 RANCHO CALIFORNIA RD,TEMECULA,CA,92591,RIVERSIDE
CA-W-15698,"WINDY RIDGE, INC.",OAK MOUNTAIN WINERY,36522 VIA VERDE,TEMECULA,CA,92592,RIVERSIDE
CA-W-21751,"CARTER ESTATE WINERY AND RESORT, LLC",,34450 RANCHO CALIFORNIA RD,TEMECULA,CA,92591,RIVERSIDE
CA-W-23779,MOODY CREEK WINERY LLC,MOODY CREEK WINERY,27495 DIAZ RD,TEMECULA,CA,92590,RIVERSIDE
CA-W-16826,"FAZELI VINEYARDS, LLC",FAZELI VINEYARDS,27495 DIAZ RD,TEMECULA,CA,92590,RIVERSIDE
CA-W-3617,DONALD E. FRANGIPANI & JOANN FRANGIPANI,FRANGIPANI ESTATE WINERY,39750 DE PORTOLA RD,TEMECULA,CA,92592,RIVERSIDE
CA-W-23575,"MONTE VINO VISTA, LLC",,27495 DIAZ RD,TEMECULA,CA,92590,RIVERSIDE
CA-W-17521,"OAK MEADOWS RANCH, INC.",VITAGLIANO VINEYARDS & WINERY,36101 GLENOAKS RD,TEMECULA,CA,92592,RIVERSIDE
CA-W-23639,REFUGE WINERY LLC,REFUGE ESTATES,27469 COLT CT,TEMECULA,CA,92590,RIVERSIDE
CA-W-3246,NICHOLAS P. PALUMBO,PALUMBO FAMILY VINEYARDS & WINERY,40150 BARKSDALE LN,TEMECULA,CA,92592,RIVERSIDE
CA-W-21967,"CREATIVE SPACE INNOVATION, LLC",EMOS ESTATE,27495 DIAZ RD,TEMECULA,CA,92590,RIVERSIDE
CA-W-21632,"OFF THE VINE INTO WINE, LLC",,27495 DIAZ RD,TEMECULA,CA,92590,RIVERSIDE
CA-W-16234,"RENZONI VINEYARDS, INC.",ROBERT RENZONI VINEYARDS,37350 DE PORTOLA RD,TEMECULA,CA,92592,RIVERSIDE
CA-W-20343,SARRON VINEYARDS INC,,27495 DIAZ RD,TEMECULA,CA,92951,RIVERSIDE
CA-W-17115,"DANZA DEL SOL WINERY, INC.",DANZA DEL SOL WINERY,39050 DE PORTOLA RD,TEMECULA,CA,92592,RIVERSIDE
CA-W-23831,"DE PORTOLA ESTATE WINERY, LLC",DE PORTOLA WINERY,37440 DE PORTOLA RD,TEMECULA,CA,92592,RIVERSIDE COUNTY
CA-W-23605,"DE PORTOLA ESTATE WINERY, LLC",DE PORTOLA WINERY,27495 DIAZ RD,TEMECULA,CA,92590,RIVERSIDE COUNTY
CA-W-16279,RONALD D STARR AND GEORGE W JOHNSON,STARR JOHNSON WINES,5417 TREE SIDE DR,CARMICHAEL,CA,95608,SACRAMENTO
CA-W-16475,WRECKLESS BLENDERS LLC,WRECKLESS BLENDERS,6365 PALM DR,CARMICHAEL,CA,95608,SACRAMENTO
CA-W-3046,"MCCONNELL ESTATES WINERY, INC.",MCCONNELL ESTATES WINERY,10686 W STOCKTON BLVD STE A,ELK GROVE,CA,95758,SACRAMENTO
CA-W-22309,JEFFREY ADKINS,ADKINS FAMILY VINEYARD,8980 GRANT LINE RD,ELK GROVE,CA,95624,SACRAMENTO
CA-W-23245,"HARRIS FAMILY ESTATE VINEYARD, LLC",,11045 GRENACHE WAY,ELK GROVE,CA,95624,SACRAMENTO
CA-W-23417,CANDICE & CHRISTOPHER MORA,CHRISTOPHER CELLARS,9654 BRADSHAW RD,ELK GROVE,CA,95624,SACRAMENTO
CA-W-23865,VERKADE ESTATES LLC,VERKADE ESTATES LLC,7250 GRANT LINE RD,ELK GROVE,CA,95624,SACRAMENTO
CA-W-21559,STEPHEN RANDALL VANNATTA,V. BESO VINEYARD,8718 GRANT LINE RD,ELK GROVE,CA,95624,SACRAMENTO
CA-W-23250,MATTHEW PRATT,BRADLEY RANCH WINERY,11070 BRADLEY RANCH RD,ELK GROVE,CA,95624,SACRAMENTO
CA-W-23299,JEFFREY ADKINS,ADKINS FAMILY VINEYARDS,9721 KENT ST,ELK GROVE,CA,95624,SACRAMENTO
CA-W-2793,"GEKKEIKAN SAKE (U.S.A.), INC.",,1136 SIBLEY ST,FOLSOM,CA,95630,SACRAMENTO
CA-WS-21015,JEFF REMPFER,REMPFER CELLARS,727 SUTTER ST #C,FOLSOM,CA,95630,SACRAMENTO
CA-W-23147,"WILLAMETTE VALLEY VINEYARDS, INC.",WILLAMETTE WINEWORKS,824 SUTTER ST,FOLSOM,CA,95630,SACRAMENTO
CA-W-23397,VALENSIN VINEYARD & WINERY,,10675 VALENSIN RD,GALT,CA,95632,SACRAMENTO
CA-W-23351,GARY PALMERO,PALMERO FAMILY VINEYARD,11746 GIUSTI RD,HERALD,CA,95638,SACRAMENTO
CA-W-21983,"WATER INTO WINE, INC.",,15511 ISLETON RD,ISLETON,CA,95641,SACRAMENTO
CA-W-15242,CALIFORNIA CELLARS LLC,,15511 ISLETON RD,ISLETON,CA,95641,SACRAMENTO
CA-W-21927,DONALD JAY PERKINS,LACHAPELLE FAMILY VINEYARD,7551 MOUNTAIN AVE,ORANGEVALE,CA,95662,SACRAMENTO
CA-W-21227,"BEE WISER, LLC",STRAD MEADERY,2539 MERCANTILE DR STE 1,RANCH CORDOVA,CA,95742,SACRAMENTO
CA-W-16506,LET'S TOAST INC,VINTNER'S CELLAR CUSTOM WINERY,12401 FOLSOM BLVD SUITE 204,RANCHO CORDOVA,CA,95742,SACRAMENTO
CA-W-22381,KIMBERLY-JAMES CELLARS,,3333 SUNRISE BLVD STE J,RANCHO CORDOVA,CA,95742,SACRAMENTO
CA-W-23213,SIP AND SAVOR,SIP AND SAVOR,11354 WHITE ROCK RD UNIT 135,RANCHO CORDOVA,CA,95742,SACRAMENTO
CA-W-23313,PATRICK MCGUIRE,SLOUGHHOUSE VINEYARD,13403 SILVA RANCH RD,RANCHO MURIETA,CA,95683,SACRAMENTO
CA-W-21597,"SCAVAR, LLC",SEA NYMPH VINEYARDS,19900 SHERMAN ISLAND CROSSING RD,RIO VISTA,CA,94571,SACRAMENTO
CA-W-16191,JAMES BLAKE LLC,JAMES BLAKE WINES,1412 STEWARD RD,SACRAMENTO,CA,95864,SACRAMENTO
CA-W-23123,"WOLFE HEIGHTS ESTATES, LLC",WOLFE HEIGHTS ESTATES,9440 BAR DU LN,SACRAMENTO,CA,95829,SACRAMENTO
CA-W-23499,"AMBROSE VENTURES, LLC",VOLUPTUARY,8161 BELVEDERE AVE STE C,SACRAMENTO,CA,95826,SACRAMENTO
CA-W-17351,"THE CHATTERTON GROUP, LLC",JASON'S MIDTOWN WINERY,2116 P ST,SACRAMENTO,CA,95816,SACRAMENTO
CA-W-23962,JAMES LANE,YOLIJAY,3621 E WILLIAM WAY,SACRAMENTO,CA,95821,SACRAMENTO
CA-W-21957,"GARBA WINE COMPANY, LLC",PUTAH CREEK WINERY,6917 MC COMBER ST,SACRAMENTO,CA,95828,SACRAMENTO
CA-W-17103,"REVOLUTION WINES, LLC",REVOLUTION WINES,2831 S ST,SACRAMENTO,CA,95816,SACRAMENTO
CA-W-21768,"HERINGER ESTATES WINERY, LLC",HERINGER ESTATES WINERY,8981 DISTRICT CT,SACRAMENTO,CA,95826,SACRAMENTO
CA-W-15967,"FRASINETTI WINERY, LLC",JAS. FRASINETTI & SONS,7395 FRASINETTI RD,SACRAMENTO,CA,95828,SACRAMENTO
CA-W-15493,STUART SPOTO,SPOTO WINES,3630 MEADOW LN,SACRAMENTO,CA,95864,SACRAMENTO
CA-W-15598,VINCENT STERNE,TWO RIVERS CIDER CO,4311 ATTAWA AVE 103,SACRAMENTO,CA,95822,SACRAMENTO
CA-W-23678,"GOOD LIFE PROPERTY, LLC",GOOD LIFE PROPERTY,9005 RIVER RD,SACRAMENTO,CA,95832,SACRAMENTO
CA-W-3355,"SCRIBNER BEND VINEYARDS, INC.",SCRIBNER BEND VINEYARDS,9051 RIVER RD,SACRAMENTO,CA,95832,SACRAMENTO
CA-W-21149,"KAMINSKY WINE COMPANY, LLC",KAMINSKY CELLARS,3351 BUSINESS DR UNIT #103,SACRAMENTO,CA,95820,SACRAMENTO
CA-W-2393,PETER NORMAN MARKS,SIX HANDS WINERY,13783 ISLETON RD,WALNUT GROVE,CA,95690,SACRAMENTO
CA-W-22063,GRAND ISLAND VINEYARDS LLC,,12484 160 HWY,WALNUT GROVE,CA,95615,SACRAMENTO
CA-W-23840,PINNACLES BREWING COMPANY LLC,PINNACLES BREWING COMPANY,3028 CIENEGA RD,HOLLISTER,CA,95023,SAN BENITO
CA-W-17029,"THE CORRALITOS WINE COMPANY, LLC",,9970 CIENEGA RD,HOLLISTER,CA,95023,SAN BENITO
CA-W-17744,"ENZ VINEYARDS, INC.",ENZ VINEYARDS,1781 LIMEKILN RD,HOLLISTER,CA,95023,SAN BENITO
CA-W-15526,"CARDELLA WINERY, LLC",,10034 CIENEGA RD,HOLLISTER,CA,95023,SAN BENITO
CA-W-22842,DUCKHORN WINE COMPANY,CALERA WINE COMPANY,11300 CIENEGA RD,HOLLISTER,CA,95023,SAN BENITO
CA-W-16420,"DEROSE WINERY, INC.",DEROSE WINERY,9970 CIENEGA RD,HOLLISTER,CA,95023,SAN BENITO
CA-W-3609,"LEAL VINEYARDS, INC.",LEAL ESTATE VINEYARDS,300 MARANATHA DR,HOLLISTER,CA,95023,SAN BENITO
CA-W-22691,INTERVINE CAPITAL CIENEGA VALLEY LLC,EDEN RIFT VINEYARDS,10034 CIENEGA RD,HOLLISTER,CA,95023,SAN BENITO
CA-W-15546,WALLACE T. JONES JR,JONES WINERY,6470 VINEYARD DR,HOLLISTER,CA,95023,SAN BENITO
CA-W-15467,"BLACKBURN ENTERPRISES, LLC",PIETRA SANTA WINERY,10034 CIENEGA RD,HOLLISTER,CA,95023,SAN BENITO
CA-W-20123,"VDV VENTURES, LLC",,11 LAUREL CT,HOLLISTER,CA,95023,SAN BENITO
CA-W-23252,"CASA DE FRUTA WINERY, LLC",CASA DE FRUTA,6680 PACHECO PASS HWY,HOLLISTER,CA,95023,SAN BENITO
CA-W-22598,DELICATO VINEYARDS,ALBA COAST WINERY,385 PANOCHE RD,PAICINES,CA,95043,SAN BENITO
CA-W-16923,BERNTSEN FAMILY WINES LLC,WILDEYE WINERY,60 BROWN RD,SAN JUAN BAUTISTA,CA,95045,SAN BENITO
CA-W-23098,"KLINE FAMILY VINEYARDS, LLC",ANNEUGENE WINES,741 RIVERSIDE RD,HOLLISTER,CA,95023,SAN BENITO COUNTY
CA-W-22914,SHORELINE CELLARS INC.,WATERS EDGE WINERY - RANCHO CUCAMONGA,8916 FOOTHILL BLVD STE K3,RANCHO CUCAMONGO,CA,91730,SAN BERDINO
CA-W-21219,"SEVEN OAKS, INC.",SEVEN OAKS HOLDING COMPANY,41421 BIG BEAR BLVD,BIG BEAR LAKE,CA,92315,SAN BERNADINO
CA-W-23053,SAMANO CELLARS INC.,SAMANO FAMILY CELLARS,13788 ROSWELL AVE STE 186,CHINO,CA,91710,SAN BERNARDINO
CA-W-23241,ARGONZA ESTATE,ARGONZA CELLARS,13788 ROSWELL AVE STE 186,CHINO,CA,91710,SAN BERNARDINO
CA-W-16628,"WINE DOWN, LLC",WINE DOWN WINERY AND BISTRO,4505 CHINO HILLS PKWY #A,CHINO HILLS,CA,91709,SAN BERNARDINO
CA-W-21979,"SYCAMORE RANCH VINEYARD & WINERY, LLC",SYCAMORE RANCH VINEYARD & WINERY,174 N DART CANYON RD,CRESTLINE,CA,92325,SAN BERNARDINO
CA-W-924,"SAN ANTONIO WINERY, INC.",SAN ANTONIO WINERY,2802 S MILLIKEN AVE,ONTARIO,CA,91761,SAN BERNARDINO
CA-W-22643,SAMBRIDGE CORPORATION,,5230 SMOKE TREE RD,PHELAN,CA,92371,SAN BERNARDINO
CA-W-22268,MOUNTAIN VISTA WINERY & VINEYARD LLC,,10013 8TH ST STE W AND E-1,RANCHO CUCAMONGA,CA,91730,SAN BERNARDINO
CA-W-23851,PAUL BIANE,BIANE BROTHERS,10013 8TH ST STE T,RANCHO CUCAMONGA,CA,91730,SAN BERNARDINO
CA-W-512,J. FILIPPI VINTAGE CO.,,12467 BASELINE RD,RANCHO CUCAMONGA,CA,91739,SAN BERNARDINO
CA-W-23929,"WINE TRADITIONS, LLC",SAN GIORGIO OF CUCAMONGA WINERY & VINEYARDS,10013 8TH ST UNIT W,RANCHO CUCAMONGA,CA,91730,SAN BERNARDINO
CA-W-21205,"WINE MAKERS, INC.",THE WINE TAILOR,8916 FOOTHILL BLVD STE K3,RANCHO CUCAMONGA,CA,91730,SAN BERNARDINO
CA-W-23860,"BEKH CELLARS, INC.",WATERS EDGE WINERY,"8560 VINEYARD STE 406, 407 & 408 AVE",RANCHO CUCAMONGA,CA,91730,SAN BERNARDINO
CA-WS-3588,"MIZKAN AMERICA, INC.",,10037 8TH ST,RANCHO CUCAMONGA,CA,91730,SAN BERNARDINO
CA-W-17520,RV & JM INC.,STATE STREET WINERY OF REDLANDS,404 E STATE ST,REDLANDS,CA,92373,SAN BERNARDINO
CA-W-3066,BRIAN & CAMILLE BRANDT,BRANDT FAMILY WINERY,750 E 25TH ST,UPLAND,CA,91784,SAN BERNARDINO
CA-W-22252,"OAK GLEN CIDER COMPANY, LLC",,39611 OAK GLEN RD,YUCAIPA,CA,92399,SAN BERNARDINO
CA-W-23599,NORTH CORK VINEYARD & WINERY,,9677 YUCAIPA RIDGE RD,YUCAIPA,CA,92399,SAN BERNARDINO
CA-W-21920,"SNOW-LINE ORCHARD, LLC",,39400 OAK GLEN RD,YUCAIPA,CA,92399,SAN BERNARDINO
CA-W-21143,CRAIG STEVEN SUVEG AND KAREN PATRICIA SUVEG,SUVEG CELLARS,37296 IRONWOOD DR,YUCAIPA,CA,92399,SAN BERNARDINO
CA-W-23494,DEVINERY CELLARS LLC,DEVINERY CELLARS,537 BEAR VIEW WAY,ALPINE,CA,91901,SAN DIEGO
CA-W-16341,TIMOTHY LEE PETERSEN,ROCK CANYON VINEYARDS,3355 EMMANUEL WAY,ALPINE,CA,91901,SAN DIEGO
CA-W-23224,HUEFTLE INC,HUEFTLE FARMS VINEYARD,4582 VALLE DEL SOL,BONSALL,CA,92003,SAN DIEGO
CA-W-23285,LIONSGATE ESTATE & VINEYARD LLC,FORD'S GARAGE WINERY - LIONSGATE ESTATE WINERY,31809 PASEO LINDO,BONSALL,CA,92003,SAN DIEGO
CA-W-17641,CAMPO CREEK VINEYARDS LLC,CAMPO CREEK VINEYARDS,29556 HIGHWAY 94,CAMPO,CA,91906,SAN DIEGO
CA-W-2224,WITCH CREEK WINERY,,2906 CARLSBAD BLVD,CARLSBAD,CA,92008,SAN DIEGO
CA-W-21671,CALIFORNIA FRUIT WINE CORP.,CALIFORNIA FRUIT WINE COMPANY,3186 LIONSHEAD AVE STE 150,CARLSBAD,CA,92010,SAN DIEGO
CA-W-22097,"CARRUTH CELLARS, LLC",CARRUTH CELLARS,2727 STATE ST STE 110,CARLSBAD,CA,92008,SAN DIEGO
CA-W-21288,LITTLE OAKS WINERY LLC,,6084 CORTE DEL CEDRO STE 105,CARLSBAD,CA,92011,SAN DIEGO
CA-W-22769,"VALENTINA VINEYARDS, LLC",,17322 94 HWY,DULZURA,CA,91917,SAN DIEGO
CA-W-21348,"DULZURA VINEYARD AND WINERY, LLC",DULZURA VINEYARD AND WINERY,17323 HIGHWAY 94,DULZURA,CA,91917,SAN DIEGO
CA-W-23717,"BURTECH FAMILY VINEYARD, LLC",BURTECH FAMILY VINEYARD,102 SECOND ST,ENCINITAS,CA,92024,SAN DIEGO
CA-W-22403,"COSTA AZUL WINERY, INC.",SOLTERRA WINERY,934 N COAST HWY 101,ENCINITAS,CA,92024,SAN DIEGO
CA-W-23317,JOHN C REDMOND,HIGHLAND RIDGE VINEYARDS,15036 HIGHLAND VALLEY RD,ESCONDIDO,CA,92025,SAN DIEGO
CA-W-17296,"VESPER VINEYARDS, LLC",VESPER VINEYARDS,298 ENTERPRISE ST STE D,ESCONDIDO,CA,92029,SAN DIEGO
CA-W-23083,"RONALD M. BAS, LLC",BASTIANS VINEYARDS,15326 BANDY CANYON RD,ESCONDIDO,CA,92025,SAN DIEGO
CA-W-3217,GERARDO CORDIANO AND ROSAMARIA CORDIANO,CORDIANO WINERY,15732 HIGHLAND VALLEY RD,ESCONDIDO,CA,92025,SAN DIEGO
CA-W-23819,EFFENBERGER VINEYARDS,EFFENBERGER VINEYARDS,2347 MOUNTAIN VIEW DR,ESCONDIDO,CA,92027,SAN DIEGO
CA-W-3030,"DEER PARK ESCONDIDO, LLC",DEER PARK ESCONDIDO,29013 CHAMPAGNE BLVD,ESCONDIDO,CA,92026,SAN DIEGO
CA-W-21835,"OLD SURVEY VINEYARDS, INC.",,16850 OLD SURVEY RD,ESCONDIDO,CA,92025,SAN DIEGO
CA-W-22402,"FORGOTTEN BARREL, LLC",,1120 W 15TH AVE,ESCONDIDO,CA,92025,SAN DIEGO
CA-W-17694,"THOMAS COLE, ALAN GRANT, ERIC SMITH",ERALTO VINEYARD,14196 SUMMIT CREST,ESCONDIDO,CA,92025,SAN DIEGO
CA-W-1979,"ORFILA VINEYARDS, INC.",ORFILA VINEYARDS,13455 SAN PASQUAL RD,ESCONDIDO,CA,92025,SAN DIEGO
CA-W-17489,ALTIPIANO VINEYARD AND WINERY LLC,ALTIPIANO VINEYARD AND WINERY,20365 CAMINO DEL AGUILA,ESCONDIDO,CA,92025,SAN DIEGO
CA-W-16436,"JEFFREY A. LAZENBY, INC.",,26312 MESA ROCK RD,ESCONDIDO,CA,92026,SAN DIEGO
CA-W-3451,"BELLE MARIE WINERY, LLC",,26312 MESA ROCK RD,ESCONDIDO,CA,92026,SAN DIEGO
CA-W-20547,LORDPUFFER TRUST,LORDPUFFER VINEYARDS,6930 LOS VIENTOS SERENOS,ESCONDIDO,CA,92029,SAN DIEGO
CA-W-21780,"VINO PREGIATI, LLC",,298 ENTERPRISE ST STE D,ESCONDIDO,CA,92029,SAN DIEGO
CA-W-22305,RANCHO GUEJITO VINEYARD,,298 ENTERPRISE ST STE D,ESCONDIDO,CA,92029,SAN DIEGO
CA-W-22152,"STARVATION MOUNTAIN VINEYARDS, LLC",,18404 STARVATION MOUNTAIN ROAD,ESCONDIDO,CA,92025,SAN DIEGO
CA-W-22016,HIGHLAND VALLEY VENTURES LLC,HIGHLAND VALLEY VINEYARDS,15412 BANDY CANYON RD,ESCONDIDO,CA,92025,SAN DIEGO
CA-W-21268,ARTIFACT VINEYARD AND WINERY LLC,,15404 HIGHLAND VALLEY RD,ESCONDIDO,CA,92025,SAN DIEGO
CA-W-21255,EDWARD E EMBLY & JEANNINE E EMBLY,HUNGRY HAWK VINEYARDS,3255 SUMMIT DR,ESCONDIDO,CA,92025,SAN DIEGO
CA-W-17073,"ALLIANCE INTERNATIONAL TRADE & INVESTMENT GROUP, INC.",BLUE-MERLE WINERY,9709 CANYON COUNTRY LN,ESCONDIDO,CA,92026,SAN DIEGO
CA-W-21451,TOM HAASE,MANZANITA RIDGE WINERY,27044 LOTUS POND LN,ESCONDIDO,CA,92026,SAN DIEGO
CA-W-22692,GLOBAL SPORTS MARKETING AND EVENTS INC.,SILENT BOB'S VINEYARD,25445 JESMOND DENE RD,ESCONDIDO,CA,92026,SAN DIEGO
CA-W-17639,JODY B. TOWE,J. BRIX WINES,298 ENTERPRISE ST STE D,ESCONDIDO,CA,92029,SAN DIEGO
CA-W-21716,"ZXQ ENTERPRISES, LLC",ZXQ VINEYARDS,15454 HIGHLANDS CREST WAY,ESCONDIDO,CA,92025,SAN DIEGO
CA-W-17254,"COYOTE OAKS VINEYARDS, LLC",,9843 OAK RIDGE RD,ESCONDIDO,CA,92026,SAN DIEGO
CA-W-21341,"STEHLEON VINEYARDS, INC.",,298 ENTERPRISE ST STE D,ESCONDIDO,CA,92029,SAN DIEGO
CA-W-22547,"DAHA, LLC",,16138 HIGHLAND VALLEY RD,ESCONDIDO,CA,92025,SAN DIEGO
CA-W-20347,ROBERTO ESPINOSA & NOELLE ESPINOSA,ESPINOSA VINEYARD,15360 BRANDY CANYON RD,ESCONDIDO,CA,92025,SAN DIEGO
CA-W-21379,REIDY CREEK VINEYARD AND WINERY LLC,,27118 N BROADWAY ST,ESCONDIDO,CA,92026,SAN DIEGO
CA-W-15878,SAMUEL D. & LESLIE B. ORIZA,ORIZABA WINERY,158 CALLE LINDA,FALLBROOK,CA,92028,SAN DIEGO
CA-W-17402,"CASA TIENE VISTA VINEYARD,LLC",CASA TIENE VISTA,4150 ROCK MOUNTAIN ROAD,FALLBROOK,CA,92028,SAN DIEGO
CA-W-2683,"PREMIUM VINTNERS, LLC",,2554 VIA RANCHEROS,FALLBROOK,CA,92028,SAN DIEGO
CA-W-20408,TOM BOURNE CARSON,THE VINEYARD AT 1924,1924 E MISSION RD,FALLBROOK,CA,92028,SAN DIEGO
CA-W-20068,MARCIA FLOWERS,TOASTED OAK VINEYARDS & WINERY,190 RED MOUNTAIN LN,FALLBROOK,CA,92028,SAN DIEGO
CA-W-23598,THE LAST WYNN LLC,,249 VIA DE AMO,FALLBROOK,CA,92028,SAN DIEGO
CA-W-23981,"ADOBE HILL, LTD.",ADOBE HILL,40740 VIA RANCHITOS,FALLBROOK,CA,92028,SAN DIEGO
CA-W-17680,"SBLENDORIO WINERY, LLC",,38973 DE LUZ RD,FALLBROOK,CA,92028,SAN DIEGO
CA-W-17396,"R.L. TRILLIUM, LLC",IACOBELLI WINERIES,2175 TECALOTE DR,FALLBROOK,CA,92028,SAN DIEGO
CA-W-21462,MYRTLE CREEK VINEYARDS LLC,,1600 VIA VISTA DR BLDG,FALLBROOK,CA,92028,SAN DIEGO
CA-W-23543,ROMIGLIO RIDGE L.L.C.,"ROMIGLIO RIDGE, L.L.C.",1651 SCOOTER LN,FALLBROOK,CA,92028,SAN DIEGO
CA-W-17257,JAMES HAROLD & JUDITH ANNE BRADY,ROADRUNNER RIDGE WINERY,4233 ROSA RANCHO LN,FALLBROOK,CA,92028,SAN DIEGO
CA-W-17690,"LOS WILLOWS WINERY, LLC",,534 STEWART CANYON RD,FALLBROOK,CA,92028,SAN DIEGO
CA-W-17277,"BEACH HOUSE WINERY, INC.",BEACH HOUSE WINERY,1534 SLEEPING INDIAN RD,FALLBROOK,CA,92028,SAN DIEGO
CA-W-21777,DIANNE LYNNE COLLIS,DEERHORN VALLEY VINEYARDS,2516 HONEY SPRINGS RD,JAMUL,CA,91935,SAN DIEGO
CA-W-21977,MANESS VINEYARDS AND CASI CIELO FARM LLC,,3044 COLINA VERDE LN,JAMUL,CA,91935,SAN DIEGO
CA-W-17317,"J PILAR WINERY, INC",JPILAR WINERY,3113 CALLE ALLEJANDRO,JAMUL,CA,91935,SAN DIEGO
CA-W-23180,RUSTY RIDGE WINERY LLC,RUSTIC RIDGE VINEYARDS,15262 LYONS VALLEY RD,JAMUL,CA,91935,SAN DIEGO
CA-W-21312,GRANITE LION CELLARS LLC,STEELE CANYON WINERY,15201 PRESILLA DR B,JAMUL,CA,91935,SAN DIEGO
CA-W-23063,VECCHIEOSO LLC,,19365 ELENA LN,JAMUL,CA,91935,SAN DIEGO
CA-W-21299,"SPANISH PEACOCK WINERY, INC.",SPANISH PEACOCK WINERY,16987 LYONS VALLEY RD,JAMUL,CA,91935,SAN DIEGO
CA-W-1303,"MENGHINI WINERY, INC.",,1150 JULIAN ORCHARDS DR,JULIAN,CA,92036,SAN DIEGO
CA-W-2484,"CENTURY TUBES, INC.",,4200 HIGHWAY 78,JULIAN,CA,92036,SAN DIEGO
CA-W-23685,STORUM RANCH CIDER & WINE,STORUM RANCH CIDER AND WINE,1878 WYNOLA RD,JULIAN,CA,92036,SAN DIEGO
CA-W-22709,"CENTURY TUBES, INC.",CALICO CIDERY,4200 HIGHWAY 78,JULIAN,CA,92036,SAN DIEGO
CA-W-22131,"THE JULIAN WINERY, LLC",,4470 HIGHWAY 78 BLDG 4,JULIAN,CA,92036,SAN DIEGO
CA-W-21993,BRIAN KENNER,JULIAN CIDERWORKS,17550 HARRISON PARK RD,JULIAN,CA,92036,SAN DIEGO
CA-W-22136,VOLCAN MOUNTAIN WINERY LLC,VOLCAN MOUNTAIN WINERY,1255 JULIAN ORCHARDS DR,JULIAN,CA,92036,SAN DIEGO
CA-W-21839,JULIAN HARD CIDER LLC,JULIAN HARD CIDER,2641 APPLE LN,JULIAN,CA,92036,SAN DIEGO
CA-W-22072,"JOOSTE WINE, LLC",LJ CRAFTED WINES,5621 LA JOLLA BLVD,LA JOLLA,CA,92037,SAN DIEGO
CA-W-22599,WYATT OAKS WINERY LLC,WYATT OAKS WINERY,8167 CENTER ST,LA MESA,CA,91942,SAN DIEGO
CA-W-17674,"TOAST OF THE TOWN, INC.",SAN PASQUAL WINERY,8140 CENTER ST,LA MESA,CA,91942,SAN DIEGO
CA-W-23115,"TOAST OF THE TOWN, INC",SAN PASQUAL WINERY,8364 LA MESA BLVD,LA MESA,CA,91942,SAN DIEGO
CA-W-16739,"TOAST OF THE TOWN, INC.",SAN PASQUAL WINERY,8167 CENTER ST,LA MESA,CA,91942,SAN DIEGO
CA-W-22908,"MHM GLASS ETCHING, INC.",MHM GLASS ETCHING,900 CIVIC CENTER DR,NATIONAL CITY,CA,91950,SAN DIEGO
CA-W-17723,"WINEGREETING.COM, INC.",WINEGREETING.COM,4747 OCEANSIDE BLVD SUITE E,OCEANSIDE,CA,92056,SAN DIEGO
CA-W-23426,"CARRUTH CELLARS, LLC",CARRUTH CELLARS,3229 ROYMAR RD,OCEANSIDE,CA,92058,SAN DIEGO
CA-W-16278,"FIFTY BARRELS, INC.",CARLSBAD COASTAL WINERY,3800 OCEANIC #106,OCEANSIDE,CA,92056,SAN DIEGO
CA-W-21158,GOLDEN COAST MEAD LLC,GOLDEN COAST MEAD,4089 OCEANSIDE BLVD STE H,OCEANSIDE,CA,92056,SAN DIEGO
CA-W-20335,PAUL DOUGLAS MATTUCCI,MATTUCCI WINERY,3728 MARITIME WAY BLDG 42,OCEANSIDE,CA,92056,SAN DIEGO
CA-W-15252,JACK L. WOODS,ORANGE WOODS WINERY,17755 MESA DR,PAUMA VALLEY,CA,92061,SAN DIEGO
CA-W-17737,"CORTE MADERA VINEYARDS, LLC.",RAMSRIDGE,7473 CORTE MADERA RD,PINE VALLEY,CA,91962,SAN DIEGO
CA-W-22868,"MISSION CELLARS, LLC",MISSION CELLARS,14053 MIDLAND RD,POWAY,CA,92064,SAN DIEGO
CA-W-23941,"THE CALIFORNIA SPIRITS COMPANY, LLC",,12190 DEARBORN PL,POWAY,CA,92064,SAN DIEGO
CA-W-16207,OLD COACH VINEYARDS & WINERY LLC,OLD COACH VINEYARDS,19050 OLD COACH WAY,POWAY,CA,92064,SAN DIEGO
CA-W-23734,MICHELLE MANN,,16344 EAGLES CREST RD,RAMONA,CA,92065,SAN DIEGO
CA-W-17552,"RAMONA RANCH WINERY, LLC",RAMONA RANCH WINERY,23578 HIGHWAY 78,RAMONA,CA,92065,SAN DIEGO
CA-W-23266,POCO MONTANA LLC,POCO MONTANA,23136 VISTA RAMONA RD,RAMONA,CA,92065,SAN DIEGO
CA-W-15144,WILLIAM JOHN HOLZHAUER,HACIENDA DE LAS ROSAS,18011 BLUEGRASS RD,RAMONA,CA,92065,SAN DIEGO
CA-W-23136,"120 C AVENUE, LLC",STOPLIGHT WINERY,26401 78 HWY,RAMONA,CA,92065,SAN DIEGO
CA-W-23530,OLD JULIAN VINEYARDS & WINERY LLC,OLD JULIAN VINEYARDS & WINERY,25352 E OLD JULIAN HWY,RAMONA,CA,92065,SAN DIEGO
CA-W-15266,"PYRAMID VINEYARD, INC.",PYRAMID VINEYARD,130 MAGNOLIA AVE,RAMONA,CA,92065,SAN DIEGO
CA-W-3220,"SUNLAND ENTERPRISES, LLC",SALERNO WINERY,17948 HIGHWAY 67,RAMONA,CA,92065,SAN DIEGO
CA-W-15706,CACTUS STAR LLC,CACTUS STAR VINEYARD,17029 HANDLEBAR RD,RAMONA,CA,92065,SAN DIEGO
CA-W-16315,"RAMONA VINTNERS CELLARS, INC.",LENORA WINERY,25932 E OLD JULIAN HWY,RAMONA,CA,92065,SAN DIEGO
CA-W-2206,"SCHWAESDALL WINERY, INC.",SCHWAESDALL WINERY,17677 RANCHO DE ORO DR,RAMONA,CA,92065,SAN DIEGO
CA-W-15985,JENNIFER J. JENKIN,PAMO VALLEY WINERY,20997 BLACK CANYON RD,RAMONA,CA,92065,SAN DIEGO
CA-W-22995,PAX RAMONA LLC,,16540 GREEN VALLEY TRUCK TRAIL,RAMONA,CA,92065,SAN DIEGO
CA-W-24032,MAHOGANY MOUNTAIN VINEYARD AND WINERY LLC,MAHOGANY MOUNTAIN VINEYARD AND WINERY,14905 MUSSEY GRADE RD,RAMONA,CA,92065,SAN DIEGO
CA-W-22011,"TURQUOISE BARN CIDER, LLC",TURQUOISE BARN CIDER,955 MAPLE ST,RAMONA,CA,92065,SAN DIEGO
CA-W-22765,"ITAQUE VINEYARDS, INC",ITAQUE VINEYARDS,1054 ALICE ST,RAMONA,CA,92065,SAN DIEGO
CA-W-17759,WILLIAM JOHN HOLZHAUER,HACIENDA DE LAS ROSAS,18011 BLUEGRASS RD,RAMONA,CA,92065,SAN DIEGO
CA-W-15703,CAROLYN HARRIS AND PAUL HARRIS,CHUPAROSA VINEYARDS,910 GEM LN,RAMONA,CA,92065,SAN DIEGO
CA-W-15884,ALFREDO & SABRINA GALLONE,PRINCIPE DI TRICASE WINERY,18425 HIGHLAND VALLEY RD,RAMONA,CA,92065,SAN DIEGO
CA-W-16949,"NANCAR VINEYARD, INC",NANCAR VINEYARD,24746 RANCHO SANTA TERESA DR,RAMONA,CA,92065,SAN DIEGO
CA-W-22776,SUNRISE VINEYARDS LLC,,16620 HIGHLAND VALLEY RD,RAMONA,CA,92065,SAN DIEGO
CA-W-17241,"HIGHLAND HILLS CELLARS, LLC",HIGHLAND HILLS CELLARS,18545 RANGELAND RD,RAMONA,CA,92065,SAN DIEGO
CA-W-22889,PROSPORTS PRODUCTS,TRE COLLINE THREE HILLS WINERY,16805 HIGHLAND VALLEY RD,RAMONA,CA,92065,SAN DIEGO
CA-W-15853,DENNIS GRIMES & JULIE GRIMES,EAGLES NEST WINERY,18259 CHABLIS RD,RAMONA,CA,92065,SAN DIEGO
CA-W-17709,"RANCHO CORRECAMINOS, LLC",CORRECAMINOS VINEYARD & WINERY,1934 PAMO RD,RAMONA,CA,92065,SAN DIEGO
CA-W-23014,"RASHELICA WINERY, LLC",,17948 67 HWY,RAMONA,CA,92065,SAN DIEGO
CA-W-21062,"CHINOOK CELLARS, INC.",HATFIELD CREEK WINERY,1625 HIGHWAY 78,RAMONA,CA,92065,SAN DIEGO
CA-W-17355,"TURTLE ROCK RIDGE VINEYARD WINERY, INC",TURTLE ROCK RIDGE VINEYARD WINERY,18351 WOODS HILL LN,RAMONA,CA,92065,SAN DIEGO
CA-W-21274,"S & S GARCIA & ASSOCIATES, LLC",GARCIA'S VINEYARD & WINERY,1152 A JAYBIRD LANE LN,RAMONA,CA,92065,SAN DIEGO
CA-W-21682,DAVID S. HARBOUR,HARBOUR FARM AND VINEYARD,3326 HIGHWAY 67,RAMONA,CA,92065,SAN DIEGO
CA-W-22059,"RANCHO SAN MARTIN VINEYARD, LLC",,17249 SUNDANCE DR,RAMONA,CA,92065,SAN DIEGO
CA-W-21135,POPPAEA VINEYARD LLC,POPPAEA VINEYARD,25643 OLD JULIAN HIGHWAY,RAMONA,CA,92065,SAN DIEGO
CA-W-21290,ROBERT ANTHONY DE FEO,TARA WINERY,1120 AVIENDA NARANJA,RAMONA,CA,92065,SAN DIEGO
CA-W-23281,BLUEGRASS RANCH LLC,ALPENGLOW WINERY,18011 BLUEGRASS RD,RAMONA,CA,92065,SAN DIEGO
CA-W-23623,3 1/2 HORSE LLC,3 1/2 HORSE RANCH AND VINEYARD,1230 AVENIDA NARANJA,RAMONA,CA,92065,SAN DIEGO
CA-W-23262,"VINE VENTURES, LLC",VINA RAMONA,657 E OLD JULIAN HWY,RAMONA,CA,92065,SAN DIEGO
CA-W-21631,THE MYSTERIOUS MEAD COMPANY INC.,,344 TELFORD LN,RAMONA,CA,92065,SAN DIEGO
CA-W-15970,STEPHEN L. AND MARILYN V. KAHLE,WOOF'N ROSE WINERY,17073 GARJAN LN,RAMONA,CA,92065,SAN DIEGO
CA-W-15124,"VICTOR A. EDWARDS, JR.",EDWARDS VINEYARD & WINERY,26502 HIGHWAY 78,RAMONA,CA,92065,SAN DIEGO
CA-W-15723,"LITTLE PAGE OAKS, LLC",LITTLE PAGE OAKS,18750 LITTLE PAGE RD,RAMONA,CA,92065,SAN DIEGO
CA-W-24091,TUTRAM H BOGER,BLUE HONEY,23719 VISTA RAMONA RD,RAMONA,CA,92065,SAN DIEGO
CA-W-17570,SUSANNE SAPIER,VINEYARD GRANT JAMES,25260 E OLD JULIAN HWY,RAMONA,CA,92065,SAN DIEGO
CA-W-17428,"KOHILL VINEYARD AND WINERY, INC.",KOHILL WINERY,17211 HIGHLANDER RD,RAMONA,CA,92065,SAN DIEGO
CA-W-23491,SCENIC VALLEY RANCH LLC,SCENIC VALLEY RANCH,27012 SCENIC VALLEY RD,RAMONA,CA,92065,SAN DIEGO
CA-W-23727,STELLA POLLY INC,MIKKELLER SD,9368 CABOT DR,SAN DIEGO,CA,92126,SAN DIEGO
CA-W-17092,"M&C WINERY, INC.",THE BLUE DOOR WINERY,4060 MORENA BLVD SUITE E-E2,SAN DIEGO,CA,92117,SAN DIEGO
CA-W-21082,"2PLANK VINEYARDS, LLC",,6242 FERRIS SQ,SAN DIEGO,CA,92121,SAN DIEGO
CA-W-22917,"THE CIDER HOUSE, LLC",POOCHIE'S HOOCH URBAN CIDERY,7559 MISSION GORGE RD,SAN DIEGO,CA,92120,SAN DIEGO
CA-WS-21013,ESOTERIC DISTRIBUTION LLC,,1466 F ST,SAN DIEGO,CA,92107,SAN DIEGO
CA-W-23170,"MODERN TIMES DRINKS, INC.",MODERN TIMES BEER,3612 KURTZ ST,SAN DIEGO,CA,92110,SAN DIEGO
CA-W-21924,BIG H WINE CORP,VINO URBANO,6825 GATEWAY PARK DR STE 3,SAN DIEGO,CA,91954,SAN DIEGO
CA-W-21378,"GIANNI BUONOMO VINTNERS, LLC",GIANNI BUONOMO VINTNERS,5151 SANTA FE ST UNIT H,SAN DIEGO,CA,92109,SAN DIEGO
CA-W-22010,SHAWN MAGURNO,BLUE FELT WINERY,6236 LAKE ARINANA AVE,SAN DIEGO,CA,92119,SAN DIEGO
CA-W-22382,INDIA STREET WINEY LLC,,8680 MIRALANI DR STE 129,SAN DIEGO,CA,92126,SAN DIEGO
CA-W-21944,"VANBRINK, INC.",CHARLIE & ECHO,8680 MIRALANI DR STE 113-114,SAN DIEGO,CA,92126,SAN DIEGO
CA-W-22857,RISING TIDE BOTTLEWORKS LLC,,3986 30TH ST,SAN DIEGO,CA,92104,SAN DIEGO
CA-W-22443,"SERPENTINE CIDER, LLC",,8665 MIRALANI DR STE 100,SAN DIEGO,CA,92126,SAN DIEGO
CA-W-22232,"BRONTO BREW, LLC",BRONTO BREW,9235 TRADE PL STE D,SAN DIEGO,CA,92126,SAN DIEGO
CA-W-21940,NEGOCIANT WINERY,,2419 E EL CAJON BLVD UNIT B,SAN DIEGO,CA,92104,SAN DIEGO
CA-W-22679,"KOI ZEN CELLARS, INC.",KOI ZEN CELLARS,12225 WORLD TRADE DR STE P & Q,SAN DIEGO,CA,92128,SAN DIEGO
CA-W-23834,"JUNESHINE, INC.",JUNESHINE,10051 OLD GROVE RD,SAN DIEGO,CA,92131,SAN DIEGO
CA-W-22538,CALIFORNIA FRUIT WINE CORP.,FRUIT CRAFT,1477 UNIVERSITY AVE,SAN DIEGO,CA,92103,SAN DIEGO
CA-W-15536,"BERNARDO WINERY, INC.",,13330 PASEO DEL VERANO NORTE,SAN DIEGO,CA,92128,SAN DIEGO
CA-W-21412,BRETT CICCHETTO,BRIDGE WINERY,5151 SANTA FE ST STE H,SAN DIEGO,CA,92109,SAN DIEGO
CA-W-23801,"CORONADO BREWING COMPANY, INC.",,1205 KNOXVILLE ST,SAN DIEGO,CA,92110,SAN DIEGO
CA-W-15276,"FIFTY BARRELS, INC.",CARLSBAD COASTAL WINERY,2930 NORMAN STRASSE RD SUITE 103,SAN MARCOS,CA,92069,SAN DIEGO
CA-W-22516,"DJC ENTERPRISES, INC.",RAGING CIDER & MEAD CO.,177 NEWPORT DR STE B,SAN MARCOS,CA,92069,SAN DIEGO
CA-W-22563,"MEADIOCRITY MEADERY, LLC",MEADIOCRITY MEAD,1365 GRAND AVE STE 100,SAN MARCOS,CA,92078,SAN DIEGO
CA-W-3151,"TWIN OAKS VALLEY VINTNERS, LLC",,1575 MULBERRY DR,SAN MARCOS,CA,92069,SAN DIEGO
CA-W-17713,"SUNSHINE MOUNTAIN VINEYARD, INC",SUNSHINE MOUNTAIN VINEYARD,2286 SUNSHINE MOUNTAIN RD,SAN MARCOS,CA,92069,SAN DIEGO
CA-W-21457,O'NEILL HONEY COMPANY LLC,,215 S PACIFIC ST STE 109,SAN MARCOS,CA,92078,SAN DIEGO
CA-W-22088,"WALNUT TREE RANCH, LLC",WALNUT TREE RANCH,25303 MESA GRANDE RD,SANTA YSABEL,CA,92070,SAN DIEGO
CA-W-16920,EDWARD J. SWIGGERS,DIAMOND T VINEYARDS,28185 ANGEL MOUNTAIN RD,SANTA YSABEL,CA,92070,SAN DIEGO
CA-W-20020,"MESA GRANDE CORAZON WINERY, LLC",MESA GRANDE CORAZON WINERY,22950 CRESCENT HEIGHTS RD,SANTA YSABEL,CA,92070,SAN DIEGO
CA-W-23705,ANGELO MICHAEL MULLA,TRES LLAVES VINEYARD & WINERY,25247 MESA GRANDE RD,SANTA YSABEL,CA,92070,SAN DIEGO
CA-W-16976,ADAM C. CARRUTH,CARRUTH CELLARS,320 S CEDROS AVE,SOLANA BEACH,CA,92075,SAN DIEGO
CA-W-22096,"CARRUTH CELLARS, LLC",,118 S CEDROS AVE,SOLANA BEACH,CA,92075,SAN DIEGO
CA-W-21799,"VINEYARD HACIENDA EVENTS, INC.",,12685 CAMPO RD,SPRING VALLEY,CA,91978,SAN DIEGO
CA-W-23933,"BEVI PERFETTO, LLC",,2733 VIA ORANGE WAY UNIT 106,SPRING VALLEY,CA,91978,SAN DIEGO
CA-W-22604,GOTTLIEB FARMS LLC,JACK SIMON VINEYARDS,27495 DIAZ RD,TEMECULA,CA,92590,SAN DIEGO
CA-W-16655,"TRIPLE B RANCHES, LP",TRIPLE B RANCHES,15030 VESPER RD,VALLEY CENTER,CA,92082,SAN DIEGO
CA-W-17573,"HTR, LLC",HILL TOP WINERY,30801 VALLEY CENTER RD,VALLEY CENTER,CA,92082,SAN DIEGO
CA-W-15031,DONALD M. SANDERS,ACCIDENTAL WINERY,30718 MESA CREST RD,VALLEY CENTER,CA,92082,SAN DIEGO
CA-W-23732,PAUMA VISTA VINEYARD LLC,PAUMA VISTA VINEYARD,32261 DUNCAN TER,VALLEY CENTER,CA,92082,SAN DIEGO
CA-W-22178,"2PLANK VINEYARDS, LLC",,2379 LA MIRADA DR,VISTA,CA,92081,SAN DIEGO
CA-W-22356,TWISTED HORN LLC,TWISTED HORN,1042 LA MIRADA CT,VISTA,CA,92081,SAN DIEGO
CA-W-15210,"SERENISSIMA, LLC",LA SERENISSIMA,35168 HWY 79,WARNER SPRINGS,CA,92086,SAN DIEGO
CA-W-3536,"SHADOW MOUNTAIN VINEYARDS & WINERY, INC.",SHADOW MOUNTAIN VINEYARDS,34680 HIGHWAY 79,WARNER SPRINGS,CA,92086,SAN DIEGO
CA-W-21697,ARGONZA ESTATE,ARGONZA CELLARS,38642 HIGHWAY 79,WARNER SPRINGS,CA,92086,SAN DIEGO
CA-W-23125,"BIG NOSE WINERY, LLC",,38642 HIGHWAY 79,WARNER SPRINGS,CA,92086,SAN DIEGO
CA-W-21673,"HILL SPRINGS FARMS, LLC",EMERALD CREEK WINERY,38642 HIGHWAY 79,WARNER SPRINGS,CA,92086,SAN DIEGO
CA-W-15997,HAWK WATCH WINERY LLC,HAWK WATCH WINERY,27054 CHIHUAHUA VALLEY RD,WARNER SPRINGS,CA,92086,SAN DIEGO
CA-W-17624,SIERRA ROBLE WINERY AND VINEYARDS LLC,,38410 HWY 79,WARNER SPRINGS,CA,92086,SAN DIEGO
CA-W-23675,MISSION X ARTISAN,,38642 HIGHWAY 79,WARNER SPRINGS,CA,92086,SAN DIEGO
CA-W-22454,"ESS EFF WINES, LLC",ESS EFF WINES,495 BARNEVELD AVE,SAN FRANCISCO,CA,94124,SAN FRANCISCCO
CA-W-17110,"FORTUNATUS, LLC",BRAVIUM,"16370 DYERVILLE LOOP RD BLDG 201,",MYERS FLAT,CA,95554,SAN FRANCISCO
CA-W-23463,LES AMERICAINES LLC,CLAIRE HILL WINES,495 BARNEVELD AVE,SAN FRANCISCO,CA,94124,SAN FRANCISCO
CA-W-21705,"CATHERINE COCHRANE, COURTNEY COCHRANE, AND SEAN COCHRANE",RYAN COCHRANE WINES,540 BARNEVELD AVE STE K & L,SAN FRANCISCO,CA,94124,SAN FRANCISCO
CA-W-15973,SOL ROUGE LLC,SOL ROUGE,200 CALIFORNIA AVE BLDG 180 N,SAN FRANCISCO,CA,94130,SAN FRANCISCO
CA-W-17490,"33RD STREET CELLARS, LLC",CELLARS 33,495 BARNEVELD AVE,SAN FRANCISCO,CA,94124,SAN FRANCISCO
CA-W-23055,"MANSFIELD-DUNNE WINES, LLC",,495 BARNEVELD AVE,SAN FRANCISCO,CA,94124,SAN FRANCISCO
CA-W-22595,JOHN DAVID LOUIS BRY,PERFUSION VINEYARD,495 BARNEVELD AVE,SAN FRANCISCO,CA,94124,SAN FRANCISCO
CA-W-3592,"AUGUST WEST WINES, LLC",AUGUST WEST,540 BARNEVELD AVE SUITES K A,SAN FRANCISCO,CA,94124,SAN FRANCISCO
CA-W-17398,"MICHAEL JAMES WINES, INC.",MICHAEL JAMES WINES,2455 3RD ST,SAN FRANCISCO,CA,94107,SAN FRANCISCO
CA-W-22659,"HACKBERRY HILL CELLARS, LLC",,2455 THIRD ST,SAN FRANCISCO,CA,94107,SAN FRANCISCO
CA-W-16651,"PB WINES, INC.",,1080 AVENUE M UNIT C,SAN FRANCISCO,CA,94130,SAN FRANCISCO
CA-W-15779,"KENDRIC VINEYARDS, LLC",KENDRIC VINEYARDS,401 13TH ST BUILDING 3,SAN FRANCISCO,CA,94130,SAN FRANCISCO
CA-W-22247,CJM WINE GROUP LLC,FALLON PLACE WINES,495 BARNEVELD AVE,SAN FRANCISCO,CA,94124,SAN FRANCISCO
CA-W-23518,"BAREBOTTLE BREWING COMPANY, INC.",BAREBOTTLE BREWING COMPANY,1525 CORTLAND AVE,SAN FRANCISCO,CA,94110,SAN FRANCISCO
CA-W-21774,HERSLY WINES LLC,HERSLY WINES,"540 BARNEVELD AVE STE K, L",SAN FRANCISCO,CA,94124,SAN FRANCISCO
CA-W-15425,BARBARA J. GRATTA,GRATTA WINES,1469 HUDSON AVE,SAN FRANCISCO,CA,94124,SAN FRANCISCO
CA-W-17424,"FURTHERMORE, LLC",FURTHERMORE PINOT NOIR,1225 MINNESOTA ST,SAN FRANCISCO,CA,94107,SAN FRANCISCO
CA-W-21846,COSENZA CELLARS LLC,,5361 BLUXOME ST,SAN FRANCISCO,CA,94107,SAN FRANCISCO
CA-W-22069,"RUSSE WINE PARTNERS, LLC",MONTAGNE RUSSE,540 BARNEVELD AVE STE K & L,SAN FRANCISCO,CA,94124,SAN FRANCISCO
CA-W-17377,ALCHEMIST CELLARS LLC,ALCHEMIST CELLARS,53 BLUXOME ST,SAN FRANCISCO,CA,94107,SAN FRANCISCO
CA-W-21270,HARDBALL CELLARS INC.,HARDBALL CELLARS,2455 THIRD ST,SAN FRANCISCO,CA,94107,SAN FRANCISCO
CA-W-21743,"FORTUNATUS, LLC",BRAVIUM,1225 MINNESOTA ST,SAN FRANCISCO,CA,94107,SAN FRANCISCO
CA-W-17516,"CASA NO COMPRENDE, INC.",TREASURE ISLAND WINES,995 NINTH,SAN FRANCISCO,CA,94130,SAN FRANCISCO
CA-W-21880,"SMASHING GRAPES, LLC",TIMARK WINES,2455 3RD ST,SAN FRANCISCO,CA,94107,SAN FRANCISCO
CA-W-17549,MORGAN FAMILY WINES LLC,MORGAN FAMILY WINES,"995 9TH ST BLDG 201,",SAN FRANCISCO,CA,94130,SAN FRANCISCO
CA-W-17719,CHRISTOPHER VON HOLT AND PAMELA VON HOLT,VON HOLT WINES,1225 MINNESOTA ST,SAN FRANCISCO,CA,94107,SAN FRANCISCO
CA-W-21120,"VOLEURS DE VIN, LLC",VOLEURS DE VIN,53 BLUXOME ST,SAN FRANCISCO,CA,94107,SAN FRANCISCO
CA-W-21023,ARAN O. HEALY AND DAVID G. GREGA,CARLOTTA CELLARS,2455 3RD ST,SAN FRANCISCO,CA,94107,SAN FRANCISCO
CA-W-16641,"YERBA BUENA BEVERAGE, LLC",TREASURE ISLAND BRANDS,750 6TH ST,SAN FRANCISCO,CA,94130,SAN FRANCISCO
CA-W-21217,"LOOS FAMILY WINERY, LLC",,2455 THIRD ST,SAN FRANCISCO,CA,94107,SAN FRANCISCO
CA-W-21253,"WINEDOCTORS, LLC",,2455 3RD ST,SAN FRANCISCO,CA,94107,SAN FRANCISCO
CA-W-17319,ERISTAVI WINERY LLC,,1300 POTRERO AVE,SAN FRANCISCO,CA,94110,SAN FRANCISCO
CA-W-21765,MAGIC BAG MEADERY LLC,MAGIC BAG MEADERY,1180 SHAFTER AVE,SAN FRANCISCO,CA,94124,SAN FRANCISCO
CA-W-17354,"PUG WINE, LLC",PUG WINE,2455 3RD ST,SAN FRANCISCO,CA,94107,SAN FRANCISCO
CA-W-17548,HDC WINE COMPANY LLC,HDC WINE COMPANY,"995 9TH ST BLDG 201,",SAN FRANCISCO,CA,94130,SAN FRANCISCO
CA-W-24060,VESO INC.,,,SAN FRANCISCO,CA,94130,SAN FRANCISCO
CA-W-17609,"SEAMUS WINES, LLC",SEAMUS WINES,2455 3RD ST,SAN FRANCISCO,CA,94107,SAN FRANCISCO
CA-W-17487,"WAIT CELLARS, LLC",WAIT CELLARS,53 BLUXOME ST,SAN FRANCISCO,CA,94107,SAN FRANCISCO
CA-W-17327,"WAITS-MAST FAMILY CELLARS, LLC",,495 BARNEVELD AVE,SAN FRANCISCO,CA,94124,SAN FRANCISCO
CA-W-22193,URBAN CELLARS LLC,URBAN CELLARS,495 BARNEVELD AVE,SAN FRANCISCO,CA,94124,SAN FRANCISCO
CA-W-15292,BRYAN RULISON HARRINGTON,HARRINGTON WINES,1559 CUSTER AVE,SAN FRANCISCO,CA,94124,SAN FRANCISCO
CA-W-17255,"MORNINGWOOD VINEYARDS AND WINERY, INC.",,NOT PROVIDED,SAN FRANCISCO,CA,94130,SAN FRANCISCO
CA-W-17212,CITY VINTNERS SAN FRANCISCO WINERY LLC,,53 BLUXOME ST,SAN FRANCISCO,CA,94107,SAN FRANCISCO
CA-W-21125,PASSAGGIO WINES LLC,PASSAGGIO WINES,995 9TH ST BLDG 201,SAN FRANCISCO,CA,94130,SAN FRANCISCO
CA-W-23877,"ECO TERRENO WINES, INC.",ECO TERRENO WINES & VINEYARDS,,SAN FRANCISCO,CA,94133,SAN FRANCISCO
CA-W-23993,JUST ENOUGH WINES LLC,,995 9TH ST UNIT 201 RM104,SAN FRANCISCO,CA,94130,SAN FRANCISCO
CA-W-21034,EDWARD S. KURTZMAN,SANDLER WINE COMPANY,540 BARNEVELD AVE STE K AND L,SAN FRANCISCO,CA,94124,SAN FRANCISCO
CA-W-21050,TANK WINES LLC,TANK WINES,18 DORE ST,SAN FRANCISCO,CA,94117,SAN FRANCISCO
CA-W-15734,CARL E. & SHARON H. SUTTON,SUTTON CELLARS,601 22ND ST,SAN FRANCISCO,CA,94107,SAN FRANCISCO
CA-W-21971,SEVEN HILL LLC,,28740 INWOOD RD,SHINGLETOWN,CA,96088,SAN FRANCISCO
CA-W-23507,TRUE NORTH WINERY LLC,TRUE NORTH WINERY,,SAN FRANCISCO,CA,94130,SAN FRANCISCO COUNTY
CA-W-22040,"THEOPOLIS ENTERPRISES, LLC",THEOPOLIS VINEYARDS,540 BARNEVELD AVE STE K & L,SAN FRANCISCO,CA,94124,SAN FRANCISCO COUNTY
CA-W-22655,BRAZEN VENTURES LLC,BRAZEN VENTURES,2455 THIRD ST,SAN FRANCISCO,CA,94107,SAN FRANCISO
CA-W-17756,"MACCHIA, INC.",,7099 E PELTIER RD,ACAMPO,CA,95220,SAN JOAQUIN
CA-W-15798,DONALD D. BERDAHL II,,3750 E WOODBRIDGE RD,ACAMPO,CA,95220,SAN JOAQUIN
CA-W-16523,"RIVER BLUFF CELLARS, INC.",,3125 E ORANGE ST,ACAMPO,CA,95220,SAN JOAQUIN
CA-W-3032,"R & G SCHATZ FARMS, INC.",PELTIER WINERY,22150 N KENNEFICK RD,ACAMPO,CA,95220,SAN JOAQUIN
CA-W-15986,DRAGONFIRE VINEYARDS LLC,DRACONIS VINEYARDS,22150 N KENNEFICK RD,ACAMPO,CA,95220,SAN JOAQUIN
CA-W-3274,CALIFORNIA CONCENTRATE CO.,,18678 N HIGHWAY 99,ACAMPO,CA,95220,SAN JOAQUIN
CA-W-15671,"M2 VINTNERS, INCORPORATED",M2 VINTNERS,2900 E PELTIER RD,ACAMPO,CA,95220,SAN JOAQUIN
CA-W-17123,"ACQUIESCE VINEYARD, LLC",,22275 N TRETHEWAY RD,ACAMPO,CA,95220,SAN JOAQUIN
CA-W-16896,WILLARD RUSSELL FIELDS,FIELDS FAMILY VINEYARDS & WINERY,3803 E WOODBRIDGE RD,ACAMPO,CA,95220,SAN JOAQUIN
CA-W-22093,LORRAINE A. PASKETT ALBRECHT,PASKETT WINERY,11070 E WOODBRIDGE RD,ACAMPO,CA,95220,SAN JOAQUIN
CA-W-16494,BENSON FERRY LLC,,22150 N KENNEFICK RD,ACAMPO,CA,95220,SAN JOAQUIN
CA-W-15866,CARMELA A. & THOMAS C. HOFFMAN,HERITAGE OAK WINERY,10100 E WOODBRIDGE RD,ACAMPO,CA,95220,SAN JOAQUIN
CA-W-16808,"VIAGGIO, INC.",VIAGGIO ESTATE AND WINERY,100 E TADDEI RD,ACAMPO,CA,95220,SAN JOAQUIN
CA-W-15589,DANCING COYOTE WINES,,3125 E ORANGE ST,ACAMPO,CA,95220,SAN JOAQUIN
CA-W-17643,CASSANDRA DURST,DURST WINERY & ESTATE,10173 E ACAMPO RD,ACAMPO,CA,95220,SAN JOAQUIN
CA-W-23974,JSL WINES LLC,JSL WINES,3750 E WOODBRIDGE RD,ACAMPO,CA,95220,SAN JOAQUIN
CA-W-17500,"CONSTELLATION BRANDS U.S. OPERATIONS, INC.",WOODBRIDGE WINERY,5950 E WOODBRIDGE RD,ACAMPO,CA,95220,SAN JOAQUIN
CA-W-16880,"KLINKER BRICK WINERY, INC.",KLINKER BRICK WINERY,3750 E WOODBRIDGE RD,ACAMPO,CA,95220,SAN JOAQUIN
CA-W-16471,ST. JORGE WINERY LLC,ST. JORGE WINERY,22769 N. BENDER RD,ACAMPO,CA,95220,SAN JOAQUIN
CA-W-23453,NASHOBA WINES LLC,NASHOBA WINES LLC,22769 N BENDER RD,ACAMPO,CA,95220,SAN JOAQUIN
CA-W-23999,SPLASH WINES INC,,1525 E JAHANT RD,ACAMPO,CA,95220,SAN JOAQUIN
CA-W-2774,"HOUSLEY FAMILY INVESTMENTS, LLC",HOUSLEY'S CENTURY OAK WINERY,22211 N LOWER SACRAMENTO RD,ACAMPO,CA,95220,SAN JOAQUIN
CA-W-15653,"LANGETWINS WINE COMPANY, INC.",LANGETWINS WINE ESTATES,1525 E JAHANT RD,ACAMPO,CA,95220,SAN JOAQUIN
CA-W-23720,GNARLY FOX WINERY LLC,GNARLY FOX WINERY,2085 E PELTIER RD,ACAMPO,CA,95220,SAN JOAQUIN
CA-W-22638,"GALLOPING HILLS RANCH, LLC",,19350 E STAMPEDE RD,CLEMENTS,CA,95227,SAN JOAQUIN
CA-W-2658,"GNEKOW FAMILY WINERY, LLC",,17347 E GAWNE RD,COLLEGEVILLE,CA,95215,SAN JOAQUIN
CA-W-21738,"RESTLESS FROG, LLC",,90 ROCK CREEK RD UNIT 9,COPPEROPOLIS,CA,95228,SAN JOAQUIN
CA-W-3541,"BARREL TEN QUARTER CIRCLE, INC.",,21801 E HIGHWAY 120,ESCALON,CA,95320,SAN JOAQUIN
CA-W-21001,JEANMARIE H. BERGIN,,10526 S HENRY RD,FARMINGTON,CA,95230,SAN JOAQUIN
CA-W-15624,CALIFORNIA NATURAL PRODUCTS,,1250 E LATHROP RD,LATHROP,CA,95330,SAN JOAQUIN
CA-W-16732,MIRAMONT ESTATE VINEYARDS & WINERY INC,MIRAMONT ESTATE VINEYARD & WINERY,24849 E MILTON RD,LINDEN,CA,95236,SAN JOAQUIN
CA-W-22840,"PHILLIPS FARMS, LLC",MICHAEL DAVID WINERY,11989 N CLEMENTS RD,LINDEN,CA,95236,SAN JOAQUIN
CA-W-21459,"NORTHERN INTERIOR WINE PARTNERS, INC.",,11989 N CLEMENTS RD,LINDEN,CA,95436,SAN JOAQUIN
CA-W-23316,JAMES J. GRIBAUDO,GRIBAUDO WINERY,12470 LOCKE RD STE 838,LOCKEFORD,CA,95237,SAN JOAQUIN
CA-W-15338,KOSTAS KAPINIARIS,STAMA WINERY,12470 LOCKE RD SUITE 700,LOCKEFORD,CA,95237,SAN JOAQUIN
CA-W-2885,"WATTS TRANSPORTATION, LLC",WATTS WINERY,12470 LOCKE RD STE 860,LOCKEFORD,CA,95237,SAN JOAQUIN
CA-W-15340,"SYNERGY CELLARS, LLC",,12470 LOCKE RD STE 268,LOCKEFORD,CA,95237,SAN JOAQUIN
CA-W-21791,EMD WINEMAKING LLC,LVVR SPARKLING CELLARS,12470 LOCKE RD STE 700,LOCKEFORD,CA,95237,SAN JOAQUIN
CA-W-17733,TUSCAN WINE VILLAGE LLC,,12470 LOCKE RD STE 600,LOCKEFORD,CA,95237,SAN JOAQUIN
CA-W-15353,1075 CELLARS,,1075 W TURNER RD,LODI,CA,95240,SAN JOAQUIN
CA-W-15139,JOHN GERARD CARACCIOLO JR.,HELLO WINES,1205 E VINE ST SUITE H,LODI,CA,95240,SAN JOAQUIN
CA-W-15151,"WOODBRIDGE WINERY, INC.",WOODBRIDGE BEVERAGE COMPANY,1649 E VICTOR RD,LODI,CA,95240,SAN JOAQUIN
CA-W-23692,"INTERCOASTAL WINE COMPANY, LLC","INTERCOASTAL WINE COMPANY, LLC",13731 N STATE HIGHWAY 88,LODI,CA,95240,SAN JOAQUIN
CA-W-2593,"SUTTER HOME WINERY, INC.",,18667 JACOB BRACK RD,LODI,CA,95242,SAN JOAQUIN
CA-W-3304,"HERMAN EHLERS & SONS, INC.",E2 FAMILY WINERY,9301 W STATE ROUTE 12,LODI,CA,95242,SAN JOAQUIN
CA-W-23616,"NAKEDWINES.COM, INC.",NAKEDWINES.COM,1 WINEMASTER WAY STE D,LODI,CA,95240,SAN JOAQUIN
CA-W-22683,QUARTERMASTER BRANDS USA INC.,QUATERMASTER BRANDS USA,25 E VINE ST,LODI,CA,95240,SAN JOAQUIN
CA-W-23301,"SHINN VINEYARDS, INC.",BLOCK 21 WINERY,21600 N DAVIS RD,LODI,CA,95242,SAN JOAQUIN
CA-W-17346,"COURAGEOUS, INC.",SERA FINA CELLARS,220 S CLUFF AVE,LODI,CA,95240,SAN JOAQUIN
CA-W-23195,"POUR MANAGEMENT, LLC",POUR MANAGEMENT,5573 W WOODBRIDGE RD,LODI,CA,95242,SAN JOAQUIN
CA-W-23584,"ZERBINA IMPORTS, LLC",ZERBINA,"25, 27, 29, 31 EAST VINE ST",LODI,CA,95240,SAN JOAQUIN
CA-W-23156,WICK VINTNERS LLC,TIPP RAMBLER,1 WINEMASTER WAY STE D,LODI,CA,95240,SAN JOAQUIN
CA-W-23021,"MCKENZIE VINEYARDS & WINERY, LLC",MCKENZIE VINEYARDS & WINERY,2 W LOCKEFORD ST,LODI,CA,95240,SAN JOAQUIN
CA-W-23006,DVIN VINTNERS LLC,,2 W LOCKEFORD ST,LODI,CA,95240,SAN JOAQUIN
CA-W-23054,COLDANI FAMILY WINERY,,13950 N THORNTON RD,LODI,CA,95242,SAN JOAQUIN
CA-W-22783,"MERZ FAMILY WINERY, LLC",,"25 E VINE ST BLDG 27, 29, 31",LODI,CA,95240,SAN JOAQUIN
CA-W-3367,JESSIE'S GROVE WINERY,,1973 W TURNER RD,LODI,CA,95242,SAN JOAQUIN
CA-W-17090,"MY GREEN VINEYARDS, LLC",ONE WAY WINERY,2 W LOCKEFORD ST,LODI,CA,95240,SAN JOAQUIN
CA-W-22660,"CAMPOS VINEYARDS, LLC",CAMPOS VINEYARDS,21 E ELM ST,LODI,CA,95240,SAN JOAQUIN
CA-W-16386,"METTLER & SON, INC.",HARNEY LANE WINERY,9010 E HARNEY LN,LODI,CA,95240,SAN JOAQUIN
CA-W-22773,"FITVINE, LLC",FITVINE WINE,5573 W WOODBRIDGE RD,LODI,CA,95242,SAN JOAQUIN
CA-W-2975,"PHILLIPS FARMS, LLC",MICHAEL DAVID WINERY,14647 N RAY RD,LODI,CA,95242,SAN JOAQUIN
CA-W-23029,SPENKER FAMILY FARMS LLC,SPENKER WINERY,17303 N DEVRIES RD,LODI,CA,95242,SAN JOAQUIN
CA-W-21427,"VI?EDOS AURORA, INC.",,606 S CENTRAL AVE,LODI,CA,95240,SAN JOAQUIN
CA-W-17784,"ALEXIS GEORGE WINES, LLC",ALEXIS GEORGE WINERY,25 E VINE STREET,LODI,CA,95240,SAN JOAQUIN
CA-W-22686,"CALIFORNIA WINE CLASSICS, LLC",,1150 W TURNER BLVD,LODI,CA,95242,SAN JOAQUIN
CA-W-17790,J. STREET INDUSTRIES LLC,,25 E VINE STREET,LODI,CA,95240,SAN JOAQUIN
CA-W-3038,HEATHER JANE PYLE,,18196 N DAVIS RD,LODI,CA,95242,SAN JOAQUIN
CA-W-3309,"OAK RIDGE WINERY, LLC",,6100 E VICTOR RD,LODI,CA,95240,SAN JOAQUIN
CA-W-22364,"LODI CRUSH, INC",LODI CRUSH,1011 E PINE ST,LODI,CA,95240,SAN JOAQUIN
CA-W-21903,"BWSC, LLC",WINC,1 WINEMASTER WAY STE D,LODI,CA,95240,SAN JOAQUIN
CA-W-3496,"RIPKEN VINEYARDS & WINERY, INC.",RIPKEN VINEYARDS & WINERY,2472 W SARGENT RD,LODI,CA,95242,SAN JOAQUIN
CA-W-16984,PATRICK O'NEILL AND DAVID LUJAN JR.,PONDL WINERY,665 W TURNER RD,LODI,CA,95240,SAN JOAQUIN
CA-W-22269,"THOMAS ALLEN VINEYARDS & WINERY, LLC",THOMAS ALLEN VINEYARDS & WINERY,5573 W WOODBRIDGE RD,LODI,CA,95242,SAN JOAQUIN
CA-W-3571,ABUNDANCE VINEYARDS LLC,ABUNDANCE VINEYARDS,1150 W TURNER RD,LODI,CA,95242,SAN JOAQUIN
CA-W-16856,ESTATE CRUSH LLC,ESTATE CRUSH,2 W LOCKEFORD ST,LODI,CA,95240,SAN JOAQUIN
CA-W-16863,"TRI-STAR MARKETING, LLC",SCOTTO FAMILY CELLARS,220 S CLUFF AVE,LODI,CA,95240,SAN JOAQUIN
CA-W-21321,CABANA WINE CORPORATION,CABANA WINERY,710 S BECKMAN RD STE D,LODI,CA,95240,SAN JOAQUIN
CA-W-15865,"ZAPLINE, INC.",VMV,16475 N LOCUST TREE RD,LODI,CA,95240,SAN JOAQUIN
CA-W-17745,KOSTAS KAPINIARIS,STAMA WINERY,17521 N DAVIS RD,LODI,CA,95242,SAN JOAQUIN
CA-W-17126,CALWD INC.,JEREMY WINE COMPANY,270 COMMERCE ST,LODI,CA,95240,SAN JOAQUIN
CA-W-22823,"MANGROVE ESTATES, INC.",THE DROP,220 S CLUFF AVE,LODI,CA,95240,SAN JOAQUIN
CA-W-22076,"GOODMILLS FAMILY WINERY, LLC",,17266 HILLSIDE DR,LODI,CA,95240,SAN JOAQUIN
CA-W-22112,KRYSTAL S ALLEN AND JAMES R WILSON,,11484 E HARNEY LN,LODI,CA,95242,SAN JOAQUIN
CA-W-22380,STEPHEN CHARLES BAKER AND ODILE HUQUETTE ROQUES,GRACE VINEYARDS,1011 E PINE ST,LODI,CA,95240,SAN JOAQUIN
CA-W-17111,KIDDER & ASSOCIATES INCORPORATED,KIDDER FAMILY WINERY,17266 HILLSIDE DR,LODI,CA,95240,SAN JOAQUIN
CA-W-633,STEPHEN JUVENAL BORRA,BORRA'S CELLAR,1301 E ARMSTRONG RD,LODI,CA,95242,SAN JOAQUIN
CA-W-310,WEIBEL INCORPORATED,WEIBEL INCORPORATED,1 WINEMASTER WAY STE D,LODI,CA,95240,SAN JOAQUIN
CA-W-3176,"BERGHOLD WINE SALES, LLC",BERGHOLD VINEYARDS,17343 N CHERRY RD,LODI,CA,95240,SAN JOAQUIN
CA-W-822,DAVID WALTER LUCAS,LUCAS WINERY,18196 N DAVIS RD,LODI,CA,95242,SAN JOAQUIN
CA-W-1421,"LAS VINAS WINERY, INC.",,5573 W WOODBRIDGE RD,LODI,CA,95242,SAN JOAQUIN
CA-W-22934,"SAHI VINEYARDS, LLC",,2 W LOCKEFORD ST,LODI,CA,95240,SAN JOAQUIN
CA-W-2400,"GOLDSTONE LAND COMPANY, LLC",BEAR CREEK WINERY,11900 FURRY RD,LODI,CA,95240,SAN JOAQUIN
CA-W-22023,"METTLER WINES, LLC",METTLER FAMILY VINEYARDS,15451 N ALPINE RD,LODI,CA,95240,SAN JOAQUIN
CA-W-16550,DAVID P AND BARBARA J HUECKSTEADT,HUX VINEYARDS,4064 SCOTTSDALE RD,LODI,CA,95240,SAN JOAQUIN
CA-W-21981,"VINARIJA DRAVA, LLC",DRAVA,1378 E TURNER RD STE D,LODI,CA,95240,SAN JOAQUIN
CA-W-17179,"RIAZA, LLC",RIAZA WINES,2441 S STOCKTON ST SUITE 1,LODI,CA,95240,SAN JOAQUIN
CA-W-17186,ONE VARIA LLC,,15622 N ALPINE RD,LODI,CA,95240,SAN JOAQUIN
CA-W-15285,M WINERY LLC,M WINERY,873 E PINE ST,LODI,CA,95240,SAN JOAQUIN
CA-W-15575,"WILD HEART WINERY, LLC",WILD HEART WINERY,TWO WEST LOCKEFORD ST,LODI,CA,95240,SAN JOAQUIN
CA-W-16798,"AH WINES, INC.",,"25 27,29,31 E. VINE ST",LODI,CA,95240,SAN JOAQUIN
CA-W-21458,"BARSETTI VINEYARDS, INC.",,"2 W LOCKEFORD ST, W",LODI,CA,95240,SAN JOAQUIN
CA-W-21099,"BOKISCH RANCHES, INC.",BOKISCH VINEYARDS,18921 N ATKINS RD,LODI,CA,95240,SAN JOAQUIN
CA-W-17748,"1-800-WINESHOP.COM, INC.",1-800-WINESHOP,1 WINEMASTER WAY,LODI,CA,95240,SAN JOAQUIN
CA-W-23026,"ASV, LLC",,2 W LOCKEFORD ST,LODI,CA,95240,SAN JOAQUIN
CA-W-21183,"OAK FARM VINEYARDS, LLC",OAK FARM VINEYARDS,23627 N DEVRIES RD,LODI,CA,95242,SAN JOAQUIN
CA-W-16451,"THE DANCING FOX WINERY & BREWERY, INC.",THE DANCING FOX WINERY,203 S SCHOOL ST,LODI,CA,95240,SAN JOAQUIN
CA-W-2668,VAN RUITEN FAMILY WINERY LLC,VAN RUITEN FAMILY WINERY,340 W STATE ROUTE 12,LODI,CA,95242,SAN JOAQUIN
CA-W-23460,"DELTA ARTISAN, LLC",DELTA ARTISAN,927 INDUSTRIAL WAY STE B,LODI,CA,95240,SAN JOAQUIN
CA-W-20261,ADAM METTLER,FERMENTED VISION,15451 N ALPINE RD,LODI,CA,95240,SAN JOAQUIN
CA-W-22635,"RUGIADA WINERY, LLC",MASTROSERIO WINERY,"25, 27, 29, 31 EAST VINE ST",LODI,CA,95240,SAN JOAQUIN
CA-W-21638,LEER VINEYARDS LLC,LEER VINEYARDS,1011 E PINE ST,LODI,CA,95240,SAN JOAQUIN
CA-W-23743,"MINERVA VINTNERS, LLC",,15467 E KETTLEMAN LN,LODI,CA,95240,SAN JOAQUIN
CA-W-3421,ROBERT P. HARTZELL AND LINDA M. HARTZELL,HARMONY WYNELANDS,9291 E HARNEY LN,LODI,CA,95240,SAN JOAQUIN
CA-W-3114,"GRANDS AMIS, INC.",GRANDS AMIS,2 W LOCKEFORD ST,LODI,CA,95240,SAN JOAQUIN
CA-W-23902,THE VINEYARDS AT MARSH CREEK OWNERS ASSOCIATION,VINEYARDS AT MARSH CREEK,2 W LOCKEFORD ST,LODI,CA,95240,SAN JOAQUIN
CA-W-2145,ABUNDANCE VINEYARDS LLC,ABUNDANCE VINEYARDS,6100 E HIGHWAY 12,LODI,CA,95240,SAN JOAQUIN
CA-W-17141,"TOASTED TOAD CELLARS, LLC",TOASTED TOAD CELLARS,21 E ELM ST,LODI,CA,95240,SAN JOAQUIN
CA-W-528,DELICATO VINEYARDS,,12001 S 99 HWY,MANTECA,CA,95336,SAN JOAQUIN
CA-W-3054,"J. BENTON FURROW, INC.",J. BENTON FURROW,600 SPRECKELS AVE,MANTECA,CA,95336,SAN JOAQUIN
CA-W-2445,"MCMANIS FAMILY VINEYARDS, INC.",,18700 E RIVER RD,RIPON,CA,95366,SAN JOAQUIN
CA-W-2497,THE WINE GROUP LLC,FRANZIA WINERY,17000 E STATE HIGHWAY 120,RIPON,CA,95366,SAN JOAQUIN
CA-W-17117,"JEFF RUNQUIST WINES, INC.",JEFF RUNQUIST WINES,18700 E RIVER RD,RIPON,CA,95366,SAN JOAQUIN
CA-W-20231,MARK STEVEN LUCCHESI,LUCCA WINERY,16261 E RIVER RD,RIPON,CA,95366,SAN JOAQUIN
CA-W-23177,BRISE BEER AND WINE CO.,,4203 CORONADO AVE STE 3,STOCKTON,CA,95207,SAN JOAQUIN
CA-W-3253,ARTHUR ROBERT KOTH & MARY LOUISE KOTH,MOKELUMNE GLEN VINEYARDS,17347 E GAWNE RD STE B,STOCKTON,CA,95215,SAN JOAQUIN
CA-W-16935,SORELLE WINERY L.L.C.,SORELLE WINERY,9599 HWY 88,STOCKTON,CA,95212,SAN JOAQUIN
CA-W-22173,CALIFORNIA WINES 4 U INC,,4646 QANTAS LN STE B2,STOCKTON,CA,95206,SAN JOAQUIN
CA-W-21850,"CONSUMNES RIVER FARM, LLC",,28305 N THORNTON RD,THORNTON,CA,95686,SAN JOAQUIN
CA-W-21761,WINDMILL RIDGE ENTERPRISES INC.,WINDMILL RIDGE WINERY,8350 W LINNE RD,TRACY,CA,95304,SAN JOAQUIN
CA-W-23601,LIQUID JOURNEY WINERY & VINEYARD LLC,,8458 WEST LINNE RD,TRACY,CA,95304,SAN JOAQUIN
CA-W-24039,BONIFACIA WINES LLC,,8806 W VELMA LN,TRACY,CA,95304,SAN JOAQUIN
CA-W-23065,NIG LLC,MARKUS WINE CO.,8751 E HIGHWAY 12,VICTOR,CA,95253,SAN JOAQUIN
CA-W-17015,"MCCAY CELLARS, LLC",MCCAY CELLARS,8751 E HIGHWAY 12,VICTOR,CA,95253,SAN JOAQUIN
CA-W-2592,"R. LAWSON ENTERPRISES, LLC",WILDROSE VINEYARDS,8751 E HIGHWAY 12,VICTOR,CA,95253,SAN JOAQUIN
CA-W-16611,RODNEY & CYNTHIA MONIZ,MONIZ FAMILY WINES,3750 E WOODBRIDGE RD,WOODBRIDGE,CA,95258,SAN JOAQUIN
CA-W-1837,"LODI VINTNERS, INC.",LODI VINTNERS,3750 E WOODBRIDGE RD,WOODBRIDGE,CA,95258,SAN JOAQUIN
CA-W-1724,RICHARD S. SPENCER & BARBARA J. SPENCER,ST. AMANT WINERY,1 WINEMASTER WAY 3.3 MLS. E. OF P.O.,WOODBRIDGE,CA,95231,SAN JOAQUIN
CA-W-2822,GLOBAL WINE GROUP,,3750 E WOODBRIDGE RD,WOODBRIDGE,CA,95258,SAN JOAQUIN
CA-W-23489,"LATITUDE 37 PARTNERS, LLC",LATITUDE 37,20679 STATE HIGHWAY 120,ESCALON,CA,95320,SAN JOAQUIN COUNTY
CA-W-23512,CIDER WORKS LLC,CIDER WORKS LLC,1 WINEMASTER WAY STE D,LODI,CA,95240,SAN JOAQUIN COUNTY
CA-W-22214,MOUNTAIN RANCH ENTERPRISES LLC,MOUNTAIN RANCH WINERY,"25, 27, 29 & 31 EAST VINE ST",LODI,CA,95240,SAN JOUQUIN
CA-W-23102,SUSAN PETTY FARRINGTON,FARRINGTON WINES,21390 OSTROM RD,FIDDLETOWN,CA,95629,SAN JUAQUIN
CA-W-21824,"IMAGINATION WINES, LLC",,5954 E KETTLEMAN LN,LODI,CA,95240,SAN JUAQUIN
CA-W-22664,3IN WINERY INC.,,5185 UNION RD,PASO ROBLES,CA,93446,SAN LOIS OBISPO
CA-W-21225,SOARING HAWK VINEYARDS INC.,SOARING HAWK VINEYARDS,4255 VISTA DEL LAGO,SANTA MARGARITA,CA,93453,SAN LUIS OBIISPO
CA-W-22042,"TOP WINERY, LLC",,2323 TULEY RD 120,PASO ROBLES,CA,93466,SAN LUIS OBISBO
CA-W-21193,"VINEMARK CELLARS, LLC",VINEMARK CELLARS,3502 DRY CREEK RD UNIT B8,PASO ROBLES,CA,93446,SAN LUIS OBISBO
CA-W-15192,ORTMAN FAMILY VINEYARDS LLC,ORTMAN FAMILY VINEYARDS,2195 CORBETT CANYON RD,ARROYO GRANDE,CA,93420,SAN LUIS OBISPO
CA-W-15817,SLO BOTTLING SERVICES INC,WESTGATE CELLARS,2195 CORBETT CANYON RD,ARROYO GRANDE,CA,93420,SAN LUIS OBISPO
CA-W-16638,CORBETT VINEYARDS LLC,CENTER OF EFFORT,2195 CORBETT CANYON RD,ARROYO GRANDE,CA,93420,SAN LUIS OBISPO
CA-W-23500,"VINTAGE WINE ESTATES, INC.",LAETITIA VINEYARDS & WINERY,453 LAETITIA VINEYARD DR,ARROYO GRANDE,CA,93420,SAN LUIS OBISPO
CA-W-22509,MAIDENSTOEN WINE CORPORATION,MAIDENSTOEN WINE,1600 SAUCELITO CREEK RD,ARROYO GRANDE,CA,93420,SAN LUIS OBISPO
CA-W-1891,"ALBAN VINEYARDS, INC.",ALBAN VINEYARDS,8575 ORCUTT RD,ARROYO GRANDE,CA,93420,SAN LUIS OBISPO
CA-W-22141,"SAUCELITO CANYON, INC. GP SAUCELITO CANYON LP",SAUCELITO CANYON VINEYARD,1600 SAUCELITO CREEK RD,ARROYO GRANDE,CA,93420,SAN LUIS OBISPO
CA-W-21820,"CHENE VINEYARDS, LLC",CHENE WINES,2195 CORBETT CANYON RD,ARROYO GRANDE,CA,93420,SAN LUIS OBISPO
CA-W-1435,TALLEY VINEYARDS,TALLEY VINEYARDS,3031 LOPEZ DR,ARROYO GRANDE,CA,93420,SAN LUIS OBISPO
CA-W-2309,"KYNSI WINES, INC.",,2212 CORBETT CANYON RD,ARROYO GRANDE,CA,93420,SAN LUIS OBISPO
CA-W-21486,"MATTINA FIORE WINES, INC.",MATTINA FIORE WINES,2195 CORBETT CANYON RD,ARROYO GRANDE,CA,93420,SAN LUIS OBISPO
CA-W-17120,"PEACOCK CELLARS, INC.",PEACOCK CELLARS,1543 LOS BERROS RD,ARROYO GRANDE,CA,93420,SAN LUIS OBISPO
CA-W-3322,SALISBURY VINEYARDS,,2195 CORBETT CANYON RD,ARROYO GRANDE,CA,93420,SAN LUIS OBISPO
CA-W-23748,SOUL FLOWER WINE CO.,CADRE,2195 CORBETT CANYON RD,ARROYO GRANDE,CA,93420,SAN LUIS OBISPO
CA-W-22300,"NPG CELLARS, LLC",EL LUGAR WINES,2195 CORBETT CANYON RD,ARROYO GRANDE,CA,93420,SAN LUIS OBISPO
CA-W-15264,DOUGLAS D. TIMEWELL,TOUCAN WINES,3850 ACRE WOOD PL,ARROYO GRANDE,CA,93420,SAN LUIS OBISPO
CA-W-17648,"LONE MADRONE, A CALIFORNIA CORPORATION",LONE MADRONE,3220 EL CAMINO REAL,ATASCADERO,CA,93422,SAN LUIS OBISPO
CA-W-3623,STUART GOLDMAN,FROLICKING FROG,14490 SAN MIGUEL RD,ATASCADERO,CA,93422,SAN LUIS OBISPO
CA-W-21695,RUBY CELLARS LLC,RUBY CELLARS,6625 SANTA CRUZ RD,ATASCADERO,CA,93422,SAN LUIS OBISPO
CA-W-23791,"MEA WINE, LLC",MEA WINE,4405 TRAFFIC WAY,ATASCADERO,CA,93422,SAN LUIS OBISPO
CA-W-21070,"STOLO FAMILY WINERY, INC.",TREVITI WINE,3770 SANTA ROSA CREEK RD,CAMBRIA,CA,93428,SAN LUIS OBISPO
CA-W-15966,CHRIS WALTER OLSEN AND C.S. DENYSE PYO OLSEN,LA MONTANITA VINEYARDS,9199 VIA LA MONTANITA DR,CAMBRIA,CA,93428,SAN LUIS OBISPO
CA-W-17472,DEVILS GATE WINE WORKS,,12530 SANTA RITA RD,CAYUCOS,CA,93430,SAN LUIS OBISPO
CA-W-2717,STUART ALAN SELKIRK AND LAURA LEE SELKIRK,CAYUCOS CELLARS,12530 SANTA RITA RD,CAYUCOS,CA,93430,SAN LUIS OBISPO
CA-W-23164,FLY BY NIGHT SPIRITS LLC,MISSION-TRAIL CIDER CO.,19215 E 46 HWY BLDG,CHOLAME,CA,93461,SAN LUIS OBISPO
CA-W-15132,"DESTINY VINEYARDS, LLC",HUNT CELLARS,3950 HIGHWAY 41,CRESTON,CA,93432,SAN LUIS OBISPO
CA-W-23330,"ELLA'S VINEYARD, LLC",ELLA'S VINEYARD,8790 E HIGHWAY 41,CRESTON,CA,93432,SAN LUIS OBISPO
CA-W-16701,CHATEAU MARGENE,,4385 LA PANZA RD,CRESTON,CA,93432,SAN LUIS OBISPO
CA-W-23020,CHATEAU MARGENE,ROXO PORT CELLARS,4395 LA PANZA RD,CRESTON,CA,93432,SAN LUIS OBISPO
CA-W-16898,"EDEN CANYON, INC.",EDEN CANYON VINEYARDS,1919 CALF CANYON HWY,CRESTON,CA,93432,SAN LUIS OBISPO
CA-W-20287,"SHADOW RUN VINEYARD AND WINERY, INC.",SHADOW RUN VINEYARD AND WINERY,2720 LA PANZA RD,CRESTON,CA,93432,SAN LUIS OBISPO
CA-W-17162,"CONTINENTAL VINEYARDS, LLC",BROKEN EARTH WINERY,679 CALF CANYON HIGHWAY,CRESTON,CA,93432,SAN LUIS OBISPO
CA-W-15630,MARGARITA VINEYARDS LLC,,679 CALF CANYON HWY,CRESTON,CA,93432,SAN LUIS OBISPO
CA-W-23957,CRESTON CANYON VINEYARDS LLC,,1919 CALF CANYON HWY,CRESTON,CA,93432,SAN LUIS OBISPO
CA-W-20502,"MONARCH GROVE WINERY, INC.",MONARCH GROVE WINERY,921 GRIFFIN ST STE A,GROVER BEACH,CA,93433,SAN LUIS OBISPO
CA-W-1674,CHARLES G. & KIMBERLY O. MULLIGAN,HARMONY CELLARS,3255 HARMONY VALLEY RD,HARMONY,CA,93435,SAN LUIS OBISPO
CA-W-23387,"L&N WINES, LLC",,300 NORTH G ST UNIT C,LOMPOC,CA,93436,SAN LUIS OBISPO
CA-W-958,JACQUELINE CAROL TANNER,ROSS KELLER WINERY,985 ORCHARD RD,NIPOMO,CA,93444,SAN LUIS OBISPO
CA-W-16076,TINA PAULINE GRIETENS,MANAVIDOU WINERY,1075 DAKOTA LN,NIPOMO,CA,93444,SAN LUIS OBISPO
CA-W-2287,JOHN DAVID KING,VISTA DEL REY VINEYARDS,7340 DRAKE RD,PASO ROBLES,CA,93446,SAN LUIS OBISPO
CA-W-3181,HALTER WINERY LLC,HALTER RANCH VINEYARD,8910 ADELAIDA RD,PASO ROBLES,CA,93446,SAN LUIS OBISPO
CA-W-23802,SEDUIRE,,2040 NIDERER RD,PASO ROBLES,CA,93446,SAN LUIS OBISPO
CA-W-16851,"22 HUNDRED CELLARS, INC.",FIELD RECORDINGS,3070 LIMESTONE RD UNIT C,PASO ROBLES,CA,93446,SAN LUIS OBISPO
CA-W-17395,"WILLIAM S. POWELL, JR. AND KIMBERLEE B. POWELL",POWELL MOUNTAIN CELLARS,3050 BLUE ROCK RD,PASO ROBLES,CA,93446,SAN LUIS OBISPO
CA-W-17418,JUSTIN VINEYARDS & WINERY LLC,JUSTIN VINEYARDS & WINERY,11680 CHIMNEY ROCK RD,PASO ROBLES,CA,93446,SAN LUIS OBISPO
CA-W-23915,VAHALI WINES LLC,VAHALI VINEYARDS,2540 & 2550 DRY CREEK RD,PASO ROBLES,CA,93446,SAN LUIS OBISPO
CA-W-23523,"SUPERCLIPPER CO, LLC",TITLE X,3310 RAMADA DR STE A,PASO ROBLES,CA,93446,SAN LUIS OBISPO
CA-W-15006,JERRY BELLO & PATRICIA BELLO,B & E VINEYARD,10 CRESTON RD,PASO ROBLES,CA,93446,SAN LUIS OBISPO
CA-W-21078,"GUYOMAR WINE CELLARS, INC",GUYOMAR WINE CELLARS,5940 UNION RD,PASO ROBLES,CA,93446,SAN LUIS OBISPO
CA-W-23820,"FAMILIA HICKS WINES, LLC",FAMILIA HICKS WINES,2910 LIMESTONE WAY,PASO ROBLES,CA,93446,SAN LUIS OBISPO
CA-W-16539,"SAXUM VINEYARDS, INC.",,2800 WILLOW CREEK RD,PASO ROBLES,CA,93446,SAN LUIS OBISPO
CA-W-23334,ASCENSION CELLARS LLC,ASCENSION CELLARS,7350 LINNE RD,PASO ROBLES,CA,93446,SAN LUIS OBISPO
CA-W-23783,CAELESTA VINEYARDS LLC,CAELESTA WINES,2929 LIMESTONE WAY UNIT B,PASO ROBLES,CA,93446,SAN LUIS OBISPO
CA-W-15922,"PASOPORT WINE COMPANY, INC.",,5940 UNION RD,PASO ROBLES,CA,93446,SAN LUIS OBISPO
CA-W-15250,"LE VIGNE WINERY, INC.",,5115 BUENA VISTA DR,PASO ROBLES,CA,93446,SAN LUIS OBISPO
CA-W-15235,MUNCH & FOX,LE CUVIER WINERY,3333 VINE HILL LN,PASO ROBLES,CA,93446,SAN LUIS OBISPO
CA-W-23366,DOUGLAS KRESKY AND ANN KATHRYN KRESKY,COLIBRI ROBLES VINEYARD,,PASO ROBLES,CA,93446,SAN LUIS OBISPO
CA-W-3195,LAWRENCE ANDREW CELLARS,VIA VEGA WINERY,2378 ADOBE RD,PASO ROBLES,CA,93446,SAN LUIS OBISPO
CA-W-15134,STEVEN ARTHUR MARTELL,,3502 DRY CREEK RD UNIT B8,PASO ROBLES,CA,93446,SAN LUIS OBISPO
CA-W-23344,MIZEL VINEYARDS LLC,MIZEL WINES,2959 LIMESTONE WAY,PASO ROBLES,CA,93446,SAN LUIS OBISPO
CA-W-16087,"LARANETA ENTERPRISES, INC.",LARANETA WINERY,3230 RIVERSIDE AVE SUITE 190,PASO ROBLES,CA,93446,SAN LUIS OBISPO
CA-W-23422,"LA PERDIGNUS WINES, INC",LA PERDIGNUS WINES,1227 PASO ROBLES ST,PASO ROBLES,CA,93446,SAN LUIS OBISPO
CA-W-23372,"TS WINE SERVICES, LLC",DETENTE WINES,4230 BUENA VISTA DR,PASO ROBLES,CA,93446,SAN LUIS OBISPO
CA-W-17420,JUSTIN VINEYARDS & WINERY LLC,JUSTIN VINEYARDS & WINERY,2265 WISTERIA LN,PASO ROBLES,CA,93446,SAN LUIS OBISPO
CA-W-3634,BARRETO CELLARS LLC,BARRETO CELLARS,5115 BUENA VISTA DR STE 3,PASO ROBLES,CA,93446,SAN LUIS OBISPO
CA-W-23345,SUNCROWN CELLARS LLC,LEVERAGE WINES,3050 LIMESTONE WAY,PASO ROBLES,CA,93446,SAN LUIS OBISPO
CA-W-3139,LE VIGNE DI SAN DOMENICO,,5115 BUENA VISTA DR 1,PASO ROBLES,CA,93446,SAN LUIS OBISPO
CA-W-15232,"EMERALD HILLS VINEYARD ESTATES, LLC",,3502 DRY CREEK RD UNIT B8,PASO ROBLES,CA,93446,SAN LUIS OBISPO
CA-W-22593,"VINO AL LAGO, LLC",AL LAGO WINES,480 MARQUITA AVE STE B,PASO ROBLES,CA,93446,SAN LUIS OBISPO
CA-W-16761,"H. A. BUELL, INC.",HEARTHSTONE VINEYARD & WINERY,5070 VINEYARD DR,PASO ROBLES,CA,93446,SAN LUIS OBISPO
CA-W-23404,STEPHEN ROGERS AND CHRISTIN FREDERICK,ELEVAGE WINES,2910 LIMESTONE WAY,PASO ROBLES,CA,93446,SAN LUIS OBISPO
CA-W-23315,MILLER FAMILY WINE COMPANY LLC,MILLER FAMILY WINE COMPANY,6305 BUENA VISTA DR,PASO ROBLES,CA,93446,SAN LUIS OBISPO
CA-W-17614,"CARUCCI WINES, LLC",CARUCCI WINES,2975 LIMESTONE WAY,PASO ROBLES,CA,93446,SAN LUIS OBISPO
CA-W-23295,GUS DEFALCO,DEFALCO FAMILY WINES,3230 RIVERSIDE AVE STE 190,PASO ROBLES,CA,93446,SAN LUIS OBISPO
CA-W-2778,LIONS PEAK,,2540 & 2550 DRY CREEK RD,PASO ROBLES,CA,93446,SAN LUIS OBISPO
CA-W-15472,"VISTA CREEK CELLARS, LLC",VISTA CREEK CELLARS,6305 BUENA VISTA DR,PASO ROBLES,CA,93446,SAN LUIS OBISPO
CA-W-17619,KIMBERLY SMITH,LA MONTAGNE,3230 RIVERSIDE AVE #190,PASO ROBLES,CA,93446,SAN LUIS OBISPO
CA-W-15118,"MINASSIAN-YOUNG VINEYARD, INC.",MINASSIAN-YOUNG WINERY,4045 PEACHY CANYON RD,PASO ROBLES,CA,93446,SAN LUIS OBISPO
CA-W-23178,DIRT CANDY LLC,CYPHER WINERY,480 MARQUITA AVE UNIT A,PASO ROBLES,CA,93446,SAN LUIS OBISPO
CA-W-23208,"FRISBY CELLARS, INC.",FRISBY CELLARS,3502 DRY CREEK RD UNIT B8,PASO ROBLES,CA,93446,SAN LUIS OBISPO
CA-W-17605,EUGENE MICHAEL PERATA,FRATELLI PERATA,1595 ARBOR RD,PASO ROBLES,CA,93446,SAN LUIS OBISPO
CA-W-23318,IRON OAKS WINERY LLC,,3502 DRY CREEK RD UNIT B8,PASO ROBLES,CA,93446,SAN LUIS OBISPO
CA-W-15839,"OSO LIBRE RANCH, INC.",OSO LIBRE,7383 VINEYARD DR,PASO ROBLES,CA,93446,SAN LUIS OBISPO
CA-W-15119,JOSHUA O. GIBSON,GIBBY ENTERPRISES,9750 ADELAIDA RD 1A,PASO ROBLES,CA,93446,SAN LUIS OBISPO
CA-W-22801,"FIRST & LAST WINERY, LLC",PACIFIC WINE SERVICES,2540 & 2550 DRY CREEK RD,PASO ROBLES,CA,93446,SAN LUIS OBISPO
CA-W-23293,"HOLLYHOCK VINEYARD, LLC",,2174 HIGHWAY 46 W,PASO ROBLES,CA,93446,SAN LUIS OBISPO
CA-W-15709,"RED SOLES, LLC",SEGUNDA VIDA,3230 OAKDALE RD,PASO ROBLES,CA,93446,SAN LUIS OBISPO
CA-W-15277,DENNER WINERY,,5414 VINEYARD DR,PASO ROBLES,CA,93446,SAN LUIS OBISPO
CA-W-23113,HOOD WINE COMPANY,,2323 TULEY RD 120,PASO ROBLES,CA,93447,SAN LUIS OBISPO
CA-W-23359,KAHAL FAMILY VINEYARDS LLC,,2485 W HWY 46,PASO ROBLES,CA,93446,SAN LUIS OBISPO
CA-W-16500,"PIERCE RANCH VINEYARDS, LLC",PIERCE RANCH VINEYARDS,3230 RIVERSIDE AVE SUITE 190,PASO ROBLES,CA,93446,SAN LUIS OBISPO
CA-W-2141,"MIDNIGHT CELLARS, INC.",MIDNIGHT CELLARS,2867 TOWNSHIP RD,PASO ROBLES,CA,93446,SAN LUIS OBISPO
CA-W-22990,"DENNER FAMILY, LLC",DENNER VINEYARDS,5414 VINEYARD DR,PASO ROBLES,CA,93446,SAN LUIS OBISPO
CA-W-16025,SOLAR FEL INC.,ZENAIDA CELLARS,1550 HIGHWAY 46 WEST,PASO ROBLES,CA,93446,SAN LUIS OBISPO
CA-W-17228,GH HOLDINGS L.P.,SHALE OAK WINERY,3235 OAKDALE RD,PASO ROBLES,CA,93446,SAN LUIS OBISPO
CA-W-22852,"MIDCITY INVESTMENTS, LLC",PARVANEH VINEYARDS,3230 RIVERSIDE AVE STE 190,PASO ROBLES,CA,93446,SAN LUIS OBISPO
CA-W-16705,"DAOU VINEYARDS, LLC",DAOU VINEYARDS,2740 HIDDEN MOUNTAIN RD,PASO ROBLES,CA,93446,SAN LUIS OBISPO
CA-W-16971,STEINBECK VINEYARDS & WINERY,STEINBECK VINEYARDS & WINERY,5940 UNION RD,PASO ROBLES,CA,93446,SAN LUIS OBISPO
CA-W-21251,"KOKOPELLI VINEYARD, L.P.",KOKOPELLI VINEYARD,4550 UNION RD,PASO ROBLES,CA,93446,SAN LUIS OBISPO
CA-W-23061,"MY FAVORITE NEIGHBOR, LLC",MY FAVORITE NEIGHBOR,2644 ANDERSON RD,PASO ROBLES,CA,93446,SAN LUIS OBISPO
CA-W-16751,"PIPISTRELLA WINE COMPANY, LLC",RANCHERO CELLARS,5414 VINEYARD DR,PASO ROBLES,CA,93446,SAN LUIS OBISPO
CA-W-15463,"RBZ VINEYARDS, LLC",PARIS VALLEY ROAD ESTATE VINEYARDS,5625 E 46 HWY,PASO ROBLES,CA,93446,SAN LUIS OBISPO
CA-W-22499,DANIEL M. RODRIGUES AND KIMBERLY J. RODRIGUES,VIGO CELLARS,3092 ANDERSON RD,PASO ROBLES,CA,93446,SAN LUIS OBISPO
CA-W-23150,"JAMES D. WILKINS, INCORPORATED",JAMES WILKINS VINEYARDS,3502 DRY CREEK RD UNIT B8,PASO ROBLES,CA,93446,SAN LUIS OBISPO
CA-W-15045,"CIPCO, INC.",DERBY WINE ESTATES,525 RIVERSIDE AVE,PASO ROBLES,CA,93446,SAN LUIS OBISPO
CA-W-22690,"SCHMITT / SIEBENBERG, LLC",VOLATUS WINE,2925 ANDERSON RD,PASO ROBLES,CA,93446,SAN LUIS OBISPO
CA-W-15299,"ARROYO VENTURES, INC.",ARROYO ROBLES WINERY,3502 DRY CREEK RD UNIT B-8,PASO ROBLES,CA,93446,SAN LUIS OBISPO
CA-W-3267,"STEPHAN VINEYARDS, INC",STEPHAN VINEYARDS,2815 LIVE OAK RD,PASO ROBLES,CA,93446,SAN LUIS OBISPO
CA-W-16120,RONALD PETER FRUDDEN,RONAN CELLARS,6305 BUENA VISTA DR,PASO ROBLES,CA,93446,SAN LUIS OBISPO
CA-W-15288,"THREE GUYS AND A GIRL, INC.",VITA LUCE CELLARS,6305 BUENA VISTA DR,PASO ROBLES,CA,93446,SAN LUIS OBISPO
CA-W-22682,"CATHARTES AURA, LLC",ANARCHY WINE COMPANY,3310 RAMADA DR STE B,PASO ROBLES,CA,93446,SAN LUIS OBISPO
CA-W-22872,JAN MARIE PIERINI,PIERINI FAMILY WINERY,3230 RIVERSIDE AVE STE 190,PASO ROBLES,CA,93446,SAN LUIS OBISPO
CA-W-23209,CEUNANT WINES LLC,,2910 LIMESTONE WAY,PASO ROBLES,CA,93446,SAN LUIS OBISPO
CA-W-15047,"EDWARD SELLERS VINEYARDS & WINES, LLC",EDWARD SELLERS VINEYARDS & WINES,1401 W HIGHWAY 46,PASO ROBLES,CA,93446,SAN LUIS OBISPO
CA-W-17208,"DAOU VINEYARDS, LLC",DAOU VINEYARDS,2777 HIDDEN MOUNTAIN RD,PASO ROBLES,CA,93446,SAN LUIS OBISPO
CA-W-3593,THOMAS C AND TERRIE A BANISH,BLACK HAND CELLARS,9750 ADELAIDA RD,PASO ROBLES,CA,93446,SAN LUIS OBISPO
CA-W-22571,"MARKK GREGG WINE CELLARS, LLC",TORCH CELLARS,2925 ANDERSON RD,PASO ROBLES,CA,93446,SAN LUIS OBISPO
CA-W-23514,"MANGRIA, LLC",CAROLLA DRINKS,3380 BRANCH RD,PASO ROBLES,CA,93446,SAN LUIS OBISPO
CA-W-2888,"MANUCCI WINERY, INC.",MANUCCI WINERY,3775 ADELAIDA RD,PASO ROBLES,CA,93446,SAN LUIS OBISPO
CA-W-23112,"PEC AND BURL WINES, LLC",PEC AND BURL WINES,2800 WILLOW CREEK RD,PASO ROBLES,CA,93446,SAN LUIS OBISPO
CA-W-22822,"BRECKENRIDGE HILLS VINEYARDS, LLC",BRECKENRIDGE HILL VINEYARDS,2540 & 2550 DRY CREEK RD,PASO ROBLES,CA,93446,SAN LUIS OBISPO
CA-W-22789,BLYTHE GABLE AND ROBYN GABLE,SLO CREEK FARMS,3230 RIVERSIDE AVE STE 190,PASO ROBLES,CA,93446,SAN LUIS OBISPO
CA-W-17046,"TKL WINES, LLC",TKL WINES,3230 RIVERSIDE AVE SUITE 190,PASO ROBLES,CA,93446,SAN LUIS OBISPO
CA-W-3162,"CALCAREOUS VINEYARD, LLC",CALCAREOUS WINERY,3430 PEACHY CANYON RD,PASO ROBLES,CA,93446,SAN LUIS OBISPO
CA-W-22923,JUSTIN VINEYARDS & WINERY LLC,,811 12TH ST,PASO ROBLES,CA,93446,SAN LUIS OBISPO
CA-W-15027,GREMARK VINEYARDS L.L.C,GREMARK VINEYARDS,5325 RANCHO LA LOMA LINDA DR,PASO ROBLES,CA,93446,SAN LUIS OBISPO
CA-W-22922,"FLOOPLE, LLC",UNION SACRE,460 MARQUITA UNIT A&B,PASO ROBLES,CA,93446,SAN LUIS OBISPO
CA-W-22918,"FROGTOWN ADELAIDA, LLC",,2825 ADELAIDA RD,PASO ROBLES,CA,93446,SAN LUIS OBISPO
CA-W-20294,"ONX WINERY, INC.",ONX WINES,2910 LIMESTONE WAY,PASO ROBLES,CA,93446,SAN LUIS OBISPO
CA-W-1261,"EBERLE WINERY, LTD.",EBERLE WINERY,3810 HIGHWAY 46,PASO ROBLES,CA,93446,SAN LUIS OBISPO
CA-W-17109,"PV WINE, INC.",,7970 VINEYARD DR,PASO ROBLES,CA,93446,SAN LUIS OBISPO
CA-W-3467,PAUL W. HOOVER & PATRICIA A. HOOVER,STILL WATERS VINEYARD,2750 OLD GROVE LN,PASO ROBLES,CA,93446,SAN LUIS OBISPO
CA-W-22570,DAVID SEAN MCDONALD,TRANSMISSION WINE CO.,470 MARQUITA AVE STE A,PASO ROBLES,CA,93446,SAN LUIS OBISPO
CA-W-3354,DONALD A. THIESSEN,THIESSEN WINERY,1525 PEACHY CANYON RD,PASO ROBLES,CA,93446,SAN LUIS OBISPO
CA-W-3458,CURTIS J. LOCKSHAW,,4550 OAK FLAT RD,PASO ROBLES,CA,93446,SAN LUIS OBISPO
CA-W-23064,"TORRIN VINEYARD, INC.",,6360 PEACHY CANYON RD,PASO ROBLES,CA,93446,SAN LUIS OBISPO
CA-W-16195,"RBZ VINEYARDS, LLC",WINDEMERE WINERY,2324 GREEN VALLEY RD,PASO ROBLES,CA,93447,SAN LUIS OBISPO
CA-W-20045,"Q4X, INC.",CYPHER WINERY,7300 N RIVER RD,PASO ROBLES,CA,93446,SAN LUIS OBISPO
CA-W-2457,A. JOHN BERARDO,A.J.B. VINEYARDS,3280 TOWNSHIP RD,PASO ROBLES,CA,93446,SAN LUIS OBISPO
CA-W-23110,"HOUSDON WINE, INC.",HAYSEED AND HOUSDON,3340 RAMADA DR STE D,PASO ROBLES,CA,93446,SAN LUIS OBISPO
CA-W-17064,"OPOLO WINES, LP, OPOLO MANAGEMENT LLC, GP",,7110 VINEYARD DR,PASO ROBLES,CA,93446,SAN LUIS OBISPO
CA-W-22476,"KULA VINEYARDS, LLC",,2925 ANDERSON RD,PASO ROBLES,CA,93446,SAN LUIS OBISPO
CA-W-16855,"SEASHELL CELLARS, LLC",SEASHELL CELLARS,2910 LIMESTONE WAY,PASO ROBLES,CA,93446,SAN LUIS OBISPO
CA-W-2541,KEITH ORVAL NICHOLS,NICHOLS WINERY & CELLARS,5115 BUENA VISTA DR STE 2,PASO ROBLES,CA,93446,SAN LUIS OBISPO
CA-W-23227,EL VINERO,,9320 CHIMNEY ROCK RD,PASO ROBLES,CA,93446,SAN LUIS OBISPO
CA-W-2564,JEFFREY W. PIPES,PIPESTONE VINEYARDS,2040 NIDERER RD,PASO ROBLES,CA,93446,SAN LUIS OBISPO
CA-W-22479,"RAVA WINES, LLC",RAVA WINES,6785 CRESTON RD,PASO ROBLES,CA,93446,SAN LUIS OBISPO
CA-W-3245,"SUMMERWOOD WINERY & INN, INC.",SUMMERWOOD,2175 ARBOR RD,PASO ROBLES,CA,93446,SAN LUIS OBISPO
CA-W-23004,DARREN EDWARD DELMORE,DARREN DELMORE WINES,2910 LIMESTONE WAY,PASO ROBLES,CA,93446,SAN LUIS OBISPO
CA-W-22780,"STEVEN M COTTON SERVICES, INCORPORATED",WILLOW CREEK ESTATE,3502 DRY CREEK RD UNIT B8,PASO ROBLES,CA,93446,SAN LUIS OBISPO
CA-W-17206,"FOSHAY, LAIRD GORDON & FOSHAY, LISA NOAH",RANGELAND WINES,6996 -6998 PEACHY CANYON RD,PASO ROBLES,CA,93446,SAN LUIS OBISPO
CA-W-15171,"SERINE-CANNONAU VINEYARD, INC.",TH VINEYARDS,870 ARBOR RD,PASO ROBLES,CA,93446,SAN LUIS OBISPO
CA-W-22573,"THE VINE YARD, LLC",THE VINE YARD,,PASO ROBLES,CA,93446,SAN LUIS OBISPO
CA-W-15911,JOHN P. ANDERSON,ST. HILAIRE WINERY,3230 RIVERSIDE AVE #190,PASO ROBLES,CA,93446,SAN LUIS OBISPO
CA-W-17204,"FOLEY FAMILY WINES, INC.",EOS,2300 AIRPORT RD,PASO ROBLES,CA,93446,SAN LUIS OBISPO
CA-W-23169,SHEILA RAND,RFWINES,2540 DRY CREEK RD,PASO ROBLES,CA,93446,SAN LUIS OBISPO
CA-W-22605,"BROPHY CLARK CELLARS, LLC",BROPHY CLARK CELLARS,6785 CRESTON RD,PASO ROBLES,CA,93446,SAN LUIS OBISPO
CA-W-22715,"MONDO BEVERAGE COMPANY, LLC",,3502 DRY CREEK RD UNIT B8,PASO ROBLES,CA,93446,SAN LUIS OBISPO
CA-W-22469,EAGLE RIDGE WINERY,,2540 & 2550 DRY CREEK ROAD,PASO ROBLES,CA,93446,SAN LUIS OBISPO
CA-W-16799,DEODORO CELLARS LLC,DEODORO CELLARS,9320 CHIMNEY ROCK RD,PASO ROBLES,CA,93446,SAN LUIS OBISPO
CA-W-16425,"BARR ENTERPRISES, INC.",BARR ESTATE WINERY,6950 UNION RD,PASO ROBLES,CA,93446,SAN LUIS OBISPO
CA-W-3472,SAXBY WINERY AND VINEYARD,,4880 GLENHILL LN,PASO ROBLES,CA,93446,SAN LUIS OBISPO
CA-W-2275,TOBIN JAMES CELLARS,,8950 UNION RD,PASO ROBLES,CA,93446,SAN LUIS OBISPO
CA-W-17612,"GREY WOLF VINEYARDS & CELLARS, INC.",GREY WOLF VINEYARDS & CELLLARS,2174 HIGHWAY 46,PASO ROBLES,CA,93446,SAN LUIS OBISPO
CA-W-2447,ROBERT FERNAND NADEAU,NADEAU FAMILY VINTNERS,3860 PEACHY CANYON RD,PASO ROBLES,CA,93446,SAN LUIS OBISPO
CA-W-22510,O'NEILL BEVERAGES CO. LLC,ROBERT HALL WINERY,2975 MITCHELL RANCH WAY,PASO ROBLES,CA,93446,SAN LUIS OBISPO
CA-W-2329,JOSEPH ALEXANDER VILLICANA II AND MONICA VILLICANA,VILLICANA WINE COMPANY,2725 ADELAIDA RD,PASO ROBLES,CA,93446,SAN LUIS OBISPO
CA-W-22187,"HAPPY FAIL, LLC",13TH & THIRD WINES,2540 & 2550 DRY CREEK RD,PASO ROBLES,CA,93446,SAN LUIS OBISPO
CA-W-3502,AUSTIN HOPE WINERY,,1585 LIVE OAK RD,PASO ROBLES,CA,93446,SAN LUIS OBISPO
CA-W-22091,"JAPHEN, LLC",,2174 HWY 46 W,PASO ROBLES,CA,93446,SAN LUIS OBISPO
CA-W-16158,"MONDO EXECUTIVE MANAGEMENT, INC.",MONDO CELLARS,3260 NACIMIENTO LAKE RD,PASO ROBLES,CA,93446,SAN LUIS OBISPO
CA-W-2270,CHARLES A. POALILLO,POALILLO VINEYARDS,1888 WILLOW CREEK RD,PASO ROBLES,CA,93446,SAN LUIS OBISPO
CA-W-2523,TREANA WINERY LLC,,4280 SECONDWIND WAY,PASO ROBLES,CA,93446,SAN LUIS OBISPO
CA-W-2615,"TABLAS CREEK VINEYARD, LP",TABLAS CREEK VINEYARD,9339 ADELAIDA RD,PASO ROBLES,CA,93446,SAN LUIS OBISPO
CA-W-3390,STEPHEN J. ANGLIM & STEFFANIE J. ANGLIM,ANGLIM WINERY,3340 RAMADA DR STE D,PASO ROBLES,CA,93446,SAN LUIS OBISPO
CA-W-23249,BRIGHT FUTURES LLC,BRIGHT FUTURES,7235 NON PARIEL RD,PASO ROBLES,CA,93446,SAN LUIS OBISPO
CA-W-16193,"KILER GROVE WINEGROWERS, LLC",,3050 LIMESTONE WAY,PASO ROBLES,CA,93446,SAN LUIS OBISPO
CA-W-3437,"JUMPING J INVESTMENTS, INC.",OAK MEADOW WINERY,3230 RIVERSIDE AVE STE 190,PASO ROBLES,CA,93446,SAN LUIS OBISPO
CA-W-22147,"WATERLOO CELLARS, LLC",WATERLOO CELLARS,1550 W HIGHWAY 46,PASO ROBLES,CA,93446,SAN LUIS OBISPO
CA-W-15926,JACOB TOFT,JACOB TOFT WINES,2929 LIMESTONE WAY UNIT A,PASO ROBLES,CA,93446,SAN LUIS OBISPO
CA-W-22396,"LINCOLN SQUARE WINE COMPANY, LLC",,3070 LIMESTONE RD UNIT C,PASO ROBLES,CA,93446,SAN LUIS OBISPO
CA-W-22394,"KARMA CHAMPAGNE, INC.",KARMA CALIFORNIA WINE CO.,2945 LIMESTONE WAY,PASO ROBLES,CA,93446,SAN LUIS OBISPO
CA-W-22250,PELLETIERE ESTATES LLC,PELLETIERE ESTATE,3280 TOWNSHIP RD,PASO ROBLES,CA,93446,SAN LUIS OBISPO
CA-W-22222,"MAJOR WINES, LLC",,3070 LIMESTONE RD UNIT C,PASO ROBLES,CA,93446,SAN LUIS OBISPO
CA-W-22137,"LEVEL 3 WINES, INC.",,5414 VINEYARD DR,PASO ROBLES,CA,93446,SAN LUIS OBISPO
CA-W-22395,"CONCUR WINES, INC.",CONCUR WINES,2945 LIMESTONE WAY,PASO ROBLES,CA,93446,SAN LUIS OBISPO
CA-W-16480,"THE RANGER, LLC",,5414 VINEYARD DR,PASO ROBLES,CA,93446,SAN LUIS OBISPO
CA-W-21787,"DIABLO PASO WINES, LLC",,4230 BUENA VISTA DR,PASO ROBLES,CA,93446,SAN LUIS OBISPO
CA-W-2704,KATHLEEN CONWAY,CARMODY MCKNIGHT ESTATE WINES,11240 CHIMNEY ROCK RD,PASO ROBLES,CA,93446,SAN LUIS OBISPO
CA-W-22138,"DSC INVESTORS, INC.",,2985 ANDERSON RD,PASO ROBLES,CA,93446,SAN LUIS OBISPO
CA-W-16390,"TASTE OF ADELAIDA, LLC",DUBOST,9988 CHIMNEY ROCK RD,PASO ROBLES,CA,93446,SAN LUIS OBISPO
CA-W-17787,NINER WINE ESTATES LLC,NINER WINE ESTATES,2400 HWY 46,PASO ROBLES,CA,93446,SAN LUIS OBISPO
CA-W-2981,JEAN LOUIS AND HEIDI SUSAN CHANGALA,CHANGALA WINERY,3770 WILLOW CREEK RD,PASO ROBLES,CA,93446,SAN LUIS OBISPO
CA-W-16190,"MARK DAVID WINERY, LLC",MARK DAVID WINERY,2540 DRY CREEK RD,PASO ROBLES,CA,93446,SAN LUIS OBISPO
CA-W-16020,"CLAVO CELLARS, LLC",CLAVO CELLARS,2490 RAMADA DR,PASO ROBLES,CA,93446,SAN LUIS OBISPO
CA-W-21995,"THACHER WINERY & VINEYARD, INC.",THACHER WINERY,8355 VINEYARD DR,PASO ROBLES,CA,93446,SAN LUIS OBISPO
CA-W-3537,FRANKEL REVOCABLE TRUST-WARREN & KATHERINE FRANKEL,SCULPTERRA,5125 LINNE RD,PASO ROBLES,CA,93446,SAN LUIS OBISPO
CA-W-16672,"BODEGAS ROBLES, LLC",BODEGAS PASO ROBLES,1550 W HIGHWAY 46,PASO ROBLES,CA,93446,SAN LUIS OBISPO
CA-W-2743,"MALOY O'NEILL, INC.",O'NEILL VINEYARDS,4560 CRESTON RD,PASO ROBLES,CA,93446,SAN LUIS OBISPO
CA-W-22162,CHRIS KIRANBAY,SAINT K WINES,1227 PASO ROBLES ST STE D & E,PASO ROBLES,CA,93446,SAN LUIS OBISPO
CA-W-22323,"WILLOW CREEK VINEYARDS, LLC",ALLEGRETTO WINES,4230 BUENA VISTA DR,PASO ROBLES,CA,93446,SAN LUIS OBISPO
CA-W-16605,DENNIS VAN WESTERHUYZEN AND NICOLE CAVIER,ALMOND HILL VINEYARD,3230 RIVERSIDE AVE STE 190,PASO ROBLES,CA,93446,SAN LUIS OBISPO
CA-W-16958,"RED ZEPPELIN WINERY, INC.",RED ZEPPELIN WINERY,3230 RIVERSIDE AVE 190,PASO ROBLES,CA,93446,SAN LUIS OBISPO
CA-W-3074,WATERMAN & WATERMAN ENTERPRISES,BROCHELLE VINEYARDS,1625 VALLEY QUAIL PL,PASO ROBLES,CA,93446,SAN LUIS OBISPO
CA-W-21811,PHILLIP VOGT & FREDRIK OLSSON,MONTAGNEUX,3230 RIVERSIDE AVE STE 190,PASO ROBLES,CA,93446,SAN LUIS OBISPO
CA-W-3186,CLAUTIERE LLC,CLAUTIERE VINEYARD,1340 PENMAN SPRINGS RD,PASO ROBLES,CA,93446,SAN LUIS OBISPO
CA-W-16593,"SHARP'S HILL VINEYARDS, LLC",,2925 ANDERSON RD,PASO ROBLES,CA,93446,SAN LUIS OBISPO
CA-W-17753,LINNE CALODO INC.,LINNE CALODO CELLARS,3845 OAKDALE RD,PASO ROBLES,CA,93446,SAN LUIS OBISPO
CA-W-15650,BOOKER VINEYARD & WINERY,BOOKER VINEYARD,2644 ANDERSON RD,PASO ROBLES,CA,93446,SAN LUIS OBISPO
CA-W-3628,"ORCHID HILL VINEYARD, LLC",ORCHID HILL VINEYARD,3502 DRY CREEK RD UNIT B8,PASO ROBLES,CA,93446,SAN LUIS OBISPO
CA-W-2544,THOMAS L. AND CAROL J. HINKLE,RIO SECO,4295 UNION RD,PASO ROBLES,CA,93446,SAN LUIS OBISPO
CA-W-22348,GLENNA THOMPSON AND RICHARD POLISCHUK,SYMBIOSIS WINES,612 12TH ST STE 101,PASO ROBLES,CA,93446,SAN LUIS OBISPO
CA-W-16127,"LA PANZA, LLC",PARRISH FAMILY VINEYARD,3590 ADELAIDA RD,PASO ROBLES,CA,93446,SAN LUIS OBISPO
CA-W-16125,CAPARONE WINERY LLC,CAPARONE WINERY,2280 SAN MARCOS RD,PASO ROBLES,CA,93446,SAN LUIS OBISPO
CA-W-3190,MODERN DEVELOPMENT COMPANY (LP),BIANCHI VINEYARDS,3380 BRANCH RD,PASO ROBLES,CA,93446,SAN LUIS OBISPO
CA-W-15282,"LONE MADRONE, A CALIFORNIA CORPORATION",,2174 HIGHWAY 46,PASO ROBLES,CA,93446,SAN LUIS OBISPO
CA-W-3191,"RABBIT RIDGE WINE SALES, INC.",RABBIT RIDGE VINEYARDS,1172 SAN MARCOS RD,PASO ROBLES,CA,93446,SAN LUIS OBISPO
CA-W-22066,LIMEROCK LLC,,6996 - 6998 PEACHY CANYON RD,PASO ROBLES,CA,93446,SAN LUIS OBISPO
CA-W-1618,TREASURY WINE ESTATES AMERICAS COMPANY,,7000 E HIGHWAY 46,PASO ROBLES,CA,93446,SAN LUIS OBISPO
CA-W-15955,"H. A. BUELL, INC.",HEARTHSTONE VINEYARD & WINERY,5414 VINEYARD DR,PASO ROBLES,CA,93446,SAN LUIS OBISPO
CA-W-2740,"BONZARLO WINERY, LLC",BONZARLO WINERY,5050 ESTRELLA RD,PASO ROBLES,CA,93446,SAN LUIS OBISPO
CA-W-23461,ROCOCO WINES LLC,,4070 VINEYARD DR,PASO ROBLES,CA,93446,SAN LUIS OBISPO
CA-W-21890,"DRACAENA WINES, LLC",,2540 & 2550 DRY CREEK RD.,PASO ROBLES,CA,93446,SAN LUIS OBISPO
CA-W-21848,LEMIEUX FAMILY WINERY LLC,DOMAINE LE MIEUX,3230 RIVERSIDE AVE STE 190,PASO ROBLES,CA,93446,SAN LUIS OBISPO
CA-W-16294,ALAN GEORGEFF,GEORGEFF VINEYARDS,3502 DRY CREEK RD UNIT B8,PASO ROBLES,CA,93446,SAN LUIS OBISPO
CA-W-22298,"CROMA VERA WINES, INC.",CROMA VERA WINES,,PASO ROBLES,CA,93446,SAN LUIS OBISPO
CA-W-22431,"SLOPE AND INTERCEPT, LLC",SLOPE AND INTERCEPT,3430 PEACHY CANYON RD,PASO ROBLES,CA,93446,SAN LUIS OBISPO
CA-W-22266,"SAN ANTONIO WINERY, INC.",SAN ANTONIO WINERY,2017 WISTERIA LN,PASO ROBLES,CA,93446,SAN LUIS OBISPO
CA-W-17821,"TEHACHAPI WINE AND CATTLE COMPANY, INC.",,2540 DRY CREEK RD,PASO ROBLES,CA,93446,SAN LUIS OBISPO
CA-W-15048,"THE LOCK AGRICULTURAL VENTURES, LLC.",ECLUSE,1520 KILER CANYON RD,PASO ROBLES,CA,93446,SAN LUIS OBISPO
CA-W-16047,PHILLIP LEE KRUMAL,ASUNCION RIDGE VINEYARDS,1550 W HIGHWAY 46,PASO ROBLES,CA,93446,SAN LUIS OBISPO
CA-W-16692,JOSEPH ALEXANDER VILLICANA II AND MONICA VILLICANA,LA FETE,8530 VINEYARD DR,PASO ROBLES,CA,93446,SAN LUIS OBISPO
CA-W-21209,TERRIZZI VINO,GIORNATA,470 MARQUITA AVE STE A,PASO ROBLES,CA,93446,SAN LUIS OBISPO
CA-W-17519,PATRICK SCOTT FRISCO,FRISCO CELLARS,4550 UNION RD,PASO ROBLES,CA,93446,SAN LUIS OBISPO
CA-W-21888,"ZEVENBERGEN CELLARS, LLC",KZ CELLARS,2540 & 2550 DRY CREEK RD,PASO ROBLES,CA,93446,SAN LUIS OBISPO
CA-W-22192,KEVIN B. MCLAUGHLIN,FARMHOUSE WINE & CIDER CO,3230 RIVERSIDE AVE UNIT 190,PASO ROBLES,CA,93446,SAN LUIS OBISPO
CA-W-16881,PACIFIC COAST VINEYARDS LLC,PACIFIC COAST VINEYARDS,3230 RIVERSIDE AVE STE 190,PASO ROBLES,CA,93446,SAN LUIS OBISPO
CA-W-16019,"LAS COLINAS WINERY, LLC",,2825 ADELAIDA RD,PASO ROBLES,CA,93446,SAN LUIS OBISPO
CA-W-22198,ROBERT GRANDINETTI,LOST BLUES,1227 PASO ROBLES ST,PASO ROBLES,CA,93446,SAN LUIS OBISPO
CA-W-2040,J. LOHR WINERY CORPORATION,J. LOHR WINERY,6169 AIRPORT RD,PASO ROBLES,CA,93446,SAN LUIS OBISPO
CA-W-22340,"KOLANU VINEYARDS, LLC",RAILS NAP,5725 UNION RD,PASO ROBLES,CA,93446,SAN LUIS OBISPO
CA-W-21239,CORUCE VINEYARDS AND WINERY INC,CORUCE VINEYARDS AND WINERY,3773 RUTH WAY STE A,PASO ROBLES,CA,93446,SAN LUIS OBISPO
CA-W-17453,SEVEN ANGELS CELLARS LLC,SEVEN ANGELS CELLARS,2925 ANDERSON RD,PASO ROBLES,CA,93446,SAN LUIS OBISPO
CA-W-21694,"SIXMILEBRIDGE, LLC",J+B VINEYARDS,5414 VINEYARD DR,PASO ROBLES,CA,93446,SAN LUIS OBISPO
CA-W-21699,"TYLER DAVID WINE WORKS, LLC",,3310 RAMADA DR STE A,PASO ROBLES,CA,93446,SAN LUIS OBISPO
CA-W-16885,ROBERT GEORGE DUNNING AND JO-ANN DUNNING,DUNNING VINEYARDS,1953 NIDERER RD,PASO ROBLES,CA,93446,SAN LUIS OBISPO
CA-W-17178,"ISLAND CUVEE WINE CO., INC.",JETT WINE COMPANY,3230 RIVERSIDE AVE SUITE 190,PASO ROBLES,CA,93446,SAN LUIS OBISPO
CA-W-16230,"ARMSTRONG VINEYARDS, INC.",,5414 VINEYARD DR,PASO ROBLES,CA,93446,SAN LUIS OBISPO
CA-W-17174,EDWARD FREDERICK EVENSON,REFUGIO VINEYARD COMPANY,3502 DRY CREEK RD UNIT B8,PASO ROBLES,CA,93446,SAN LUIS OBISPO
CA-W-21207,"BELLE NOEL WINES, LLC",NOBELLE,3502 DRY CREEK RD UNIT B8,PASO ROBLES,CA,93446,SAN LUIS OBISPO
CA-W-15283,"ALISA WINE GROUP, LLC",JAMES DAVID CELLARS,6305 BUENA VISTA DR,PASO ROBLES,CA,93446,SAN LUIS OBISPO
CA-W-21200,"HORN ENTERPRISES, INC.",IN VINO VERITAS,3230 RIVERSIDE AVE UNIT 190,PASO ROBLES,CA,93446,SAN LUIS OBISPO
CA-W-16393,"STANGER VINEYARD, L.L.C.",STANGER VINEYARDS,5225 HWY 41,PASO ROBLES,CA,93446,SAN LUIS OBISPO
CA-W-15766,"LOMA LINDA VINEYARDS, LLC",LOMA LINDA VINEYARDS,4940 RIODOSA LN,PASO ROBLES,CA,93446,SAN LUIS OBISPO
CA-W-17679,"VINA ROBLES, INC.",VINA ROBLES,3700 MILL RD,PASO ROBLES,CA,93446,SAN LUIS OBISPO
CA-W-15885,MARTIN EDWARD AND PATRICIA ANN CROAD,CROAD VINEYARDS,3550 LAS TABLAS RD,PASO ROBLES,CA,93446,SAN LUIS OBISPO
CA-W-21043,CALIPASO WINERY LLC,,4230 BUENA VISTA DR,PASO ROBLES,CA,93446,SAN LUIS OBISPO
CA-W-17711,"GENESEO PARTNERS, LP",CASS WINERY,7350 LINNE RD,PASO ROBLES,CA,93446,SAN LUIS OBISPO
CA-W-15851,DENNIS JOHN DEGHER,DOMAINE DEGHER WINES,8650 CENTRA,PASO ROBLES,CA,93446,SAN LUIS OBISPO
CA-W-21408,THE VINEYARD CONNECTION LLC,THE VINEYARD CONNECTION,2540 & 2550 DRY CREEK RD,PASO ROBLES,CA,93446,SAN LUIS OBISPO
CA-W-17468,WATERMAN & WATERMAN ENTERPRISES,BROCHELLE VINEYARDS,2323 TULEY CT SUITE 130,PASO ROBLES,CA,93446,SAN LUIS OBISPO
CA-W-21402,"J. DUSI, INC.",J DUSI WINES,1401 W HIGHWAY 46,PASO ROBLES,CA,93446,SAN LUIS OBISPO
CA-W-21240,ARTISAN UPRISING LLC,ARTISAN UPRISING,3230 RIVERSIDE AVE UNIT #190,PASO ROBLES,CA,93446,SAN LUIS OBISPO
CA-W-16642,"PEAR VALLEY VINEYARD, INC.",PEAR VALLEY,4900 UNION RD,PASO ROBLES,CA,93446,SAN LUIS OBISPO
CA-W-21168,"QUIGLEY FINE WINES, LLC",,1227 PASO ROBLES ST,PASO ROBLES,CA,93446,SAN LUIS OBISPO
CA-W-23573,"RECORD FAMILY WINES, LLC",,2910 LIMESTONE WAY,PASO ROBLES,CA,93446,SAN LUIS OBISPO
CA-W-23550,"LOMA SECA, LLC",,2910 LIMESTONE WAY,PASO ROBLES,CA,93446,SAN LUIS OBISPO
CA-W-15670,"JACK JOHN INVESTMENTS, INC",JADA VINEYARD & WINERY,5620 VINEYARD DR,PASO ROBLES,CA,93446,SAN LUIS OBISPO
CA-W-20107,NICORA WINES,NICORA WINES,2945 LIMESTONE WAY,PASO ROBLES,CA,93446,SAN LUIS OBISPO
CA-W-20450,GILL CELLARS LLC,MICHAEL GILL CELLARS,4125 PEACHY CANYON RD,PASO ROBLES,CA,93446,SAN LUIS OBISPO
CA-W-1893,"NORMAN VINEYARDS, INC.",NORMAN VINEYARDS,3502 DRY CREEK RD,PASO ROBLES,CA,93446,SAN LUIS OBISPO
CA-W-15061,"MIRASOL WINE, LLC",MIRASOL WINE,7300 N RIVER RD,PASO ROBLES,CA,93446,SAN LUIS OBISPO
CA-W-17152,RILEY WINE CORPORATION,BLACKBURN WINE COMPANY,5424 VINEYARD DR,PASO ROBLES,CA,93446,SAN LUIS OBISPO
CA-W-21493,OSO'S EMPIRE INC,BODEGA DE EDGAR,3550 COMBINE ST,PASO ROBLES,CA,93446,SAN LUIS OBISPO
CA-W-15735,"VILLA CREEK, INC.",VILLA CREEK CELLARS,5995 PEACHY CANYON RD,PASO ROBLES,CA,93446,SAN LUIS OBISPO
CA-W-16619,"WINE HORIZONS, LLC",WINE HORIZONS,3230 RIVERSIDE AVE SUITE 190,PASO ROBLES,CA,93446,SAN LUIS OBISPO
CA-W-21395,"DILECTA, INC.",,3092 ANDERSON RD,PASO ROBLES,CA,93446,SAN LUIS OBISPO
CA-W-17119,THOMAS PITCHON,THOMAS ALEXANDER WINERY,6305 BUENA VISTA DR,PASO ROBLES,CA,93446,SAN LUIS OBISPO
CA-W-21152,MATTHEW CHRISTOPHER VILLARD,MCV WINES,3773 RUTH WAY STE A,PASO ROBLES,CA,93446,SAN LUIS OBISPO
CA-W-21326,"SLICA, INC.",S&G ESTATE,5885 VISTA DEL PASO,PASO ROBLES,CA,93446,SAN LUIS OBISPO
CA-W-15049,ROGER R. NICOLAS,R N ESTATE,5940 UNION ROAD,PASO ROBLES,CA,93446,SAN LUIS OBISPO
CA-W-21100,COASTAL INFLUENCE LLC,CLOAK AND DAGGER WINES,2540 DRY CREEK RD,PASO ROBLES,CA,93446,SAN LUIS OBISPO
CA-W-23945,"BOUTZOUKAS FAMILY CELLARS, LLC",,3773 RUTH WAY STE A,PASO ROBLES,CA,93446,SAN LUIS OBISPO
CA-W-16893,"LA GRANJA WINERY, INC.",LA GRANJA WINERY,8355 VINEYARD DR,PASO ROBLES,CA,93446,SAN LUIS OBISPO
CA-W-23193,"NEXO, INC.",NEXO WINE,2323 TULEY RD STE 120,PASO ROBLES,CA,93446,SAN LUIS OBISPO
CA-W-21553,"GLUNZ FAMILY WINERY & CELLARS, INC.",GLUNZ FAMILY WINERY & CELLARS,8331 E HIGHWAY 46,PASO ROBLES,CA,93446,SAN LUIS OBISPO
CA-W-20517,MARK CLEMENT ADAMS & CIERA LAMBORN ADAMS,LEDGE VINEYARDS,2800 WILLOW CREEK RD,PASO ROBLES,CA,93446,SAN LUIS OBISPO
CA-W-23289,DOWNSTREAM WINES LLC,DOWNSTREAM,2800 WILLOW CREEK RD,PASO ROBLES,CA,93446,SAN LUIS OBISPO
CA-W-2198,"ADELAIDA CELLARS, INC.",,5805 ADELAIDA RD,PASO ROBLES,CA,93446,SAN LUIS OBISPO
CA-W-15131,"CALIFORNIA WINE WORKS, LLC",CALIFORNIA WINE WORKS,4230 BUENA VISTA DR,PASO ROBLES,CA,93446,SAN LUIS OBISPO
CA-W-23194,AARON JOSE GUERRERO,RHONEDONNEE WINES,3550 COMBINE ST,PASO ROBLES,CA,93446,SAN LUIS OBISPO
CA-W-20100,"HARTIGAN CELLARS, INC.",HARTIGAN CELLARS,3230 RIVERSIDE AVE STE 190,PASO ROBLES,CA,93446,SAN LUIS OBISPO
CA-W-16355,"BARREL 27 WINE COMPANY, INC.",MCPRICE MYERS,3525 ADELAIDA RD,PASO ROBLES,CA,93446,SAN LUIS OBISPO
CA-W-15464,"BASSETTI VINEYARDS, INC.",BASSETTI VINEYARDS,5414 VINEYARD DR,PASO ROBLES,CA,93446,SAN LUIS OBISPO
CA-W-23467,METAS ALTAS WINES LLC,,2910 LIMESTONE WAY,PASO ROBLES,CA,93446,SAN LUIS OBISPO
CA-W-20096,"SOLANA CELLARS, INC.",SOLANA CELLARS,3502 DRY CREEK RD UNIT B8,PASO ROBLES,CA,93446,SAN LUIS OBISPO
CA-W-2315,CARL E. MCCASLAND & A. ELIZABETH MCCASLAND,PENMAN SPRINGS VINEYARD,1985 PENMAN SPRINGS RD,PASO ROBLES,CA,93446,SAN LUIS OBISPO
CA-W-15519,"ANCIENT PEAK, INC.",ANCIENT PEAKS WINERY,1650 RAMADA DR,PASO ROBLES,CA,93446,SAN LUIS OBISPO
CA-W-23548,"HAWKS HILL RANCH WINERY, LLC",,5414 VINEYARD DR,PASO ROBLES,CA,93446,SAN LUIS OBISPO
CA-W-17727,"WINERY EXCHANGE, INC.",CHRONIC CELLARS,2025 NACIMIENTO LAKE DR,PASO ROBLES,CA,93446,SAN LUIS OBISPO
CA-W-21526,ALTO POMAR VINEYARD L.L.C.,ALTO POMAR VINEYARD,2910 LIMESTONE WAY,PASO ROBLES,CA,93446,SAN LUIS OBISPO
CA-W-22125,"OCRW, INC.",OLD CREEK RANCH WINERY,3092 ANDERSON RD,PASO ROBLES,CA,93446,SAN LUIS OBISPO
CA-W-17157,EDMOND AUGUST SAURET,EDMOND AUGUST WINES,5414 VINEYARD DR,PASO ROBLES,CA,93446,SAN LUIS OBISPO
CA-W-21216,"KRESSER GROUP, LLC",GROSSO KRESSER VINEYARD,7290 VINEYARD DR,PASO ROBLES,CA,93446,SAN LUIS OBISPO
CA-W-15910,"CARROS ENTERPRISES, LLC",KIAMIE WINE CELLARS,9750 ADELAIDA RD,PASO ROBLES,CA,93446,SAN LUIS OBISPO
CA-W-22244,"WILSON FAMILY VINEYARD, LLC",,3230 RIVERSIDE AVE STE 190,PASO ROBLES,CA,93446,SAN LUIS OBISPO
CA-W-22278,THE FABLEIST WINE COMPANY,,3005 LIMESTONE WAY UNIT A,PASO ROBLES,CA,93446,SAN LUIS OBISPO
CA-W-22390,"MONOCHROME WINES, LLC",MONOCHROME WINES,2910 LIMESTONE WAY,PASO ROBLES,CA,93446,SAN LUIS OBISPO
CA-W-23207,"NUNNO, LLC",,3502 DRY CREEK ROAD UNIT B8,PASO ROBLES,CA,93446,SAN LUIS OBISPO
CA-W-21010,PASO DE RECORD LLC,RECORD FAMILY WINES,1550 W HIGHWAY 46,PASO ROBLES,CA,93446,SAN LUIS OBISPO
CA-W-16206,"HAMMERSKY, LLC",HAMMERSKY,7725 VINEYARD DR,PASO ROBLES,CA,93446,SAN LUIS OBISPO
CA-W-17732,PHARAOHMOANS LLC,PHARAOHMOANS,3050 LIMESTONE WAY,PASO ROBLES,CA,93446,SAN LUIS OBISPO
CA-W-24012,LIBERTY VINEYARD LLC,LIBERTY VINEYARD,6875 LONG HILL PL,PASO ROBLES,CA,93446,SAN LUIS OBISPO
CA-W-21722,KENNETH MUNDEE,KENNETH PAUL WINERY,3350 E HWY 46,PASO ROBLES,CA,93446,SAN LUIS OBISPO
CA-W-21435,"HOYT FAMILY VINEYARDS, LLC",HOYT FAMILY VINEYARDS,2485 W HIGHWAY 46,PASO ROBLES,CA,93446,SAN LUIS OBISPO
CA-W-23217,"PHINCH WINES, LLC",PHINCH WINES,5414 VINEYARD DR,PASO ROBLES,CA,93446,SAN LUIS OBISPO
CA-W-23808,ORION WICK STANG,ORIONWINES,3092 ANDERSON RD,PASO ROBLES,CA,93446,SAN LUIS OBISPO
CA-W-17341,LAW ESTATE WINES,,3885 PEACHY CANYON RD,PASO ROBLES,CA,93446,SAN LUIS OBISPO
CA-W-16752,"REY WINES, LLC",KINERO CELLARS,5414 VINEYARD DR,PASO ROBLES,CA,93446,SAN LUIS OBISPO
CA-W-16637,R-GOLDEN LAND CORP.,ROCKIN' R WINERY,8500 UNION RD SUITE C,PASO ROBLES,CA,93446,SAN LUIS OBISPO
CA-W-17005,"PITHY LITTLE WINE COMPANY, INC.",PITHY LITTLE WINE CO.,2500 DRY CREEK RD,PASO ROBLES,CA,93446,SAN LUIS OBISPO
CA-W-21670,"JESS AND JAKE WINES, LLC",LEAGUE OF ROGUES,4230 S BUENA VISTA DR,PASO ROBLES,CA,93446,SAN LUIS OBISPO
CA-W-15812,STARR RANCH LLC,STARR RANCH,9320 CHIMNEY ROCK RD,PASO ROBLES,CA,93446,SAN LUIS OBISPO
CA-W-17369,"WINDWARD VINEYARD, LLC",,1380 LIVE OAK RD,PASO ROBLES,CA,93446,SAN LUIS OBISPO
CA-W-23930,"CRAZY WOMAN CELLARS, LLC",CRAZY WOMAN CELLARS,3773 RUTH WAY STE A,PASO ROBLES,CA,93446,SAN LUIS OBISPO
CA-W-15496,"CIPCO, INC.",DERBY WINE ESTATES,5620 E HIGHWAY 46,PASO ROBLES,CA,93446,SAN LUIS OBISPO
CA-W-15700,"STANGER VINEYARD, L.L.C.",STANGER VINEYARDS,6305 BUENA VISTA DR,PASO ROBLES,CA,93446,SAN LUIS OBISPO
CA-W-3540,"VINA ROBLES, INC.",VINA ROBLES,1200 PRISKA DR,PASO ROBLES,CA,93446,SAN LUIS OBISPO
CA-W-17483,LARRY NEIL RASMUSSEN & ELAINE KAY RASMUSSEN,RASMUSSEN FAMILY VINEYARDS,120 HARVEST RIDGE WAY,PASO ROBLES,CA,93446,SAN LUIS OBISPO
CA-W-15674,"CHARITY VINES, INC.",D'ANBINO VINEYARDS & CELLARS,5115 BUENA VISTA DR,PASO ROBLES,CA,93446,SAN LUIS OBISPO
CA-W-23606,PASO ROBLES RANCH PARTNER CORPORATION,GRIZZLY REPUBLIC WINE,3502 DRY CREEK RD UNIT B8,PASO ROBLES,CA,93446,SAN LUIS OBISPO
CA-W-20431,"VANTAGE WINES, LLC",,5625 E HIGHWAY 46,PASO ROBLES,CA,93446,SAN LUIS OBISPO
CA-W-16242,KENNETH DUANE WOLGAMOTT & BRENDA ANNE WOLGAMOTT,MARIN'S VINEYARD,2550 DRY CREEK RD,PASO ROBLES,CA,93446,SAN LUIS OBISPO
CA-W-17220,DONALD LARRY STANTON AND TERESA ANN STANTON,CERRO PRIETO VINEYARD,2540 DRY CREEK RD,PASO ROBLES,CA,93446,SAN LUIS OBISPO
CA-W-24059,JANE WILLHEIM,LUMINA WINES,3060 LIMESTONE WAY,PASO ROBLES,CA,93446,SAN LUIS OBISPO
CA-W-24066,"WESTSIDE VINEYARD REAL ESTATE, LLC",,2910 LIMESTONE WAY,PASO ROBLES,CA,93446,SAN LUIS OBISPO
CA-W-15510,"DOVER CANYON WINERY & VINEYARD, LLC",DOVER CANYON WINERY,4520 VINEYARD DR,PASO ROBLES,CA,93446,SAN LUIS OBISPO
CA-W-21423,KILER CANYON LLC,SEVEN OXEN WINERY,3340 RAMADA DR STE A,PASO ROBLES,CA,93446,SAN LUIS OBISPO
CA-W-23541,NENOWROES WINES LLC,NENOW FAMILY WINES,2910 LIMESTONE WAY,PASO ROBLES,CA,93446,SAN LUIS OBISPO
CA-W-21221,"VALLEY VIEW VINTNERS, INC.",VALLEY VIEW VINTNERS,3092 ANDERSON RD,PASO ROBLES,CA,93446,SAN LUIS OBISPO
CA-W-23918,TURTLE ROCK VINEYARDS,TURTLE ROCK VINEYARDS,2800 WILLOW CREEK RD,PASO ROBLES,CA,93446,SAN LUIS OBISPO
CA-W-2620,JAMES KIRBY JACOBSEN & MARIBETH JACOBSEN,DOCE ROBLES WINERY & VINEYARD,2023 TWEKVE OAKS DR,PASO ROBLES,CA,93446,SAN LUIS OBISPO
CA-W-16310,"BOWCO, LLC",CALIZA WINERY,2570 ANDERSON RD,PASO ROBLES,CA,93446,SAN LUIS OBISPO
CA-W-15787,"KUKKULA, INC.",KUKKULA,9515 CHIMNEY ROCK RD,PASO ROBLES,CA,93446,SAN LUIS OBISPO
CA-W-23891,"WILLIAM ROBERT WINES, INC.",WILLIAM ROBERT ESTATE WINES,2910 LIMESTONE WAY,PASO ROBLES,CA,93446,SAN LUIS OBISPO
CA-W-17252,JOHN KEMAK,TWO BROTHERS FARM,3230 RIVERSIDE AVE STE 190,PASO ROBLES,CA,93446,SAN LUIS OBISPO
CA-W-2597,"DESTINY VINEYARDS, LLC",HUNT CELLARS,2875 OAKDALE RD,PASO ROBLES,CA,93446,SAN LUIS OBISPO
CA-W-23811,"BECKLAND, LLC",THIBIDO WINERY,2025 NACIMIENTO LAKE DR,PASO ROBLES,CA,93446,SAN LUIS OBISPO
CA-W-15914,"WHALEBONE WINERY, INC.",,8325 VINEYARD DR,PASO ROBLES,CA,93446,SAN LUIS OBISPO
CA-W-928,"HENRY MICHAEL DONATONI, JR.",DONATONI WINERY,3225 TOWNSHIP RD,PASO ROBLES,CA,93446,SAN LUIS OBISPO
CA-W-23496,"ABSOLUTION CELLARS WINE COMPANY, INC.",,2925 ANDERSON RD,PASO ROBLES,CA,93446,SAN LUIS OBISPO
CA-W-15410,BRIAN BENJAMIN BENSON,BRIAN BENSON CELLARS,2915 LIMESTONE WAY,PASO ROBLES,CA,93446,SAN LUIS OBISPO
CA-W-15207,WINE 101,MITCHELLA VINEYARDS & WINERY,2525 MITCHELL RANCH WAY,PASO ROBLES,CA,93446,SAN LUIS OBISPO
CA-W-23697,"GOPHER GLEN ORGANIC APPLE FARM, LLC",GOPHER GLEN ORGANIC APPLE FARM,3230 RIVERSIDE AVE UNIT 190,PASO ROBLES,CA,93446,SAN LUIS OBISPO
CA-W-20093,PEACHY CANYON WINERY,PEACHY CANYON WINERY,2025 NACIMIENTO LAKE DR,PASO ROBLES,CA,93446,SAN LUIS OBISPO
CA-W-17344,MEYER VALLEY FARMS LLC,FARMER'S FURY,3502 DRY CREEK RD UNIT B8,PASO ROBLES,CA,93446,SAN LUIS OBISPO
CA-W-23997,DUDLEY VINEYARD,GELFAND VINEYARDS,5530 DRESSER RANCH PL,PASO ROBLES,CA,93446,SAN LUIS OBISPO
CA-W-23759,"ALMA SOL HOLDING COMPANY, LLC",ALMA SOL WINERY,3340 RAMADA DR STE D,PASO ROBLES,CA,93446,SAN LUIS OBISPO
CA-W-16085,WCP CELLARS LLC,,3502 DRY CREEK RD UNIT B8,PASO ROBLES,CA,93446,SAN LUIS OBISPO
CA-W-23747,GREGORY D ALLEN DBA CUATRO DIAS WINERY,CUATRO DIAS WINERY,3502 DRY CREEK RD UNIT B8,PASO ROBLES,CA,93446,SAN LUIS OBISPO
CA-W-15684,"VINES ON THE MARYCREST, LLC",VINES ON THE MARYCREST,5050 MUSTARD CREEK RD,PASO ROBLES,CA,93446,SAN LUIS OBISPO
CA-W-24028,"JOHN ANTHONY VINEYARDS, LLC",SERIAL WINES,5625 E HIGHWAY 46,PASO ROBLES,CA,93446,SAN LUIS OBISPO
CA-W-20189,"PAIX SUR TERRE, LLC",PAIX SUR TERRE,7450 VINEYARD DR,PASO ROBLES,CA,93446,SAN LUIS OBISPO
CA-W-15238,TODD AARON CLIFT,MOONSTONE CELLARS,4230 BUENA VISTA DR,PASO ROBLES,CA,93446,SAN LUIS OBISPO
CA-W-23884,"SILVA LIBATIONS, LLC",AMOK CELLARS,525 PINE ST STE B,PASO ROBLES,CA,93446,SAN LUIS OBISPO
CA-W-17121,TREANA WINERY LLC,HOPE FAMILY WINES,1585 LIVE OAK RD,PASO ROBLES,CA,93446,SAN LUIS OBISPO
CA-W-16453,PISMO BEACH WINERY LLC,PISMO BEACH WINERY,271 FIVE CITIES DR,PISMO BEACH,CA,93449,SAN LUIS OBISPO
CA-W-23924,CAL POLY CORPORATION,JUSTIN AND J. LOHR CENTER FOR WINE AND VITICULTURE,1 GRAND AVE BLDG 157 & 158,SAN LUIS OBISPO,CA,93407,SAN LUIS OBISPO
CA-W-23842,"WINERY EXCHANGE, INC.",BAILEYANA WINERY,5828 ORCUTT RD,SAN LUIS OBISPO,CA,93401,SAN LUIS OBISPO
CA-W-23946,"WINERY EXCHANGE, INC.",,4910 EDNA RD,SAN LUIS OBISPO,CA,93401,SAN LUIS OBISPO
CA-W-17561,E. & J. GALLO WINERY,EDNA VALLEY VINEYARD,2585 BIDDLE RANCH RD,SAN LUIS OBISPO,CA,93401,SAN LUIS OBISPO
CA-W-16635,"CHAMISAL VINEYARDS, LLC",CHAMISAL VINEYARDS,7525 ORCUTT RD,SAN LUIS OBISPO,CA,93401,SAN LUIS OBISPO
CA-W-23364,"GLEASON FAMILY VINEYARDS, LP",,696 CLARION CT,SAN LUIS OBISPO,CA,93401,SAN LUIS OBISPO
CA-W-23418,DURHAM'S CIDER AND WINE LLC,,281 PACIFIC ST UNIT B,SAN LUIS OBISPO,CA,93401,SAN LUIS OBISPO
CA-W-23231,"SLO CIDER, LLC",SLO CIDER CO.,3419 ROBERTO CT STE C,SAN LUIS OBISPO,CA,93401,SAN LUIS OBISPO
CA-W-15928,STEPHEN P. AUTRY,AUTRY CELLARS,5450 EDNA RD UNIT B,SAN LUIS OBISPO,CA,93401,SAN LUIS OBISPO
CA-W-22590,CAL POLY CORPORATION,CAL POLY,1 GRAND AVE,SAN LUIS OBISPO,CA,93407,SAN LUIS OBISPO
CA-W-16789,"VALOR WINE CO., LLC",SINOR-LAVALLEE,271 TANK FARM RD,SAN LUIS OBISPO,CA,93401,SAN LUIS OBISPO
CA-W-22483,SARITA BONITA LLC,RAGTAG WINE CO.,695 CLARION CT,SAN LUIS OBISPO,CA,93401,SAN LUIS OBISPO
CA-W-1781,"PARAGON VINEYARD CO., INC.",ORCUTT ROAD CELLARS,4915 ORCUTT RD,SAN LUIS OBISPO,CA,93401,SAN LUIS OBISPO
CA-W-2468,"PHASE 2 CELLARS, LLC",TOLOSA WINERY,4910 EDNA RD,SAN LUIS OBISPO,CA,93401,SAN LUIS OBISPO
CA-W-22142,"SAUCELITO CANYON, INC. GP SAUCELITO CANYON LP",SAUCELITO CANYON VINEYARD,3080 BIDDLE RANCH RD,SAN LUIS OBISPO,CA,93401,SAN LUIS OBISPO
CA-W-21879,"RBZ VINEYARDS, LLC",SEXTANT WINES,1653 OLD PRICE CANYON RD,SAN LUIS OBISPO,CA,93401,SAN LUIS OBISPO
CA-W-16979,BAKER AND BRAIN WINES LLC,BAKER AND BRAIN,4910 EDNA RD STE C,SAN LUIS OBISPO,CA,93401,SAN LUIS OBISPO
CA-W-22362,BOCCE COURT CELLARS LLC,BIDDLE RANCH VINEYARD,2050 BIDDLE RANCH RD,SAN LUIS OBISPO,CA,93401,SAN LUIS OBISPO
CA-W-21829,"CUTRUZZOLA VINEYARDS, LLC",CUTRUZZOLA VINEYARDS,178 SUBURBAN RD,SAN LUIS OBISPO,CA,93401,SAN LUIS OBISPO
CA-W-2120,"STEPHEN DOOLEY WINE CO., INC.",STEPHEN R. DOOLEY,178 SUBURBAN RD,SAN LUIS OBISPO,CA,93401,SAN LUIS OBISPO
CA-W-17492,PIEDRA CREEK WINERY LLC,PIEDRA CREEK WINERY,178 SUBURBAN RD,SAN LUIS OBISPO,CA,93401,SAN LUIS OBISPO
CA-W-3130,"KELSEY SEE CANYON VINEYARDS, INC.",KELSEY SEE CANYON VINEYARDS,1945 SEE CANYON RD,SAN LUIS OBISPO,CA,93405,SAN LUIS OBISPO
CA-W-17163,"HENSON WINES, LLC",,2885 S HIGUERA ST,SAN LUIS OBISPO,CA,93401,SAN LUIS OBISPO
CA-W-22416,TWO BROADS LLC,TWO BROADS CIDERWORKS,3427 ROBERTO CT STE 130,SAN LUIS OBISPO,CA,93401,SAN LUIS OBISPO
CA-W-16969,"FILIPPONI RANCH, LLC",FILIPPONI RANCH CELLARS,1850 CALLE JOAQUIN,SAN LUIS OBISPO,CA,93405,SAN LUIS OBISPO
CA-W-17273,CHRISTOPHER J. FERRARA,BIAGIO WINE CO.,1850 CALLE JOAQUIN,SAN LUIS OBISPO,CA,93405,SAN LUIS OBISPO
CA-W-21345,"DEOVLET WINES, LLC",DEOVLET WINES,203 SUBURBAN RD UNIT 2,SAN LUIS OBISPO,CA,93401,SAN LUIS OBISPO
CA-W-15719,"VALOR WINE CO., LLC",VALOR WINE CO.,555 EL CAMINO REAL,SAN LUIS OBISPO,CA,93401,SAN LUIS OBISPO
CA-W-21513,BOCCE COURT CELLARS LLC,BIDDLE RANCH VINEYARD,207 SUBURBAN RD UNIT 1 & 2,SAN LUIS OBISPO,CA,93401,SAN LUIS OBISPO
CA-W-20030,"BECK AG OPERATIONS, INC.",BECK VINEYARDS AND WINERY,2885 S HIGUERA ST,SAN LUIS OBISPO,CA,93401,SAN LUIS OBISPO
CA-W-21040,SLO WINE STORAGE,THE WINE STUDIO,2885 S HIGUERA ST,SAN LUIS OBISPO,CA,93401,SAN LUIS OBISPO
CA-W-3402,"WILD WOOD VINEYARD & WINERY, INC.",WILD WOOD VINEYARD & WINERY,555 EL CAMINO REAL,SAN LUIS OBISPO,CA,93401,SAN LUIS OBISPO
CA-W-23994,TIMSHEL NURSERY & VINEYARD,TIMSHEL NURSERY & VINEYARD,1850 CALLE JOAQUIN,SAN LUIS OBISPO,CA,93405,SAN LUIS OBISPO
CA-W-23975,"GROUNDED WINE PROJECT, LLC",GROUNDED WINE PROJECT,7525 ORCUTT RD,SAN LUIS OBISPO,CA,93401,SAN LUIS OBISPO
CA-W-20131,"PELOTON CELLARS, INC.",PELOTON CELLARS,178 SUBURBAN RD,SAN LUIS OBISPO,CA,93401,SAN LUIS OBISPO
CA-W-23493,BROKEN MAST BEVERAGE COMPANY LLC,BROKEN MAST BEVERAGE COMPANY,855 CAPITOLIO WAY STE 5,SAN LUIS OBISPO,CA,93401,SAN LUIS OBISPO
CA-W-1436,"CLAIBORNE & CHURCHILL, INC.",,2649 CARPENTER CANYON RD,SAN LUIS OBISPO,CA,93401,SAN LUIS OBISPO
CA-W-15284,MIDDLETON FAMILY WINES LLC,MIDDLETON FAMILY WINES,4910 EDNA RD,SAN LUIS OBISPO,CA,93401,SAN LUIS OBISPO
CA-W-2859,"WOLFF VINEYARD, LLC",WOLFF VINEYARDS,6238 ORCUTT RD,SAN LUIS OBISPO,CA,93401,SAN LUIS OBISPO
CA-W-15814,DAVID NAGENGAST,NAGENGAST ESTATE VINEYARD,6404 INDEPENDENCE RANCH PL,SAN MIGUEL,CA,93451,SAN LUIS OBISPO
CA-W-2988,"PIANETTA WINERY, INC.",PIANETTA WINERY,75751 INDIAN VALLEY RD,SAN MIGUEL,CA,93451,SAN LUIS OBISPO
CA-W-15381,GH HOLDINGS L.P.,CASTLE OAK VINEYARDS,6986 ESTRELLA RD,SAN MIGUEL,CA,93451,SAN LUIS OBISPO
CA-W-23221,WINE BOSS LLC,,2850 RANCHITA CANYON RD,SAN MIGUEL,CA,93451,SAN LUIS OBISPO
CA-W-15365,GRAVEYARD VINEYARDS,GRAVEYARD VINEYARDS,6994 ESTRELLA RD,SAN MIGUEL,CA,93451,SAN LUIS OBISPO
CA-W-16758,"A CELLAR FULL OF NOISE, L.L.C.",JAMES JUDD & SON VINEYARDS,2850 RANCHITA CANYON RD,SAN MIGUEL,CA,93451,SAN LUIS OBISPO
CA-W-21015,"TWIN COYOTES WINERY, INC.",TWIN COYOTES WINERY,2850 RANCHITA CANYON RD,SAN MIGUEL,CA,93451,SAN LUIS OBISPO
CA-W-23280,SHARPEI MOON WINES LLC,SHARPEI MOON WINES,2850 RANCHITA CANYON RD,SAN MIGUEL,CA,93451,SAN LUIS OBISPO
CA-W-22644,THOMAS J NAGENGAST,BAJKA WINE COMPANY,6404 INDEPENDENCE RANCH PL,SAN MIGUEL,CA,93451,SAN LUIS OBISPO
CA-W-17613,VILLA SAN JULIETTE,VILLA SAN JULIETTE,6385 CROSS CANYONS RD,SAN MIGUEL,CA,93451,SAN LUIS OBISPO
CA-W-23220,SWANK N SMITH LLC,SWANK N SMITH,2850 RANCHITA CANYON RD,SAN MIGUEL,CA,93451,SAN LUIS OBISPO
CA-W-16571,"JETTLYNN WINERY, LLC",JETTLYNN WINERY,8585 CROSS CANYONS RD,SAN MIGUEL,CA,93451,SAN LUIS OBISPO
CA-W-23011,DONALD ARNDT & JENNIFER ARNDT,ARNDT FAMILY WINES,8585 CROSS CANYONS RD,SAN MIGUEL,CA,93451,SAN LUIS OBISPO
CA-W-2019,"LUNEAU U.S.A., INC.",PACIFIC EDGE WINES,6465 VON DOLLEN RD,SAN MIGUEL,CA,93451,SAN LUIS OBISPO
CA-W-3103,"LA FORZA WINERY, LLC",LA FILICE WINERY,2425 MISSION ST,SAN MIGUEL,CA,93451,SAN LUIS OBISPO
CA-W-2844,"PRETTY-SMITH ENTERPRISES, LLC",PRETTY-SMITH VINEYARDS & WINERY,13350 RIVER RD,SAN MIGUEL,CA,93451,SAN LUIS OBISPO
CA-W-21916,"FOUR SISTERS RANCH, LLC",,2995 PLEASANT RD,SAN MIGUEL,CA,93451,SAN LUIS OBISPO
CA-W-1748,CASTORO CELLARS,,6465 VON DOLLEN RD,SAN MIGUEL,CA,93451,SAN LUIS OBISPO
CA-W-15901,TACKITT CORP,TACKITT FAMILY VINEYARDS,6640 VON DOLLEN RD,SAN MIGUEL,CA,93451,SAN LUIS OBISPO
CA-W-22248,"RIVERSTAR WINERY, LLC",RIVERSTAR VINEYARDS,7450 ESTRELLA RD,SAN MIGUEL,CA,93451,SAN LUIS OBISPO
CA-W-2417,"K-4 DEVELOPMENT, LLC",SILVER HORSE WINERY,2995 PLEASANT RD,SAN MIGUEL,CA,93451,SAN LUIS OBISPO
CA-W-22201,"CHOLAKIAN WINES, LLC",LDT CUSTOM CRUSH AND BOTTLING,2850 RANCHITA CANYON RD,SAN MIGUEL,CA,93451,SAN LUIS OBISPO
CA-W-22337,"CIRCLE B VINEYARD AND CELLARS, LLC",CIRCLE B VINEYARD AND CELLARS,2850 RANCHITA CANYON RD,SAN MIGUEL,CA,93451,SAN LUIS OBISPO
CA-W-21165,E. & J. GALLO WINERY,COURTSIDE CELLARS,2425 MISSION ST,SAN MIGUEL,CA,93451,SAN LUIS OBISPO
CA-W-17575,"POZZUOLI WINERY, INC.",POZZUOLI WINERY,6225 CALIFORNIA POPPY LN,SAN MIGUEL,CA,93451,SAN LUIS OBISPO
CA-W-23911,ESCALAR WINES LLC,,6640 VON DOLLEN RD,SAN MIGUEL,CA,93446,SAN LUIS OBISPO
CA-W-17151,"SEVEN QUAILS VINEYARDS, INC.",SEVEN QUAILS VINEYARDS,8585 CROSS CANYONS RD,SAN MIGUEL,CA,93451,SAN LUIS OBISPO
CA-W-24084,"NOMADICA, INC.",NOMADICA,6465 VON DOLLEN RD,SAN MIGUEL,CA,93451,SAN LUIS OBISPO
CA-W-21849,"MIRASOL WINE, LLC",HEARST RANCH WINERY,442 SAN SIMEON RD,SAN SIMEON,CA,93452,SAN LUIS OBISPO
CA-W-15377,"POZO VALLEY, LLC",POZO VALLEY,10 E POZO RD,SANTA MARGARITA,CA,93453,SAN LUIS OBISPO
CA-W-15587,MICHAEL P. KNODL,,4580 PARK HILL RD,SANTA MARGARITA,CA,93453,SAN LUIS OBISPO
CA-W-21589,"GIUSEPPE DIFRONZO VINEYARDS, LLC",DIFRONZO VINEYARDS,2330 WESTGATE RD UNIT 9,SANTA MARIA,CA,93455,SAN LUIS OBISPO
CA-W-15571,"ARON HILL VINEYARDS, INC.",ARON HILL VINEYARDS,111 CLARK RD,SHANDON,CA,93461,SAN LUIS OBISPO
CA-W-2745,"SVP WINERY, LLC",SVP WINERY,111 CLARK RD,SHANDON,CA,93461,SAN LUIS OBISPO
CA-W-16527,"POMAR JUNCTION CELLARS, LLC",POMAR JUNCTION VINEYARD,5036 S EL POMAR RD,TEMPLETON,CA,93465,SAN LUIS OBISPO
CA-W-3283,BRUCE EDWIN HANSEN,HANSEN VINEYARD,5575 EL POMAR DR,TEMPLETON,CA,93465,SAN LUIS OBISPO
CA-W-3395,DONALD R. WASSERMAN,DONALD WASSERMAN VINEYARDS AND WINERY,6010 EL POMAR DR,TEMPLETON,CA,93465,SAN LUIS OBISPO
CA-W-23968,PORT ROTTA WINERY LLC,,250 WINERY RD,TEMPLETON,CA,93465,SAN LUIS OBISPO
CA-W-15964,"DONATI FAMILY VINEYARD, INC.",,2720 OAK VIEW RD,TEMPLETON,CA,93465,SAN LUIS OBISPO
CA-W-15184,"ZIN ALLEY, LLC",ZIN ALLEY,3730 W HIGHWAY 46,TEMPLETON,CA,93465,SAN LUIS OBISPO
CA-W-15476,"HIDDEN OAK WINERY, INC.",HIDDEN OAK WINERY,4671 S EL POMAR,TEMPLETON,CA,93465,SAN LUIS OBISPO
CA-W-15135,"STEDUM PROPERTIES, LLC",JACK CREEK CELLARS,5265 JACK CREEK RD,TEMPLETON,CA,93465,SAN LUIS OBISPO
CA-W-16791,CLARE RANCH LLC,CLARE RANCH VINEYARD & WINERY,2225 RAYMOND AVE,TEMPLETON,CA,93465,SAN LUIS OBISPO
CA-W-3048,SHADOW CANYON CELLARS,,45 MAIN ST,TEMPLETON,CA,93465,SAN LUIS OBISPO
CA-W-3562,MATT AND STEFANIE MIKULICS,,995 EL POMAR DR,TEMPLETON,CA,93465,SAN LUIS OBISPO
CA-W-23028,"BOVINO VINEYARDS, LLC",,5683 EL POMAR DR,TEMPLETON,CA,93465,SAN LUIS OBISPO
CA-W-16311,"SARZOTTI VINEYARD & WINERY, INC.",,180 BELLA RANCH RD,TEMPLETON,CA,93465,SAN LUIS OBISPO
CA-W-16197,"AMBYTH ESTATE, LLC",,510 SEQUOIA LN,TEMPLETON,CA,93465,SAN LUIS OBISPO
CA-W-2874,"TURLEY WINE CELLARS, INC.",PESENTI WINERY,2900 VINEYARD DR,TEMPLETON,CA,93465,SAN LUIS OBISPO
CA-W-22465,"INNATE WINES, LLC",INNATE WINES,1850 TEMPLETON RD,TEMPLETON,CA,93465,SAN LUIS OBISPO
CA-W-15956,ZOLLER WINE STYLING,ZOLLER WINE STYLING,45 MAIN ST,TEMPLETON,CA,93465,SAN LUIS OBISPO
CA-W-22002,JAMES DEMETER,DEMETER FAMILY CELLARS,6990 KINGSBURY RD,TEMPLETON,CA,93465,SAN LUIS OBISPO
CA-W-2712,CAROLYN A. SOMOGYI,ROCKY CREEK WINERY,8395 W HIGHWAY 46,TEMPLETON,CA,93465,SAN LUIS OBISPO
CA-W-21918,THOMAS WILLIAM INC.,THOMAS WILLIAM FERMENTATION COMPANY,45 N MAIN ST BLDG 2,TEMPLETON,CA,93465,SAN LUIS OBISPO
CA-W-17757,CASTORO CELLARS,,1315 N BETHEL RD,TEMPLETON,CA,93465,SAN LUIS OBISPO
CA-W-22235,"RANCHO DEL LAGO, LLC",LAGO GIUSEPPE WINERY,8345 GREEN VALLEY RD,TEMPLETON,CA,93446,SAN LUIS OBISPO
CA-W-2565,VICTOR & LESLIE ROBERTS,KELEVI CELLARS,2850 EL POMAR DR,TEMPLETON,CA,93465,SAN LUIS OBISPO
CA-W-2706,"BELLA LUNA WINERY, INC.",BELLA LUNA WINERY,1850 TEMPLETON RD,TEMPLETON,CA,93465,SAN LUIS OBISPO
CA-W-21801,NIELS UDSEN AND BERIT UDSEN,BETHEL ROAD VINEYARDS,1266 N BETHEL RD,TEMPLETON,CA,93465,SAN LUIS OBISPO
CA-W-17725,"ARMSTRONG VINEYARDS, INC.",EPOCH ESTATE WINES,7575 YORK MOUNTAIN RD,TEMPLETON,CA,93465,SAN LUIS OBISPO
CA-W-21291,"OPOLO WINES, LP, OPOLO MANAGEMENT LLC, GP",,45 N MAIN ST,TEMPLETON,CA,93465,SAN LUIS OBISPO
CA-W-17342,"ARON HILL VINEYARDS, INC.",ARON HILL VINEYARDS,3745 W HIGHWAY 46,TEMPLETON,CA,93465,SAN LUIS OBISPO
CA-W-22740,"ZANOLI WINE SERVICES, LLC",ZANOLI WINES,1850 TEMPLETON RD,TEMPLETON,CA,93465,SAN LUIS OBISPO
CA-W-20062,PEACHY CANYON WINERY,,1480 N BETHEL RD,TEMPLETON,CA,93465,SAN LUIS OBISPO
CA-W-17782,BRANDON M. SIMONDS AND MICHAEL T. SIMONDS,BRANDON MICHAEL SIMONDS CELLARS,3939 EL POMAR DR,TEMPLETON,CA,93465,SAN LUIS OBISPO
CA-W-17217,"RAMBERG VINEYARDS, LLC",VENTEUX VINEYARDS,1795 LAS TABLAS RD,TEMPLETON,CA,93465,SAN LUIS OBISPO
CA-W-22433,CHRISTOPHER J. FERRARA,,1873 TEMPLETON RD,TEMPLETON,CA,93465,SAN LUIS OBISPO
CA-W-20044,"Q4X, INC.",CYPHER WINERY,3750 W HWY 46,TEMPLETON,CA,93465,SAN LUIS OBISPO
CA-W-23735,REPUBLIC OF PINK INC,REPUBLIC OF PINK,5036 S EL POMAR RD,TEMPLETON,CA,93465,SAN LUIS OBISPO
CA-W-20236,"PASOPORT WINE COMPANY, INC.",,95 BOOKER RD,TEMPLETON,CA,93465,SAN LUIS OBISPO
CA-W-21969,SEVEN ANGELS CELLARS LLC,SEVEN ANGELS,830 TEMPLETON RD,TEMPLETON,CA,93465,SAN LUIS OBISPO
CA-W-23667,CANNED FUN LLC,PORCH POUNDER,45 N MAIN ST BLDG 2,TEMPLETON,CA,93465,SAN LUIS OBISPO
CA-W-23710,"HOLLYHOCK LODGE, LLC",,3070 LIMESTONE WAY UNIT C,PASO ROBLES,CA,93446,SAN LUIS OBISPO COUNTY
CA-W-22815,RICHARD LOUIS KLENDER,KLENDER CELLARS,3230 RIVERSIDE AVE STE 190,PASO ROBLES,CA,93446,SAN LUIS OBISPO COUNTY
CA-W-22581,"RILEY WINES, LLC",HUBBA WINES,2929 LIMESTONE WAY UNIT B,PASO ROBLES,CA,93446,SAN LUIS OBISPO COUNTY
CA-W-23090,"EVERYDAY BRANDS GROUP, INC.",ANYDAY BRANDS,3005 LIMESTONE WAY UNIT A,PASO ROBLES,CA,93446,SAN LUIS OBISPO COUNTY
CA-W-22954,"COPIA VINEYARDS AND WINERY, LLC",COPIA VINEYARDS,5414 VINEYARD DR,PASO ROBLES,CA,93446,SAN LUIS OBISPO COUNTY
CA-W-22322,SANS LIEGE INC.,SANS LIEGE WINES,2995 LIMESTONE WAY,PASO ROBLES,CA,93446,SAN LUIS OBISPO COUNTY
CA-W-22321,GARY KRAMER & LAURA GULIHUR KRAMER,VILLA SAN MIGUEL VINEYARDS AND ORCHARDS,2127 VANDERLIP CT UNIT C,PASO ROBLES,CA,93446,SAN LUIS OBISPO COUNTY
CA-W-22347,MYSTIC HILLS VINEYARD INC,MYSTIC HILLS VINEYARD,3230 RIVERSIDE AVE STE 190,PASO ROBLES,CA,93446,SAN LUIS OBISPO COUNTY
CA-W-21065,"BACANAL USA, INC.",BACANAL WINERY,3502 DRY CREEK RD UNIT B8,PASO ROBLES,CA,93446,SAN LUIS OBISPO COUNTY
CA-W-22058,FLY BY NIGHT SPIRITS LLC,MISSION-TRAIL CIDER CO.,3230 RIVERSIDE AVE STE 190,PASO ROBLES,CA,93446,SAN LUIS OBISPO COUNTY
CA-W-21091,"FLOATING FEATHER CELLARS, LLC",LEVO WINE,2975 LIMESTONE WAY,PASO ROBLES,CA,93446,SAN LUIS OBISPO COUNTY
CA-W-22068,RYAN ANDREW BERG & JACQUILINE MARIE PAILING,ALTHEA ESTATES,3230 RIVERSIDE AVE STE 190,PASO ROBLES,CA,93446,SAN LUIS OBISPO COUNTY
CA-W-21421,VALEN ESTATES LLC,VALEN ESTATES,2500 DRY CREEK RD,PASO ROBLES,CA,93446,SAN LUIS OBISPO COUNTY
CA-W-21380,"CHATEAU LETTAU, LLC",CHATEAU LETTAU,3230 RIVERSIDE AVE UNIT 190,PASO ROBLES,CA,93446,SAN LUIS OBISPO COUNTY
CA-W-21953,"LEFONDUSAC, INC.",LEFONDUSAC,2929 LIMESTONE WAY UNIT B,PASO ROBLES,CA,93446,SAN LUIS OBISPO COUNTY
CA-W-23057,"MCBRIDE SISTERS COLLECTIONS, INC.",MCBRIDE SISTERS COLLECTIONS,4910 EDNA RD,SAN LUIS OBISPO,CA,93401,SAN LUIS OBISPO COUNTY
CA-W-22487,SCAR OF THE SEA WINES LLC,SCAR OF THE SEA,271 TANK FARM RD,SAN LUIS OBISPO,CA,93401,SAN LUIS OBISPO COUNTY
CA-W-22576,RYAN PACE & NATALIE SIDDIQUE,OUTWARD WINES,271 TANK FARM RD,SAN LUIS OBISPO,CA,93401,SAN LUIS OBISPO COUNTY
CA-W-23704,GAVEL TO GAVEL LLC,,271 TANK FARM RD,SAN LUIS OBISPO,CA,93401,SAN LUIS OBISPO COUNTY
CA-W-23815,"LA LOMITA RANCH, LLC",LA LOMITA RANCH,271 TANK FARM RD,SAN LUIS OBISPO,CA,93401,SAN LUIS OBISPO COUNTY
CA-W-23905,AVELLA LLC,RANCHITA CANYON VINEYARD,3439 RANCHITA CANYON RD,SAN MIGUEL,CA,93451,SAN LUIS OBISPO COUNTY
CA-W-21742,"TOLLIVER RANCH BRANDS, LLC",TOOTH AND NAIL WINE COMPANY,3090 & 3092 ANDERSON RD,PASO ROBLES,CA,93446,SAN LUIS OPISPO
CA-W-21759,TRES NINOS VINEYARD LLC,DEPAOLA VINEYARDS,2540-2550 DRY CREEK RD,PASO ROBLES,CA,93446,SAN LUIS OPISPO
CA-W-23395,"BARBIERI WINE COMPANY, LLC",BARBIERI WINE COMPANY,100 LOS PADRES WAY STE 3,BUELLTON,CA,93427,SAN LUIS OSBISPO
CA-W-23451,THE FABLEIST WINE COMPANY,FABLEIST WINE CO,5036 S EL POMAR RD,TEMPLETON,CA,93465,SAN LUIS OSBISPO
CA-W-23282,"DONESA, LLC",DONESA WINERY,3230 RIVERSIDE AVE STE 190,PASO ROBLES,CA,93446,SAN LUIS OSBISPO COUNTY
CA-W-23204,BUSHONG VINTAGE COMPANY LLC,BUSHONG VINTAGE COMPANY,6994 ESTRELLA RD,SAN MIGUEL,CA,93451,SAN LUIS OSBISPO COUNTY
CA-W-16092,"WAXWING WINE CELLARS, INC.",WAXWING WINE CELLARS,111 INDUSTRIAL WAY #8,BELMONT,CA,94002,SAN MATEO
CA-W-16775,OLD WORLD SPIRITS L.L.C.,OLD WORLD SPIRITS,121 INDUSTRAIL RD #3 AND #4,BELMONT,CA,94002,SAN MATEO
CA-W-15143,LIQUID SKY VINEYARDS,,20075 S CABRILLO HWY,HALF MOON BAY,CA,94019,SAN MATEO
CA-W-16833,TROJAK-KNIER LLC,TK WINERY,151 HARVARD AVE STE A AND B,HALF MOON BAY,CA,94019,SAN MATEO
CA-W-17406,"AMARI CELLARS, LLC",AMARI CELLARS,1790 FOREST VIEW AVE,HILLSBOROUGH,CA,94010,SAN MATEO
CA-W-21053,"CLOS DE LA TECH, LLC",CLOS DE LA TECH,1000 FERN HOLLOW RD,LA HONDA,CA,94020,SAN MATEO
CA-W-2999,"WOODSIDE VINEYARDS, LLC",WOODSIDE VINEYARDS,205 CONSTITUTION DR,MENLO PARK,CA,94025,SAN MATEO
CA-W-17696,TRIPLE J CELLARS LLC,,901 PALMETTO AVE,PACIFICA,CA,94044,SAN MATEO
CA-W-2935,"THOMAS FOGARTY WINERY, LLC",THOMAS FOGARTY WINERY,5937 ALPINE RD,PORTOLA VALLEY,CA,94028,SAN MATEO
CA-W-16094,PORTOLA VINEYARDS LLC,,850 LOS TRANCOS RD,PORTOLA VALLEY,CA,94028,SAN MATEO
CA-W-20187,MARTELLA LLC,MARTELLA WINES,5937 ALPINE RD,PORTOLA VALLEY,CA,94028,SAN MATEO
CA-W-15256,"POST & TRELLIS, INC.",LA HONDA WINERY,2645 FAIR OAKS AVE,REDWOOD CITY,CA,94063,SAN MATEO
CA-W-23627,"BREW4U, LLC","BREW4U, LLC",935 WASHINGTON ST,SAN CARLOS,CA,94070,SAN MATEO
CA-W-3342,"DOMINICK CHIRICHILLO WINES ""LLC""",DOMINICK CHIRICHILLO WINES,1697 INDUSTRIAL RD,SAN CARLOS,CA,94070,SAN MATEO
CA-W-20182,"BEAN CREEK WINERY, LLC",ROUDON-SMITH WINERY,1697 INDUSTRIAL RD,SAN CARLOS,CA,94070,SAN MATEO
CA-W-22448,"SAVAGE WINE, LLC.",,1001 WASHINGTON ST,SAN CARLOS,CA,94070,SAN MATEO
CA-W-22627,"HUNTER DEHAVEN WINERY, LLC",,915 WASHINTGON ST,SAN CARLOS,CA,94070,SAN MATEO
CA-W-22458,"VINSMITH, LLC",ATSINA CELLARS,1001 WASHINGTON ST,SAN CARLOS,CA,94070,SAN MATEO
CA-W-16905,GEORGE BENJAMIN LAMOTTE III,LAMOTTE CELLARS,1697 INDUSTRIAL RD,SAN CARLOS,CA,94070,SAN MATEO
CA-W-16166,"CLOS DE LA TECH, LLC",CLOS DE LA TECH,1697 INDUSTRIAL RD UNIT 2,SAN CARLOS,CA,94070,SAN MATEO
CA-W-21302,ANDREW JAMES WESOLEK,WESOLEK VINEYARD,1001 WASHINGTON ST,SAN CARLOS,CA,94070,SAN MATEO
CA-W-21598,GLORIA J DESIGNS LLC,GLORIA J WINES,1697 INDUSTRIAL RD,SAN CARLOS,CA,94070,SAN MATEO
CA-W-21215,DAVID AND KIM VANCE,ZOETIC WINES,1001 WASHINGTON ST,SAN CARLOS,CA,94070,SAN MATEO
CA-W-21464,FLYING SUITCASE WINES LLC,,915 WASHINGTON ST,SAN CARLOS,CA,94070,SAN MATEO
CA-W-23988,"47 HILLS BREWING COMPANY, LLC",47 HILLS BREWING COMPANY,137 S LINDEN AVE,SOUTH SAN FRANCISCO,CA,94080,SAN MATEO
CA-W-22808,MICHAEL PATRICK RATKA,SPLIT BARREL CIDER,285 ALLEN RD,WOODSIDE,CA,94062,SAN MATEO
CA-W-15632,GBH VINEYARD LLC,,100 PHILLIP RD,WOODSIDE,CA,94062,SAN MATEO
CA-W-17670,WOODSIDE FARM VINEYARD LLC,WOODSIDE FARM VINEYARD,1 VINTAGE CT,WOODSIDE,CA,94062,SAN MATEO
CA-W-1859,"JARED A. ANDERSON (GP), SPECTRUM VINTAGES LTD (LP)",CHAINE D'OR VINEYARDS,140 SUNRISE DR,WOODSIDE,CA,94062,SAN MATEO
