PERMIT NUMBER,OWNER NAME,OPERATING NAME,STREET,CITY,STATE,ZIP,COUNTY
CA-W-16927,"EHRENBERG CELLAR, LLC",EHRENBERG CELLARS,2301 MONARCH ST,ALAMEDA,CA,94501,ALAMEDA
CA-W-23148,MONO VERDE IMPORTS LLC,,1951 MONARCH ST STE 300,ALAMEDA,CA,94501,ALAMEDA
CA-W-16650,"LA COSTA PACIFICA, INC.",URBAN LEGEND WINE,1951 MONARCH ST SUITE 300,ALAMEDA,CA,94501,ALAMEDA
CA-W-23413,"LOS ARABIS VINEYARDS, LLC",,1951 MONARCH ST UNIT 300,ALAMEDA,CA,94501,ALAMEDA
CA-W-21538,STEELTOWN WINERY LLC,BUILDING 43 WINERY,2440 MONARCH ST STE 100,ALAMEDA,CA,94501,ALAMEDA
CA-W-2463,"DASHE WINE CELLARS, LLC",DASHE CELLARS,1951 MONARCH ST STE 300,ALAMEDA,CA,94501,ALAMEDA
CA-W-16594,Cal-,,2301 MONARCH ST SUITE #300,ALAMEDA,CA,94501,ALAMEDA
CA-W-23942,PIERRECLOS IMPORTS LLC,,1951 MONARCH ST STE 300,ALAMEDA,CA,94501,ALAMEDA
CA-W-23149,SIMAS FAMILY VINEYARD LLC,SIMAS FAMILY VINEYARD,1951 MONARCH ST,ALAMEDA,CA,94501,ALAMEDA
CA-W-23362,KENT RASMUSSEN WINERY,,2610 NINTH ST,BERKELEY,CA,94710,ALAMEDA
CA-W-16622,"CHAIM, LLC",COVENANT WINES,1102 6TH ST,BERKELEY,CA,94710,ALAMEDA
CA-W-22601,"GIFFORD FAMILY WINE CO, LLC",WINDCHASER WINE CO,1375 & 1365 4TH ST,BERKELEY,CA,94701,ALAMEDA
CA-W-21478,HANSEN-WHISTLER VINEYARDS INC.,,805 CAMELIA ST,BERKELEY,CA,94701,ALAMEDA
CA-W-22980,"CAMUNA CELLARS, LLC",,1102 6TH ST,BERKELEY,CA,94710,ALAMEDA
CA-W-23868,"TOSHOKAN, LLC",TOSHOKAN,1350 1350 FIFTH ST,BERKELEY,CA,94710,ALAMEDA
CA-W-15018,"A DONKEY AND GOAT, LLC",A DONKEY AND GOAT,1340 5TH ST,BERKELEY,CA,94710,ALAMEDA
CA-W-23046,"BOLO CELLARS, LLC",HAMMERLING WINES,1350 5TH ST,BERKELEY,CA,94710,ALAMEDA
CA-W-17731,"PETER PAUL WINES, LLC",PETER PAUL WINES,1102 6TH ST,BERKELEY,CA,94710,ALAMEDA
CA-W-15372,ALEXANDER J. VERHAGE,ENO WINES,805 CAMELIA ST,BERKELEY,CA,94710,ALAMEDA
CA-W-24087,JAMIE M LLC,,1102 6TH ST,BERKELEY,CA,94710,ALAMEDA
CA-W-21704,"NEW WORLD KOSHER, INC.",,1102 6TH ST,BERKELEY,CA,94710,ALAMEDA
CA-W-24015,JYOK BEV INC.,JYOK BEVERAGES,1335 FOURTH ST,BERKELEY,CA,94710,ALAMEDA
CA-W-24014,"BUDDY BUDDY WINE, LLC",BUDDY BUDDY WINE,1335 4TH ST,BERKELEY,CA,94710,ALAMEDA
CA-W-1945,TAKARA SAKE USA INC.,TAKARA SAKE USA,708 ADDISON ST,BERKELEY,CA,94710,ALAMEDA
CA-W-17517,RIGG ESTATE VINEYARDS LLC,,24542 PALOMARES RD,CASTRO VALLEY,CA,94552,ALAMEDA
CA-W-20192,TWININGVINE LLC,,16851 CULL CANYON RD,CASTRO VALLEY,CA,94552,ALAMEDA
CA-W-2755,"WESTOVERWINERY.COM, INC.",WESTOVER,34329 PALOMARES RD,CASTRO VALLEY,CA,94552,ALAMEDA
CA-W-2794,"CHOUINARD VINEYARDS, INC.",CHOUINARD VINEYARDS,33853 PALOMARES RD,CASTRO VALLEY,CA,94552,ALAMEDA
CA-W-23991,"MISSION PEAK WINE, INC.",MISSION PEAK WINE,8116 MILL CREEK RD,FREMONT,CA,94539,ALAMEDA
CA-W-23850,"HOUSTON FAMILY VINEYARDS, LLC",HOUSTON FAMILY VINEYARDS,1013 B ST,HAYWARD,CA,94541,ALAMEDA
CA-W-15307,SUNOL RIDGE RANCH,,1090 VICTORINE RD,LIVERMORE,CA,94551,ALAMEDA
CA-W-16876,"WGG ENTERPRISES, LLC",NOTTINGHAM CELLARS,NOT PROVIDED,LIVERMORE,CA,94550,ALAMEDA
CA-W-15461,"PAGE MILL WINERY, LLC",PAGE MILL WINERY,1960 S. LIVERMORE AVE,LIVERMORE,CA,94550,ALAMEDA
CA-W-21571,CHATEAU BELLEVUE 1881 ESTATE LLC,CHATEAU BELLEVUE 1881 ESTATE,51 E VALLECITOS RD,LIVERMORE,CA,94550,ALAMEDA
CA-W-22020,"FAVALORA VINEYARDS & WINERY, INC.",,2245 S VASCO RD A,LIVERMORE,CA,94551,ALAMEDA
CA-W-15968,MOHAN RAO RAVULAPATI & SURYA PADMA RAVULAPATI,RYHAN ESTATE VINEYARDS,5385 EAST AVENUE,LIVERMORE,CA,94550,ALAMEDA
CA-W-16656,JACKSON CELLARS,MITCHELL KATZ WINERY,2915 S VASCO,LIVERMORE,CA,94550,ALAMEDA
CA-W-22942,"TENUTA VINEYARDS, LLC",TENUTA VINEYARDS,633 KALTHOFF CMN,LIVERMORE,CA,94550,ALAMEDA
CA-W-3508,"DEL SOL VINEYARDS, LLC",,8626 LUPIN WAY,LIVERMORE,CA,94550,ALAMEDA
CA-W-23669,"BOLES CARRIAGE BLEND, LLC",,2169 BUENA VISTA AVE,LIVERMORE,CA,94550,ALAMEDA
CA-W-16434,KINNEY FAMILY VINTNERS LLC,OCCASIO WINERY,2245 S VASCO ROAD UNIT B,LIVERMORE,CA,94550,ALAMEDA
CA-W-16073,"CUDA RIDGE WINES, LLC",CUDA RIDGE,2400 ARROYO RD,LIVERMORE,CA,94550,ALAMEDA
CA-W-15403,RONALD J. ENOS AND JUDY D. ENOS,ENOS FAMILY VINEYARDS,633 KALTHOFF COMMON,LIVERMORE,CA,94550,ALAMEDA
CA-W-23806,"RAINDROP INVESTMENTS, LLC",RAINDROP,6951 SOUTHFRONT RD,LIVERMORE,CA,94551,ALAMEDA
CA-W-16537,TEJADA VINEYARD COMPANY,,1960 S. LIVERMORE AVE,LIVERMORE,CA,94550,ALAMEDA
CA-W-20500,"MCGRAIL VINEYARDS AND WINERY, LLC",,5600 GREENVILLE RD,LIVERMORE,CA,94550,ALAMEDA
CA-W-2494,"GARRE VINEYARD AND WINERY, INC.",GARRE VINEYARD AND WINERY,7986 TESLA RD,LIVERMORE,CA,94550,ALAMEDA
CA-W-16888,"LAVISH LAINES WINERY, LLC",,2481 BUENA VISTA AVE,LIVERMORE,CA,94550,ALAMEDA
CA-W-16882,"MAIER WINERY, LLC",LAS POSITAS VINEYARDS,1828 WETMORE RD,LIVERMORE,CA,94550,ALAMEDA
CA-W-22055,KJV CELLARS LLC,LEISURE STREET WINERY,,LIVERMORE,CA,94550,ALAMEDA
CA-W-24062,DARCIE KENT WINERY LLC,ALMOST FAMOUS WINE COMPANY,7000 TESLA RD,LIVERMORE,CA,94550,ALAMEDA
CA-W-2006,FENESTRA WINERY,,83 E VALLECITOS RD,LIVERMORE,CA,94550,ALAMEDA
CA-W-2948,RHONDA RENE' WOOD & MICHAEL JAMES WOOD,WOOD FAMILY VINEYARDS,7702 CEDAR MOUNTAIN RD,LIVERMORE,CA,94550,ALAMEDA
CA-W-15842,"LES CHENES ESTATE VINEYARDS, LLC",LES CHENES ESTATE VINEYARDS,5562 VICTORIA LN,LIVERMORE,CA,94550,ALAMEDA
CA-W-23935,PRUETT FARMS LLC,,5385 EAST AVE,LIVERMORE,CA,94550,ALAMEDA
CA-W-21720,HENKELBURY INC,OMEGA ROAD WINERY,2135 S VASCO RD STE C,LIVERMORE,CA,94550,ALAMEDA
CA-W-22061,"HLW WINERY, LLC",HLW WINERY,1960 S LIVERMORE AVE,LIVERMORE,CA,94550,ALAMEDA
CA-W-17144,ROBERT W. & GLORIA R. TAYLOR,RETZLAFF VINEYARDS,1356 S LIVERMORE AVE,LIVERMORE,CA,94550,ALAMEDA
CA-W-22318,"EHRENBERG CELLARS, INC.",,346 EARHART WAY,LIVERMORE,CA,94551,ALAMEDA
CA-W-21167,MONTGOMERY R. PAULSEN,,5143 TESLA RD,LIVERMORE,CA,94550,ALAMEDA
CA-W-15019,"BIG WHITE HOUSE, LLC",BIG WHITE HOUSE WINERY,6800 GREENVILLE RD,LIVERMORE,CA,94550,ALAMEDA
CA-W-23222,OUT FROM LAND INVESTOR GROUP LLC,THE STEVEN KENT WINERY,5565 TESLA RD,LIVERMORE,CA,94550,ALAMEDA
CA-W-21046,BOSS-ROSE CELLARS LLC,,10017 TESLA RD,LIVERMORE,CA,94550,ALAMEDA
CA-W-2768,"CROOKED VINE, INC.",STONY RIDGE WINERY,4948 TESLA RD,LIVERMORE,CA,94550,ALAMEDA
CA-W-3119,GARRY & NANCY RODRIGUE,RODRIGUE MOLYNEAUX WINERY,3053 MARINA AVE,LIVERMORE,CA,94550,ALAMEDA
CA-W-23106,DAVID & LISA BECK,BECK FAMILY VINEYARDS,508 KALTHOFF CMN,LIVERMORE,CA,94550,ALAMEDA
CA-W-16344,"LONGEVITY WINES, INC.",LONGEVITY WINES,2271 S VASCO SUITE B,LIVERMORE,CA,94550,ALAMEDA
CA-W-3240,"QUAIL NEST, LLC",,8195 CRANE RIDGE RD,LIVERMORE,CA,94550,ALAMEDA
CA-W-22941,"EMBODIED WINES, LLC.",EMBODIED WINES,633 KALTHOFF CMN,LIVERMORE,CA,94550,ALAMEDA
CA-W-16499,"FOGGY BRIDGE WINERY, LLC",,5565 TESLA RD,LIVERMORE,CA,94550,ALAMEDA
CA-W-15245,STEVEN JAY POWELL,TESLA VINTNERS,5143 TESLA RD,LIVERMORE,CA,94550,ALAMEDA
CA-W-21250,"3 STEVES WINERY, LLC",,5700 GREENVILLE RD,LIVERMORE,CA,94550,ALAMEDA
CA-W-15693,"RIOS RESERVE ESTATE, LLC",RIOS-LOVELL ESTATE WINERY,6500 TELSA RD,LIVERMORE,CA,94550,ALAMEDA
CA-W-3157,"BOAVENTURA DE CAIRES, INC",BOAVENTURA VINEYARDS,9309 TESLA RD,LIVERMORE,CA,94550,ALAMEDA
CA-W-23746,DEL VALLE WINERY LLC,DEL VALLE WINERY,4948 TESLA RD,LIVERMORE,CA,94550,ALAMEDA
CA-W-15133,"EAGLE RIDGE VINEYARD, LLC",EAGLE RIDGE VINEYARD,10017 TESLA RD,LIVERMORE,CA,94550,ALAMEDA
CA-W-23182,RICIGLIANO LLC,,8626 LUPIN WAY,LIVERMORE,CA,94550,ALAMEDA
CA-W-16989,"CEDAR MOUNTAIN WINERY, INC.",CEDAR MOUNTAIN WINERY,10843 REUSS RD,LIVERMORE,CA,94550,ALAMEDA
CA-W-235,WENTE BROS.,,5565 TESLA RD,LIVERMORE,CA,94550,ALAMEDA
CA-W-21585,"NERO CELLARS, LLC",,633 KALTHOFF CMN,LIVERMORE,CA,94550,ALAMEDA
CA-W-17266,DAN BALDWIN,THE SAN FRANCISCO BAY WINERY,2029 RESEARCH DR,LIVERMORE,CA,94550,ALAMEDA
CA-W-3179,"BENT CREEK WINERY, LLC",BENT CREEK WINERY,5455 GREENVILLE RD,LIVERMORE,CA,94550,ALAMEDA
CA-W-23597,MADISON VINEYARDS INC,MADISON VINEYARDS,3150 REED AVE,LIVERMORE,CA,94550,ALAMEDA
CA-W-21365,CHRIS SORENSEN,CADDIS,7878 CEDAR MOUNTAIN DR UNIT B,LIVERMORE,CA,94550,ALAMEDA
CA-W-22924,MICHAEL JOHN CHALKLEY,ENOTECA FIVE,2111 RESEARCH DRIVE UNIT 6,LIVERMORE,CA,94550,ALAMEDA
CA-W-3299,THE WINE GROUP LLC,CONCANNON VINEYARD,4590 TESLA RD,LIVERMORE,CA,94550,ALAMEDA
CA-W-22837,"FREE RANGE FLOWER WINERY, LLC",FREE RANGE FLOWER WINERY,1448 3RD ST,OAKLAND,CA,94607,ALAMEDA
CA-W-2963,"CASA VINICOLA, INC.",,2311 MAGNOLIA ST,OAKLAND,CA,94607,ALAMEDA
CA-W-22541,"DRAWBRIDGE CELLARS, LLC",DRAWBRIDGE CELLARS,2811A-CHAPMAN ST,OAKLAND,CA,94601,ALAMEDA
CA-W-17813,"DEN SAKE BREWERY, LLC.",DEN SAKE BREWERY,2311 MAGNOLIA ST BLDG. 6,OAKLAND,CA,94607,ALAMEDA
CA-W-2622,HERBERT ANDREA HOUSTON & DEBRITA GEBEGEHU HOUSTON,ENAT WINERY,910 81ST AVE STE S1,OAKLAND,CA,94621,ALAMEDA
CA-W-16203,THOMAS KNIGHT WINES LLC,TWO MILE WINES,477 25TH ST,OAKLAND,CA,94612,ALAMEDA
CA-W-21327,"THE WEST OAKLAND WINE COMPANY, LLC",,2525 ADELINE ST,OAKLAND,CA,94607,ALAMEDA
CA-W-23767,MICHAEL HALEY MCCULLOUGH,OUTIS WINES,2102 DENNISON ST STE A,OAKLAND,CA,94606,ALAMEDA
CA-W-17048,"JOSEPH GARY CELLARS, LLC",JOSEPH GARY CELLARS,621 4TH ST,OAKLAND,CA,94607,ALAMEDA
CA-W-15958,R.H. WINERY LLC,RUBY HILL WINERY,446 VINEYARD AVE,PLEASANTON,CA,94566,ALAMEDA
CA-W-21180,R.H. WINERY LLC,RUBY HILL WINERY,1188 VINEYARD AVE,PLEASANTON,CA,94566,ALAMEDA
CA-W-23567,"BLINDWOOD CIDER COMPANY, LLC",BLINDWOOD CIDER COMPANY,2547 WILLIAMS ST,SAN LEANDRO,CA,94577,ALAMEDA
CA-W-2080,"ELLISTON VINEYARDS, INCORPORATED",,463 KILKARE RD,SUNOL,CA,94586,ALAMEDA
CA-W-21446,"JASON EDWARD CHARLES, LLC",VINCA MINOR WINES,1335 4TH ST,BERKELEY,CA,94710,ALAMEDA COUNTY
CA-W-21856,"ROSA FIERRO WINE COMPANY, LLC",ROSA FIERRO CELLARS,2245 S VASCO RD STE A,LIVERMORE,CA,94551,ALAMEDA COUNTY
CA-W-23214,"LAS POSITAS COLLEGE VITICULTURE & ENOLOGY FOUNDATION, INC.",CAMPUS HILL WINERY,3000 CAMPUS HILL DR UNIT 806,LIVERMORE,CA,94551,ALAMEDA COUNTY
CA-W-22052,COTE WEST LLC,COTE WEST,2102 DENNISON ST STE A,OAKLAND,CA,94606,ALAMEDA COUNTY
CA-W-22006,"BOBCAT'S GRIN, INC.",,1960 S LIVERMORE AVE,LIVERMORE,CA,94550,ALEMEDA
CA-W-23645,BARTOLO LOPEZ-LOPEZ LLC,DIANA WINERY & VINEYARD,22105 LAWRENCE RD,FIDDLETOWN,CA,95629,ALMADOR
CA-W-20157,WINE TREE FARM LLC,,14467 STATE HWY 49,AMADOR CITY,CA,95601,AMADOR
CA-W-21858,BLEND CRAFT WINES INC.,GOLD CREEK VINEYARDS,14467 HIGHWAY 49,AMADOR CITY,CA,95601,AMADOR
CA-W-20158,"FEIST WINES, LLC",,14467 STATE HIGHWAY 49,AMADOR CITY,CA,95601,AMADOR
CA-W-2911,ALLEN F. AND SUZANNE D'ALO KREUTZER,DRYTOWN CELLARS,16030 HIGHWAY 49,DRYTOWN,CA,95699,AMADOR
CA-W-16577,RENO G. FARINELLI AND JOSEF H. SHEBL,FIDDLETOWN CELLARS,19580 AMERICAN FLAT SIDE RD,FIDDLETOWN,CA,95629,AMADOR
CA-W-23551,"MALONE FAMILY VINEYARDS, LLC",PLEINAR VINEYARDS,21090 OSTROM RD,FIDDLETOWN,CA,95629,AMADOR
CA-W-20017,"MORSE WINES, LLC",MORSE WINES,22355 LAWRENCE RD,FIDDLETOWN,CA,95629,AMADOR
CA-W-23881,"RUBIDOUX RIDGE VINEYARD, LLC",RUBIDOUX RIDGE VINEYARD,15000 TYLER RD,FIDDLETOWN,CA,95629,AMADOR
CA-W-16815,"HELWIG TASTING ROOM, LLC",DAVANCY WINERY,21220 OSTROM RD,FIDDLETOWN,CA,95629,AMADOR
CA-W-22077,BINZ WINES LLC,BINZ WINES,20251 VINEYARD LN,FIDDLETOWN,CA,95629,AMADOR
CA-W-17659,GREGORY BLAINE LYMAN,CALABRIA VINEYARDS,18860 AMERICAN FLAT RD,FIDDLETOWN,CA,95629,AMADOR
CA-W-16854,"AUGUST LEGENDRE CELLARS, LLC",,16953 MARY LN,FIDDLETOWN,CA,95629,AMADOR
CA-W-17007,"GAISER VINEYARDS, INC",DISTANT CELLARS,21390 OLSTROM RD,FIDDLETOWN,CA,95629,AMADOR
CA-W-23312,SOUTH SLOPE WINES,,22355 LAWRENCE RD,FIDDLETOWN,CA,95629,AMADOR
CA-W-2527,"RENWOOD WINERY, INC.",RENWOOD WINERY,4581 BUENA VISTA RD,IONE,CA,95640,AMADOR
CA-W-2223,REPUBLIC WINE COMPANY,GREENSTONE WINERY,3151 HIGHWAY 88,IONE,CA,95640,AMADOR
CA-W-15736,ANDREW TANIS,TANIS VINEYARDS,13120 WILLOW CREEK RD,IONE,CA,95640,AMADOR
CA-W-1572,HENRY W. & WILMA S. GONZALEZ,FIDDLE FARM,6576 JACKSON VALLEY RD,IONE,CA,95640,AMADOR
CA-W-3197,"MCMASTER WINE GROUP, INC.",ARGONAUT WINERY,13825 WILLOW CREEK RD,IONE,CA,95640,AMADOR
CA-W-16335,"MATTHEW GIBSON WINERY, LLC",MATTHEW GIBSON WINERY,6110 MARTIN LN,IONE,CA,95640,AMADOR
CA-W-22759,ROBERT HOLGATE,HOLGATE HILL,18055 CLIMAX RD,JACKSON,CA,95642,AMADOR
CA-W-22755,BOGGS MARKET FARM LLC,TABEAUX CELLARS,10201 TABEAUD RD,JACKSON,CA,95642,AMADOR
CA-W-22609,LITTLE JOHN LANE LLC,LITTLE JOHN LANE,25330 LITTLE JOHN LANE,PIONEER,CA,95666,AMADOR
CA-W-15201,"WILDEROTTER WINERY, LLC",WILDEROTTER WINERY,19890 SHENANDOAH SCHOOL RD,PLYMOUTH,CA,95669,AMADOR
CA-W-16627,"COURAGEOUS, INC.",SERA FINA CELLARS,17000 LATROBE RD,PLYMOUTH,CA,95669,AMADOR
CA-W-15122,"COOPER VINEYARDS, LLC",,21365 SHENANDOAH SCHOOL RD,PLYMOUTH,CA,95669,AMADOR
CA-W-21875,PAUL SCHMITZ,SCHMITZ WINES,17585 STATE 49 HWY,PLYMOUTH,CA,95669,AMADOR
CA-W-23357,LINSTEADT FAMILY WINERY LLC,LINSTEADT FAMILY WINERY,23200 UPTON RD,PLYMOUTH,CA,95669,AMADOR
CA-W-17692,CHARLES SPINETTA WINERY LLC,CHARLES SPINETTA WINERY,12557 STEINER RD,PLYMOUTH,CA,95669,AMADOR
CA-W-17322,"ANDIS WINES, LLC",,11000 SHENANDOAH RD,PLYMOUTH,CA,95669,AMADOR
CA-W-23907,"SIX BLOCKS WINERY, INC.",SIX BLOCKS WINERY,14920 MULLER RD,PLYMOUTH,CA,95669,AMADOR
CA-W-21109,"TURLEY WINE CELLARS, INC.",,11076 BELL RD,PLYMOUTH,CA,95669,AMADOR
CA-W-15084,STEPHEN AND JAMIE CONCANNON,CONVERGENCE VINEYARDS,14650 HWY 124,PLYMOUTH,CA,95669,AMADOR
CA-W-23244,"CMV, LLC",CASINO MINE RANCH,13908 SHENANDOAH RD,PLYMOUTH,CA,95669,AMADOR
CA-W-17167,CHARLES VENNELL HAVILL AND MICHAEL JESSICA KRAFT,BELLAGRACE VINEYARDS,22715 UPTON RD,PLYMOUTH,CA,95669,AMADOR
CA-W-17638,NATHANIEL JOSIAH REUTER,ARDAVEN WINERY,15315 WILLOW CREEK RD,PLYMOUTH,CA,95669,AMADOR
CA-W-863,SIERRA SUNRISE VINEYARDS,MONTEVINA WINERY,20680 SHENANDOAH SCHOOL RD,PLYMOUTH,CA,95669,AMADOR
CA-W-22928,BELLEDOR VINEYARDS LLC,BELLEDOR VINEYARDS,13391 SHENANDOAH RD,PLYMOUTH,CA,95669,AMADOR
CA-W-17363,TKC VINEYARDS LLC,TKC VINEYARDS,11001 VALLEY DR,PLYMOUTH,CA,95669,AMADOR
CA-W-17114,SOBON WINE COMPANY LLC,SHENANDOAH VINEYARDS,12300 STEINER RD,PLYMOUTH,CA,95669,AMADOR
CA-W-23958,KARMERE VINEYARDS & WINERY LLC,,11970 SHENANDOAH RD,PLYMOUTH,CA,95669,AMADOR
CA-W-2064,WILLIAM GEORGE EASTON JR. AND JANE LOUISE RIORDAN,DOMAINE DE LA TERRE ROUGE,10801 DICKSON RD,PLYMOUTH,CA,95669,AMADOR
CA-W-21826,"PROSPECT CELLARS, LLC",,11011 SHENANDOAH RD,PLYMOUTH,CA,95669,AMADOR
CA-W-17135,"JEFF RUNQUIST WINES, INC.",JEFF RUNQUIST WINES,10776 SHENANDOAH RD,PLYMOUTH,CA,95669,AMADOR
CA-W-22835,OVERLOOK WINERY LLC,OVERLOOK WINERY,5530 OVERLOOK CT,PLYMOUTH,CA,95669,AMADOR
CA-W-20164,"BAIOCCHI FAMILY VINEYARDS, LLC",BAIOCCHI WINERY,11000 SHENANDOAH RD,PLYMOUTH,CA,95669,AMADOR
CA-W-15038,"STONEHOUSE VINEYARDS & WINERY, LLC",STONEHOUSE VINEYARDS & WINERY,10861 SHENANDOAH RD,PLYMOUTH,CA,95669,AMADOR
CA-W-3428,LAWRENCE C. LONG,AMADOR CELLARS,11093 SHENANDOAH RD,PLYMOUTH,CA,95669,AMADOR
CA-W-15988,"C.G. DI ARIE VINEYARD & WINERY, LLC",C.G. DI ARIE VINEYARD & WINERY,19919 SHENANDOAH SCHOOL RD,PLYMOUTH,CA,95669,AMADOR
CA-W-21748,ANN AINSLEY THOMAS LLC,AMADOR FOOTHILL WINERY,12500 STEINER RD,PLYMOUTH,CA,95669,AMADOR
CA-W-23955,DILLIAN WINES LLC,DILLIAN WINES,12138 STEINER RD,PLYMOUTH,CA,95669,AMADOR
CA-W-17531,"HELWIG TASTING ROOM, LLC",HELWIG VINEYARDS & WINERY,11555 SHENANDOAH RD,PLYMOUTH,CA,95669,AMADOR
CA-W-22579,LEONI FARMS,,9511 MAIN ST,PLYMOUTH,CA,95669,AMADOR
CA-W-15470,"DOBRA ZEMLJA WINERY, INC.",DOBRA ZEMLJA,12505 STEINER RD,PLYMOUTH,CA,95669,AMADOR
CA-W-1721,"SHENANDOAH INVESTMENT PROPERTIES, INC.",SHENANDOAH INVESTMENT PROPERTIES,12455 STEINER RD,PLYMOUTH,CA,95669,AMADOR
CA-W-15478,"VILLA TOSCANO, INC.",VILLA TOSCANO,10600 SHENANDOAH RD,PLYMOUTH,CA,95669,AMADOR
CA-W-17556,"ROMBAUER VINEYARDS, INC.",ROMBAUER VINEYARDS,12225 STEINER RD,PLYMOUTH,CA,95669,AMADOR
CA-W-15961,"CINKO VINEYARDS, INC.",CINKO VINEYARDS,12595 STEINER RD,PLYMOUTH,CA,95669,AMADOR
CA-W-21002,ESTEY FAMILY VINEYARD INC.,,21271 LATROBE ROAD,PLYMOUTH,CA,95669,AMADOR
CA-W-21296,"TURLEY WINE CELLARS, INC.",TURLEY WINE CELLARS,10851 SHENANDOAH RD,PLYMOUTH,CA,95669,AMADOR
CA-W-2659,JAMES MAYO & SUZANNE GENE GULLETT,VINO NOCETO,10901 SHENANDOAH RD,PLYMOUTH,CA,95669,AMADOR
CA-W-22312,LA MESA VINEYARDS LLC,LA MESA VINEYARDS,13200 SHENANDOAH ROAD,PLYMOUTH,CA,95669,AMADOR
CA-W-22921,"DI STASIO VINEYARDS AND WINES, LLC",DI STASIO VINEYARDS AND WINES,10788 SHENANDOAH RD,PLYMOUTH,CA,95669,AMADOR
CA-W-23640,STRIDE WINES LLC,STRIDE WINES,22715 UPTON RD,PLYMOUTH,CA,95669,AMADOR
CA-W-21363,"YOUNG'S VINEYARD & WINERY, LLC",,10120 SHENANDOAH RD,PLYMOUTH,CA,95669,AMADOR
CA-W-16356,ISCANDER JESUS BORJON,BORJON WINERY,11270 SHENANDOAH RD,PLYMOUTH,CA,95669,AMADOR
CA-W-3426,OLIVER W. AND ROBIN P. BRAY,BRAY VINEYARDS,10590 SHENANDOAH RD,PLYMOUTH,CA,95669,AMADOR
CA-W-17769,SLO 2 20 LLC,SLO 2 20 VINEYARD,19955 SHANANDOAH SCHOOL RD,PLYMOUTH,CA,95669,AMADOR
CA-W-15214,WILLIAM S AND LISA WATSON,,14520 RIDGE RD,SUTTER CREEK,CA,95685,AMADOR
CA-W-2129,"SUTTER RIDGE VINEYARDS, LP, JOHN L. BREE, (GENERAL PARTNER)",SUTTER RIDGE VINEYARDS,14110 RIDGE RD,SUTTER CREEK,CA,95685,AMADOR
CA-W-16557,DAVID SCOTT KEITH AND ROXANNE L. KEITH,SIERRA VIEW WINERY,15160 SIERRA VIEW LN,SUTTER CREEK,CA,95685,AMADOR
CA-W-21568,MEIKLE FAMILY VINEYARDS LLC,,19001 PONDEROSA WAY,VOLCANO,CA,95689,AMADOR
CA-W-21994,J & M FENAUX WINES LLC,,22460 BARONE RD,VOLCANO,CA,95689,AMADOR
CA-W-20209,"BIANCHINI CELLARS, LLC",BIANCHINI CELLARS,18590 PONDEROSA HILLS RD,VOLCANO,CA,95689,AMADOR
CA-W-21922,"CREATIVE WINE CONCEPTS, INC.",SCOTT HARVEY WINES,10861 SHENANDOAH RD,PLYMOUTH,CA,95669,AMADOR COUNTY
CA-W-22752,BANGOR RANCH LLC,BANGOR RANCH VINEYARD AND WINERY,5768 LA PORTE RD,BANGOR,CA,95914,BUTTE
CA-W-21529,MARY LEE SPENCER AND KIMBALL JOHN SHIREY,SPENCER-SHIREY WINES,6857 LA PORTE RD,BANGOR,CA,95914,BUTTE
CA-W-16858,TOD AND ALYSE HICKMAN,HICKMAN FAMILY VINEYARDS,77 ORANGE AVE,BANGOR,CA,95914,BUTTE
CA-W-20548,THOMAS A. CHASE,STRAW HOUSE CELLARS,4378 MYVALLI DR,BUTTE VALLEY,CA,95965,BUTTE
CA-W-16226,RICK W SORENSON & PAMELA F.W. SORENSON,WILD OAK VINEYARD AND WINERY,630 OASIS DR,CHICO,CA,95973,BUTTE
CA-W-23107,SIERRA NEVADA BREWING CO.,,1075 EAST 20TH ST,CHICO,CA,95928,BUTTE
CA-W-15739,CAROLINA BERTAGNA,BERTAGNA SON KISSED VINEYARD,3363 HEGAN LN,CHICO,CA,95928,BUTTE
CA-W-22327,LASSEN TRADITIONAL CIDER LLC,LASSEN TRADITIONAL CIDER,26 BELLARMINE CT,CHICO,CA,95928,BUTTE
CA-W-16255,JOHN U RONEY,RONEY WINES,5900 ANITA RD,CHICO,CA,95973,BUTTE
CA-W-22848,CELLAR DOOR CIDER,,11 COMMERCE CT STE 2,CHICO,CA,95928,BUTTE
CA-W-17218,STEPHEN J. SCHUSTER,EMERALD C VINEYARDS,3746 KEEFER RD,CHICO,CA,95973,BUTTE
CA-W-1659,NORMAN L. & JANICE P. ROSENE,ODYSSEY WINERY & VINEYARDS,6237 COHASSET RD,CHICO,CA,95973,BUTTE
CA-W-21621,VANESSA & JESS PITNEY,NESSER? VINEYARDS,3471 DURHAM DAYTON HWY,CHICO,CA,95928,BUTTE
CA-W-16346,STEPHEN AND LUCREASIA GALE,GALE VINEYARDS,9345 STANFORD LN A,DURHAM,CA,95938,BUTTE
CA-W-17474,NEAL CLINE,CLINE ORGANICS,9975 GARDEN CREEK RD,DURHAM,CA,95938,BUTTE
CA-W-1875,PHILIP LAROCCA,LAROCCA VINEYARDS,FOREST RANCH P.O.TURN E.ONTO HWY 32 DRIV,FOREST RANCH,CA,95942,BUTTE
CA-W-15392,SUNG JA CHOI,,51 NUGGET RANCH RD,OROVILLE,CA,95966,BUTTE
CA-W-2884,LONG CREEK WINERY LLC,LONG CREEK WINERY,323 WARD BLVD,OROVILLE,CA,95966,BUTTE
CA-W-21319,"PURPLE LINE URBAN WINERY, LLC",,760 SAFFORD ST,OROVILLE,CA,95965,BUTTE
CA-W-22417,SUSAN SMITH,LIVE VINE,652 LUDS WAY,OROVILLE,CA,95965,BUTTE
CA-W-2341,"ARRIGONI & CECCHI ENTERPRISES, LLC",GREY FOX VINEYARDS,114 GREY FOX LN,OROVILLE,CA,95966,BUTTE
CA-W-21576,"LONE MADRONE, A CALIFORNIA CORPORATION",BRISTOL'S CIDER HOUSE,3220 EL CAMINO REAL,ATASCADERO,CA,93422,CA
CA-W-22939,JENNIFER M BARRETT,YUBA FOOTHILL VINEYARDS,9500 SICARD FLAT RD,BROWNS VALLEY,CA,95918,CA
CA-W-22237,"CULTON, TERRY MICHAEL & DUGAN, KATHLEEN SIMONE",CULTON WINE COMPANY,480 MARQUITA AVE UNIT A,PASO ROBLES,CA,93446,CA
CA-W-21470,"MONTAGU WINES, LLC",MONTAGU WINES,3125 SAINT HELENA HWY N,SAINT HELENA,CA,94574,CA
CA-W-22155,GUTHRIE CIDERWORKS LLC,GUTHRIE CIDERWORKS,6496 MARINDUSTRY PL STE D,SAN DIEGO,CA,92121,CA
CA-W-22227,WELLPLACED INC,ETHIC CIDERS,8490 OCCIDENTAL RD,SEBASTOPOL,CA,95472,CA
CA-W-17726,IOTO VIP VENTURES LLC,MORAVA WINES,1209 HIGHWAY 49 NORTH,ANGELS CAMP,CA,95222,CALAVERAS
CA-W-21190,"CHEROKEE CREEK WINES, LLC",CHEROKEE CREEK WINES,769 DOGTOWN RD,ANGELS CAMP,CA,95222,CALAVERAS
CA-W-17193,"PROSPECT 772 WINE COMPANY, INC.",PROSPECT 772 WINE COMPANY,772 APPALOOSA WAY,ANGELS CAMP,CA,95222,CALAVERAS
CA-W-15960,"CHIARELLA WINES, L.L.C.",CHIARELLA WINES,3136 MEACHAM RANCH RD,ANGELS CAMP,CA,95222,CALAVERAS
CA-W-22760,"TANNER VINEYARD COMPANY, INC.",,769 DOGTOWN RD,ANGELS CAMP,CA,95222,CALAVERAS
CA-W-17194,"FROG'S TOOTH WINERY, LLC",FROG'S TOOTH WINERY,2797 HUNT RD,COPPEROPOLIS,CA,95228,CALAVERAS
CA-W-23403,CARLA RAE AND SAMUEL JAMES TRAVAILLE,,90 ROCK CREEK RD UNIT 9,COPPEROPOLIS,CA,95228,CALAVERAS
CA-W-3361,MILLER WINE WORKS LLC,MILLER WINE WORKS,90 ROCK CREEK RD UNIT 9,COPPEROPOLIS,CA,95228,CALAVERAS
CA-W-23337,MGWINO HOLDING LLC,MGWINO HOLDING,90 ROCK CREEK RD UNIT 9,COPPEROPOLIS,CA,95228,CALAVERAS
CA-W-23631,BONICK FAMILY FARM LLC,,90 ROCK CREEK RD UNIT 9,COPPEROPOLIS,CA,95228,CALAVERAS
CA-W-23780,THE NORTHEAST WINE COMPANY LLC,,90 ROCK CREEK RD UNIT 9,COPPEROPOLIS,CA,95228,CALAVERAS
CA-W-22519,"GREAT AUSTRALIAN WINE COMPANY, INC.",,90 ROCK CREEK RD UNIT 9,COPPEROPOLIS,CA,95228,CALAVERAS
CA-W-21788,SEGASSIA VINEYARDS LLC,,90 ROCK CREEK RD UNIT 9,COPPEROPOLIS,CA,95228,CALAVERAS
CA-W-15948,"MOLLYDOOKER INTERNATIONAL, LLC",MOLLYDOOKER,90 ROCK CREEK RD UNIT 9,COPPEROPOLIS,CA,95228,CALAVERAS
CA-W-16088,"LAVENDER RIDGE VINEYARD, INC.",LAVENDER RIDGE VINEYARD,3030 HUNT RD,COPPEROPOLIS,CA,95228,CALAVERAS
CA-W-22391,"WINE AWESOMENESS, LLC",,90 ROCK CREEK RD UNIT 9,COPPEROPOLIS,CA,95228,CALAVERAS
CA-W-17289,RYAN DAVID TEETER AND SARA REED TEETER,LA FOLIA WINERY,90 ROCK CREEK RD UNIT #2,COPPEROPOLIS,CA,95228,CALAVERAS
CA-W-21779,POGGI WINES LLC,,90 ROCK CREEK RD UNIT 9,COPPEROPOLIS,CA,95228,CALAVERAS
CA-W-21700,"VINO METATE, INC.",,90 ROCK CREEK RD UNIT 2,COPPEROPOLIS,CA,95228,CALAVERAS
CA-W-22145,"WINE TO GRAPES, LLC",CHATOM WINERY,1969 HIGHWAY 4,DOUGLAS FLAT,CA,95229,CALAVERAS
CA-W-3450,HATCHER WINERY LLC,HATCHER WINERY,1969 HIGHWAY 4,DOUGLAS FLAT,CA,95229,CALAVERAS
CA-W-21629,KEVIN BRANDON LOCKE,LOCKE VINEYARDS,1969 HIGHWAY 4,DOUGLAS FLAT,CA,95229,CALAVERAS
CA-W-23060,"NEWSOME-HARLOW WINERY, LLC",TEN BY TEN,1969 HIGHWAY 4,DOUGLAS FLAT,CA,95229,CALAVERAS
CA-W-17618,MARK A. AND TERRY SUE RUEGER,RENEGADE WINERY,8032 S MAIN ST,MOKELUMNE HILL,CA,95245,CALAVERAS
CA-W-21467,LORI J ELDRIDGE,,10456 S SPORT HILL RD,MOKELUMNE HILL,CA,94542,CALAVERAS
CA-W-23303,CSN-LLC,PRINDLE HOUSE CELLARS,8560 E CENTER ST,MOKELUMNE HILL,CA,95245,CALAVERAS
CA-W-16104,"BODEGA DEL SUR WINERY, INC.",BODEGA DEL SUR,7501 SHEEP RANCH RD,MOUNTAIN RANCH,CA,95246,CALAVERAS
CA-W-24074,IRISH VINEYARDS,IRISH VINEYARDS,9197 GREEN RANCH RD,MOUNTAIN RANCH,CA,95246,CALAVERAS
CA-W-16366,"BEAUX CHEVAUX, LLC",BEAUX CHEVAUX,8129 PONDEROSA WAY,MOUNTAIN RANCH,CA,95246,CALAVERAS
CA-W-16297,"VAL DU VINO WINERY, INC",VAL DU VINO WINERY,634 FRENCH GULCH RD,MURPHYS,CA,95247,CALAVERAS
CA-W-17329,"JAZZ CELLARS, LLC",JAZZ CELLARS,97 EMERALD CREEK DR,MURPHYS,CA,95247,CALAVERAS
CA-W-1715,"KAUTZ VINEYARDS, INC.",IRONSTONE VINEYARDS,1894 SIX MILE RD,MURPHYS,CA,95247,CALAVERAS
CA-W-15106,"INDIAN ROCK VINEYARDS, LLC",,1154 PENNSYLVANIA GULCH RD,MURPHYS,CA,95247,CALAVERAS
CA-W-15228,"BRICE STATION VINTNERS, LLC",,3353 E HIGHWAY 4,MURPHYS,CA,95247,CALAVERAS
CA-W-15430,"NEWSOME-HARLOW WINERY, LLC",NEWSOME-HARLOW WINERY,97 EMERALD CREEK DR,MURPHYS,CA,95247,CALAVERAS
CA-W-20585,"HOVEY WINERY, LLC",,97 EMERALD CREEK DR,MURPHYS,CA,95247,CALAVERAS
CA-W-22616,"MATTHEW RORICK WINES, INC.",MATTHEW RORICK WINES,2690 SAN DOMINGO RD,MURPHYS,CA,95247,CALAVERAS
CA-W-22388,"RAQUEL 1331, LLC",,397 MAIN ST,MURPHYS,CA,95427,CALAVERAS
CA-W-16013,"TANGLEWOOD ENTERPRISES, INC.",MILLIAIRE CELLARS,3468 MURPHYS GRADE RD SUITE A,MURPHYS,CA,95247,CALAVERAS
CA-W-16201,"TANGLEWOOD ENTERPRISES, INC.",BLACK SHEEP VINTNERS,3468 MURPHYS GRADE RD SUITE B,MURPHYS,CA,95247,CALAVERAS
CA-W-23429,BOOKSHELF WINES LLC,,6020 GALLAGHER RD,PILOT HILL,CA,95664,CALAVERAS
CA-W-3152,JOSEPH & ANNA GATES,CATANO WINERY,2861 MURRAY RIDGE RD,SAN ANDREAS,CA,95249,CALAVERAS
CA-W-22626,RICHARD J LAZZERI AND LILLIAN A LAZZERI,LAZZERI FAMILY VINEYARDS,5599 DEL SOL LN,SAN ANDREAS,CA,95249,CALAVERAS
CA-W-21567,"CALAVERAS CREEK WINERY, LLC",,300 STAR CANYON TRL,SHEEP RANCH,CA,95250,CALAVERAS
CA-W-2996,"STAR CANYON, LLC",CALAVERAS CREEK WINERY,300 STAR CANYON TRL,SHEEP RANCH,CA,94702,CALAVERAS
CA-W-21929,GREGORY MARK MCCARTHY,,300 STAR CANYON TRL,SHEEP RANCH,CA,95250,CALAVERAS
CA-W-23206,"ALORIA VINEYARDS, LLC",RENNER WINERY,8055 AIROLA RD,VALLECITO,CA,95241,CALAVERAS
CA-W-17004,"OLIVETO DISTRIBUTING COMPANY, INC.","OLIVETO DISTRIBUTING COMPANY, INC.",2849 HIGHWAY 4,VALLECITO,CA,95251,CALAVERAS
CA-W-23563,JUE FAMILY WINERY,,1969 HIGHWAY 4,VALLECITO,CA,95251,CALAVERAS
CA-W-15150,"LAVENDER RIDGE VINEYARD, INC.",LAVENDER RIDGE VINEYARD,3210 MAIN ST,VALLECITO,CA,95251,CALAVERAS
CA-W-21548,"BUNTING WINERY & VINEYARDS, LLC",,3210 MAIN ST STE A,VALLECITO,CA,95251,CALAVERAS
CA-W-3062,"TANNER VINEYARDS COMPANY, INC.",TANNER VINEYARDS & WINERY,3856 W HIGHWAY 4,VALLECITO,CA,95251,CALAVERAS
CA-W-17226,"VILLA VALLECITO VINEYARDS, INC.",VILLA VALLECITO VINEYARDS,8330 AIROLA RD,VALLECITO,CA,95251,CALAVERAS
CA-W-3399,"TWISTED OAK WINERY, LLC",TWISTED OAK WINERY,4280 RED HILL RD,VALLECITO,CA,95251,CALAVERAS
CA-W-21706,"ZUCCA MOUNTAIN VINEYARDS, LLC",,7830 AIROLA RD,VALLECITO,CA,95251,CALAVERAS
CA-W-3185,IRISH VINEYARDS,,2849 HIGHWAY 4,VALLECITO,CA,95251,CALAVERAS
CA-W-2686,"DOMAINE BECQUET, LLC",DOMAINE BECQUET,2173 E HIGHWAY 12,VALLEY SPRINGS,CA,95252,CALAVERAS
CA-W-15343,"MOKELUMNE HILL, LLC",,5369 PALOMA RD,VALLEY SPRINGS,CA,95252,CALAVERAS
CA-W-15792,SAMUEL G. HERNANDEZ,WALTON'S MOUNTAIN WINERY & VINEYARD,383 BALD MOUNTAIN RD,WEST POINT,CA,95255,CALAVERAS
CA-W-22190,"ERIC JOHNSON WINES, LLC",,3031 LOPEZ DR,ARROYO GRANDE,CA,93420,CALIFORNIA
CA-W-22126,"KNIGHTS BRIDGE WINERY, LLC",,1170 TUBBS LN,CALISTOGA,CA,94515,CALIFORNIA
CA-W-22545,KANDARIAN WINE CELLARS LLC,,2545 NAPA VALLEY CORPORATE DR STE C,NAPA,CA,94558,CALIFORNIA
CA-W-22302,"BE LOVE FARM, LLC",,7071 BUCKTOWN LN,VACAVILLE,CA,95688,CALIFORNIA
CA-W-21136,"TAP WINE SYSTEMS, INC.",,300 STAR CANYON TRAIL,SHEEP RANCH,CA,95250,CALVARAS
CA-W-23371,"KELLOGG CREEK ASSOCIATES, LLC",NUNN FAMILY VINEYARDS,830 SUNSET RD BLDG,BRENTWOOD,CA,94513,CONTRA COSTA
CA-W-23715,SERENDIPITY CELLARS LLC,,1600 CHESTNUT ST,BRENTWOOD,CA,94513,CONTRA COSTA
CA-W-23247,MCCAULEY ESTATE VINEYARDS LLC,,2525 SUNSET RD,BRENTWOOD,CA,94513,CONTRA COSTA
CA-W-21985,PETERSEN VINEYARDS LLC,,7901 DEER VALLEY RD,BRENTWOOD,CA,94513,CONTRA COSTA
CA-W-23854,JANET HAVERLAND,FOX HAVEN RANCH,3458 BYER RD UNIT,BYRON,CA,94514,CONTRA COSTA
CA-W-17184,"DEPARTMENT C WINES, LLC",DEPARTMENT C WINES,975 DETROIT AVE STE B,CONCORD,CA,94518,CONTRA COSTA
CA-W-16110,OLIN J. SCHULTZ,OLIN WINES,975 DETROIT AVE STE B,CONCORD,CA,94518,CONTRA COSTA
CA-W-20001,GREGORY S. & PAULA F. WILLIAMS,EDEN PLAINS VINEYARDS,2470 EDEN PLAINS RD,KNIGHTSEN,CA,94548,CONTRA COSTA
CA-W-23688,WILLIAM J. ENGLISH,MEADOW VIEW WINERY,3393 & 3395 MOUNT DIABLO BLVD,LAFAYETTE,CA,94549,CONTRA COSTA
CA-W-23689,"THAL VINEYARDS, LLC","THAL VINEYARDS, LLC",3393 & 3395 MOUNT. DIABLO BLVD,LAFAYETTE,CA,94549,CONTRA COSTA
CA-W-22814,DANIEL HOWSEPIAN,RAISIN D'ETRE,3345 HERMOSA WAY,LAFAYETTE,CA,94549,CONTRA COSTA
CA-W-23910,DEER HILL VINEYARDS INCORPORATED,DEER HILL VINEYARDS,6 LOIS LN,LAFAYETTE,CA,94549,CONTRA COSTA
CA-W-17778,STEPHEN J. WELCH,WILLIAM WELCH WINES,1830 FRANKLIN CANYON RD,MARTINEZ,CA,94553,CONTRA COSTA
CA-W-17749,"BHACHU VINEYARDS, LLC",,5272 ALHAMBRA VALLEY RD,MARTINEZ,CA,94553,CONTRA COSTA
CA-W-23040,BALESTRIERI FAMILY FARM LLC,BALESTRIERI FAMILY FARM,6140 ALHAMBRA VALLEY ROAD UNIT B,MARTINEZ,CA,94553,CONTRA COSTA
CA-W-16573,"CLIMBING MONKEY'S, LLC",CLIMBING MONKEY'S WINERY,4950 JOHN MUIR RD,MARTINEZ,CA,94553,CONTRA COSTA
CA-W-2235,150 MORELLO AVENUE LIMITED PARTNERSHIP,CONRAD VIANO WINERY,150 MORELLO AVE,MARTINEZ,CA,94553,CONTRA COSTA
CA-W-15407,PARKMON VINEYARDS LLC,PARKMON VINEYARDS,55 LAIRD DR,MORAGA,CA,94556,CONTRA COSTA
CA-W-20419,ANTHONY DEVENUTA,,35 HANSON CT,MORAGA,CA,94556,CONTRA COSTA
CA-W-16727,"CAPTAIN VINEYARDS, LLC",CAPTAIN VINEYARDS,1969 JOSEPH DR,MORAGA,CA,94556,CONTRA COSTA
CA-W-17357,ANTHONY JOHN INZERILLO,VINCENZA RANCH & VINEYARD,500 RHEEM BLVD,MORAGA,CA,94556,CONTRA COSTA
CA-W-22303,SCOTT SAMPSON,CINQUE CAPRE VINEYARDS,500 RHEEM BLVD,MORAGA,CA,94556,CONTRA COSTA
CA-W-16928,"WEDL WINE CELLARS, LLC",,400 TATE LN,OAKLEY,CA,94561,CONTRA COSTA
CA-W-22710,DANIEL & YVONNE DUARTE,DUARTE ESTATES WINERY,1459 KAY AVE,OAKLEY,CA,94561,CONTRA COSTA
CA-W-21771,WILLIAM J. ENGLISH,MEADOW VIEW WINERY,81 MEADOW VIEW RD,ORINDA,CA,94563,CONTRA COSTA
CA-W-23287,WILLIAM E. PENCE,,25 TARABROOK DR,ORINDA,CA,94563,CONTRA COSTA
CA-W-21663,LES LUNES WINE LLC,LES LUNES WINE,13 CASCADE LN,ORINDA,CA,94563,CONTRA COSTA
CA-W-23621,THOMAS BROTHERS HARD CIDER COMPANY LLC,,1325 CANAL BLVD,RICHMOND,CA,94804,CONTRA COSTA
CA-W-22712,PRIMA MATERIA LLC,PRIMA MATERIA,1325 CANAL BLVD,RICHMOND,CA,94804,CONTRA COSTA
CA-W-21339,NOEL DIAZ & BARRIE QUAN,PURITY WINE,1401 MARINA WAY S STE 280,RICHMOND,CA,94804,CONTRA COSTA
CA-W-23786,MEGAN SEKERMESTROVICH,LULA,1401 MARINA WAY S STE 280,RICHMOND,CA,94804,CONTRA COSTA
CA-W-15349,"CDK WINES, LLC",CARICA WINES,1325 CANAL BLVD,RICHMOND,CA,94804,CONTRA COSTA
CA-W-23971,BOOKER THOMAS RILEY,EVERYTHING IS OKAY,1401 MARINA WAY S UNIT 280,RICHMOND,CA,94804,CONTRA COSTA
CA-W-23329,DIEGO LUIS PEREZ & GEORGIA HELEN STAPLES,ZUMO WINE,1401 MARINA WAY S STE 280,RICHMOND,CA,94048,CONTRA COSTA
CA-W-16889,R & B CELLARS INC.,,1325 CANAL BLVD,RICHMOND,CA,94804,CONTRA COSTA
CA-W-22219,FAR WEST CIDER LLC,,1325 CANAL BLVD,RICHMOND,CA,94804,CONTRA COSTA
CA-W-21936,RIGGERS LOFT WINE COMPANY,,1325 CANAL BLVD,RICHMOND,CA,94804,CONTRA COSTA
CA-W-23810,"THE WACHIRA GROUP, LLC",,1325 CANAL BLVD,RICHMOND,CA,94804,CONTRA COSTA
CA-W-21249,FOUR FOOLS WINERY LLC,FOUR FOOLS WINERY,13 MARINA,RODEO,CA,94572,CONTRA COSTA
CA-W-15539,"SHADOWBROOK WINERY, LLC",SHADOWBROOK WINERY,1 MERITAGE LN,WALNUT CREEK,CA,94598,CONTRA COSTA
CA-W-23560,"BONNEAU WINERY, LLC",BONNEAU WINERY,1 MERITAGE LN,WALNUT CREEK,CA,94598,CONTRA COSTA
CA-W-21815,"CALI CRAFT BREWERY, INC.",CALICRAFT BREWING CO.,2700 MICTCHELL DR BLDG B,WALNUT CREEK,CA,94598,CONTRA COSTA
CA-W-23476,"BK WINES, LLC",,2295 TILTON LN,BRENTWOOD,CA,94513,CONTRA COSTA COUNTY
CA-W-17138,RANCHO OLIVO VINEYARDS LLC,NELLO OLIVO WINES,4331 RANCHO RD,CAMERON PARK,CA,95682,EL DORADO
CA-W-3258,THOMAS O. BROWN,,2875 LARSEN DR,CAMINO,CA,95709,EL DORADO
CA-W-16256,"GARNET SUN, LLC",BEEMERS WINERY,3500 CARSON RD,CAMINO,CA,95709,EL DORADO
CA-W-23511,DELFINO FARMS LLC,EDIO VINEYARDS,3205 N CANYON RD,CAMINO,CA,95709,EL DORADO
CA-W-15208,FINDLETON ESTATE & WINERY IRREVOCABLE TRUST,FINDLETON ESTATE AND VINEYARD,3500 CARSON RD,CAMINO,CA,95709,EL DORADO
CA-W-21483,SAN MICHELE-AUBURN LLC,HONEY BEAR RANCH WINERY,2826 BARKLEY RD,CAMINO,CA,95709,EL DORADO
CA-W-2896,ALBERT J. DIVITTORIO AND SALLY DIVITTORIO,DI VITTORIO WINERY,3961 SEVEN RIDGES RD,CAMINO,CA,95709,EL DORADO
CA-W-17658,DAN PARISES & ELISA PARISES,PAUL SIMEON COLLECTION,1900 HIDDEN VALLEY LN,CAMINO,CA,95709,EL DORADO
CA-W-16097,"RAINBOW ORCHARDS, INC.",RAINBOW ORCHARDS,2569 LARSEN DR,CAMINO,CA,95709,EL DORADO
CA-W-3059,"MADRONA VINEYARDS, L. P.",MADRONA VINEYARDS,2560 HIGH HILL RD,CAMINO,CA,95709,EL DORADO
CA-W-3533,"WOFFORD WINES, LLC",,1900 HIDDEN VALLEY LN,CAMINO,CA,95709,EL DORADO
CA-W-3259,HILL-MAR LLC,ILLUMINARE ESTATE,3500 CARSON RD,CAMINO,CA,95709,EL DORADO
CA-W-22437,"DB HARD CIDER, INC.",,3541 N CANYON RD,CAMINO,CA,95709,EL DORADO
CA-W-22345,PETER JIVANOV,MOTHER LODE ORCHARDS,4341 NORTH CANYON RD,CAMINO,CA,95709,EL DORADO
CA-W-3244,"CRYSTAL BASIN CELLARS, INC.",CRYSTAL BASIN CELLARS,3550 CARSON RD,CAMINO,CA,95709,EL DORADO
CA-W-23995,BLACK OAK LAND HOLDINGS LLC,BLACK OAK LAND HOLDINGS LLC,2480 STATE HIGHWAY 193,COOL,CA,95614,EL DORADO
CA-W-16995,"MYKA CELLARS, INC.",,6428 CAPITOL AVE,DIAMOND SPRINGS,CA,95619,EL DORADO
CA-W-21181,D'ARTAGNAN VINEYARDS AND WINERY LLC,,1781 ROCKY SPRINGS CT,EL DORADO HILLS,CA,95762,EL DORADO
CA-W-21115,AZUR WINES LLC,,7400 PERRY CREEK RD,FAIR PLAY,CA,95684,EL DORADO
CA-W-15856,CHARLES B. MITCHELL,WINERY BY THE CREEK,8085 PERRY CREEK RD,FAIR PLAY,CA,95684,EL DORADO
CA-W-16419,"MV/MILLER VINEYARDS, LLC",MV - MILLER VINEYARDS,7261 FAIR PLAY RNCH,FAIR PLAY,CA,95684,EL DORADO
CA-W-17161,"PRATT VINEYARDS, LLC",DKCELLARS,7380 VINEYARD VIEW DR,FAIR PLAY,CA,95684,EL DORADO
CA-W-21198,"BARREL HEAD WINES, LLC",OAKSTONE WINERY,6470 IRISH ACRES RD,FAIR PLAY,CA,95684,EL DORADO
CA-W-15105,CHARLES & RENEE' JOBBINS,SKYHAWK LANE,7017 IDLEWILD RD,FAIR PLAY,CA,95684,EL DORADO
CA-W-15475,"GOLD NOTE, LLC",GOLD NOTE,7600 FAIR PLAY RD,FAIR PLAY,CA,95684,EL DORADO
CA-W-15677,"ZIN MAN, LLC",PERRY CREEK WINERY,7400 PERRY CREEK RD,FAIR PLAY,CA,95684,EL DORADO
CA-W-20485,GOLD MOUNTAIN WINERY INC.,FITZPATRICK WINERY,7740 FAIRPLAY RD,FAIR PLAY,CA,95684,EL DORADO
CA-W-15563,MICHAEL DEAN IVERSON & MELODIE KAY IVERSON,IVERSON WINERY,8061 PERRY CREEK RD,FAIR PLAY,CA,95684,EL DORADO
CA-W-2701,"CEDARVILLE VINEYARD & WINERY, LLC",CEDARVILLE VINEYARD & WINERY,6320 MARESTAIL RD,FAIR PLAY,CA,95684,EL DORADO
CA-W-16733,"SKINNER VINEYARDS, LLC",,8054 FAIRPLAY RD,FAIR PLAY,CA,95684,EL DORADO
CA-W-17673,ALFONSO P. ELENA,JOSE WINE CAVES,6220 PROSPECTORS RD,GARDEN VALLEY,CA,95633,EL DORADO
CA-W-17601,BJ ROME,ROME VALLEY VINEYARDS,5869 TRAVERSE CREEK RD,GARDEN VALLEY,CA,95633,EL DORADO
CA-W-15989,"C.G. DI ARIE VINEYARD & WINERY, LLC",C.G. DI ARIE VINEYARD & WINERY,5200 DI ARIE RD,MOUNT AUKUM,CA,95656,EL DORADO
CA-W-23589,"FENTON HERRIOTT VINEYARDS, LLC",FENTON HERRIOTT VINEYARDS,120 JACQUIER CT,PLACERVILLE,CA,95667,EL DORADO
CA-W-15888,"HOLLY'S HILL VINEYARDS, LLC",HOLLY'S HILL VINEYARDS,3680 LEISURE LN,PLACERVILLE,CA,95667,EL DORADO
CA-W-3498,"DAVID GIRARD VINEYARDS, INC.",GIRARD'S,741 COLD SPRINGS RD,PLACERVILLE,CA,95667,EL DORADO
CA-W-17691,KIRK THOMAS TAYLOR,SMOKEY RIDGE RANCH,2160 CARSON RD,PLACERVILLE,CA,95667,EL DORADO
CA-W-1182,"BOEGER WINERY, INC.",BOEGER WINERY,1709 CARSON RD,PLACERVILLE,CA,95667,EL DORADO
CA-W-23684,"WILLIAM GUNN WINES, LLC",,2260 JAMES HUTTON DR,PLACERVILLE,CA,95667,EL DORADO
CA-W-23695,"LANGMAN ESTATE WINERY, LLC",LANGMAN ESTATE WINERY,2120 FOUR SPRINGS TRL,PLACERVILLE,CA,95667,EL DORADO
CA-W-15729,MARTIN A. BLAIR & EILEEN F. BLAIR,MAIS FICA WINERY,3395 KINCADE RD,PLACERVILLE,CA,95667,EL DORADO
CA-W-17447,"NARROW GATE VINEYARDS, INC",NARROW GATE VINEYARDS,4282 PLEASANT VALLEY RD,PLACERVILLE,CA,95667,EL DORADO
CA-W-3203,"JODAR VINEYARDS & WINERY, INC.",JODAR VINEYARDS & WINERY,2393 GRAVEL RD,PLACERVILLE,CA,95667,EL DORADO
CA-W-16413,ROBERT C. HALL AND KATHLEEN S. HALL,SLATE RIDGE VINEYARD,3701 GREENSTONE RD,PLACERVILLE,CA,95667,EL DORADO
CA-W-21041,FRANCES JEAN REINDERS,FUDGE FACTORY FARM,2860 HIGH HILL RD.,PLACERVILLE,CA,95667,EL DORADO
CA-W-22738,"ISLAND GIRL WINES, LLC",,3000 GOPHER HOLE RD,PLACERVILLE,CA,95667,EL DORADO
CA-W-15902,TWISTED TWIG WINERY CORPORATION,TWISTED TWIG,120 JACQUIER CT,PLACERVILLE,CA,95667,EL DORADO
CA-W-23477,"SIERRA VISTA WINES, LLC",SIERRA VISTA WINES,4560 CABERNET WAY,PLACERVILLE,CA,95667,EL DORADO
CA-W-20430,"I.E. PARTNERS, LLC",UPHILL VINEYARDS,2120 FOUR SPRINGS TRL,PLACERVILLE,CA,95667,EL DORADO
CA-W-17312,GRACE PATRIOT WINES INC.,GRACE PATRIOT WINES,2701 CARSON RD,PLACERVILLE,CA,95667,EL DORADO
CA-W-22718,SEAM WINE LLC,,2120 FOUR SPRINGS TRL,PLACERVILLE,CA,95667,EL DORADO
CA-W-22707,"STARFIELD VINEYARDS, LLC",STARFIELD VINEYARDS,2750 JACQUIER RD,PLACERVILLE,CA,95667,EL DORADO
CA-W-15570,GEORGE CHARLES VISMAN,HIGH HILL RANCH,2901 HIGH HILL RD,PLACERVILLE,CA,95667,EL DORADO
CA-W-15718,"LAVA SPRINGS, INC.",LAVA CAP WINERY,2221 FRUITRIDGE RD,PLACERVILLE,CA,95667,EL DORADO
CA-W-21797,"BRANCH VENTURES, LLC",URSA VINEYARD,5001 DOLLHOUSE RD,PLACERVILLE,CA,95667,EL DORADO
CA-W-23909,TWENTY ACRES AND A TRACTOR LLC,FIELD NUMBER FIFTEEN,4771 GREENHILLS RD,PLACERVILLE,CA,95667,EL DORADO
CA-W-17281,BJ ROME,ROME VALLEY VINEYARDS,5660 VINEYARD LN AREA A,PLACERVILLE,CA,95667,EL DORADO
CA-W-20051,CHARLES BRET MANSFIELD,MANSFIELD FAMILY WINES,2501 CARSON RD STE B,PLACERVILLE,CA,95667,EL DORADO
CA-W-22354,VIA ROMANO VINEYARDS INC.,VIA ROMANO VINEYARDS,3400 CARSON CT STE D,PLACERVILLE,CA,95667,EL DORADO
CA-W-22245,"SAUREEL VINEYARDS, LLC",SAUREEL VINEYARDS,1100 COLD SPRINGS RD,PLACERVILLE,CA,95667,EL DORADO
CA-W-17781,"NAUMANN SYKES WINE CELLARS, LLC",NEWFOUND WINES,3720 HIGH VIEW DR,PLACERVILLE,CA,95667,EL DORADO
CA-W-15676,"ALVAREZ VINEYARDS, LLC",MIRAFLORES WINERY,2260 JAMES HUTTON DR,PLACERVILLE,CA,95667,EL DORADO
CA-W-17454,MARK ANNIS,PETRA VINEYARD,2402 DEER VALLEY RD,RESCUE,CA,95672,EL DORADO
CA-W-16977,CHATEAU DAVELL WINERY,CHATEAU DAVELL WINERY,5360 BIG CANYON RD,SHINGLE SPRINGS,CA,95682,EL DORADO
CA-W-23435,JAMES PRICE,SIERRA FOOTHILLS MEADERY,3590 SPEARMINT LN,SHINGLE SPRINGS,CA,95682,EL DORADO
CA-W-22983,"PECOTA VINEYARD AND WINERY, LLC",,2501 RUNNING DEER RD,SHINGLE SPRINGS,CA,95682,EL DORADO
CA-W-3042,"CHEVALIER WINERY, INC.",CHEVALIER WINERY,5720 FRENCH CREEK RD,SHINGLE SPRINGS,CA,95682,EL DORADO
CA-W-2149,WILLIAM L. THOMPSON AND JANNEKE THOMPSON (SOLE PROPRIETOR),THOMPSON'S MINING CAMP WINERY,4801 ROCK BARN RD,SHINGLE SPRINGS,CA,95682,EL DORADO
CA-W-15992,NINE OAKS VINEYARD,,6261 BRINKWOOD LN,SOMERSET,CA,95684,EL DORADO
CA-W-21447,"ATLAS WINE COMPANY, LLC",ATLAS WINE COMPANY,7400 PERRY CREEK RD,SOMERSET,CA,95684,EL DORADO
CA-W-3159,"LATCHAM GRANITE, INC.",LATCHAM VINEYARDS,2860 OMO RANCH RD,SOMERSET,CA,95684,EL DORADO
CA-W-3409,"BUSBY VINEYARD & WINERY, LLC",BUSBY VINEYARD & WINERY,6375 GRIZZLY FLAT RD,SOMERSET,CA,95684,EL DORADO
CA-W-24085,JOHN THOMAS SWEIGART,PERRY CREEK WINERY,7400 PERRY CREEK RD,SOMERSET,CA,95684,EL DORADO
CA-W-1910,JOHN SCOTT MILLER & PAMELA SUE MILLER,SINGLE LEAF VINEYARDS & WINERY,7480 FAIRPLAY RD,SOMERSET,CA,95684,EL DORADO
CA-W-3414,"BECHARD VINEYARD & WINERY, LLC",,4244 ROOSTER CT,SOMERSET,CA,95684,EL DORADO
CA-W-20371,"ALL QA PRODUCTS, LLC",WHISPERHILL VINEYARD,3000 GOPHER HOLE RD,SOMERSET,CA,95684,EL DORADO
CA-W-17166,"BRIAN KENT, INC.",BUMGARNER WINES,7380 VINEYARD VIEW DR,SOMERSET,CA,95684,EL DORADO
CA-W-15722,ROSSI-MEDICH LLC,SALUTI CELLARS,7505 GRIZZLY FLAT RD,SOMERSET,CA,95684,EL DORADO
CA-W-21675,"DIVERGENT VINE, LLC",DIVERGENT VINE,6100 GRAY ROCK RD,SOMERSET,CA,95684,EL DORADO
CA-W-17532,"RUGIADA WINERY, LLC",MASTROSERIO WINERY,7351 FAIRPLAY RD,SOMERSET,CA,95684,EL DORADO
CA-W-2476,ROBERT VAN DER VIJVER & SHANNON N. VAN VIJVER,VAN DER VIJVER ESTATES,7451 FAIRPLAY RD,SOMERSET,CA,95684,EL DORADO
CA-W-24086,FATE WINES LLC,FATE,7400 PERRY CREEK RD,SOMERSET,CA,95684,EL DORADO
CA-W-3011,"CANTIGA WINEWORKS, LLC",CANTIGA WINEWORKS,5980 MEYERS LN,SOMERSET,CA,95684,EL DORADO
CA-W-24045,R.I.K.A. ENTERPRISES LLC,CH?TEAU D? ESTIENNE,2700 OMO RANCH RD,SOMERSET,CA,95684,EL DORADO
CA-W-23674,GWINLLAN ESTATE LLC,,7060 FAIRPLAY RD,SOMERSET,CA,95684,EL DORADO
CA-W-23483,"JOSEPH SOGGE WINES, LLC",LOST ARROW RANCH,2521 OMO RANCH RD UNIT B,SOMERSET,CA,95684,EL DORADO
CA-W-23825,"RLS & CO., LLC",,7360 PERRY CREEK RD,SOMERSET,CA,95684,EL DORADO
CA-W-22894,MEDITERRANEAN VINEYARDS LLC,MEDITERRANEAN VINEYARDS,7449 FAIRPLAY RD,SOMERSET,CA,95684,EL DORADO
CA-W-23042,"MOUNT AUKUM WINERY, LLC",MOUNT AUKUM WINERY,6781 TOWER RD,SOMERSET,CA,95684,EL DORADO
CA-W-23158,"PIOLA WINES, INC.",PIOLA WINES,7400 PERRY CREEK RD,SOMERSET,CA,95684,EL DORADO
CA-W-22489,E16 WINE COMPANY,,8085 PERRY CREEK RD,SOMERSET,CA,95684,EL DORADO
CA-W-23120,RED BUCKET LLC,GRANITE SPRINGS WINE COMPANY,5050 GRANITE SPRINGS WINERY RD,SOMERSET,CA,95684,EL DORADO
CA-W-23964,3625 OMO RANCH LLC,GOLDEN LEAVES VINEYARD & WINERY,3625 OMO RANCH RD,SOMERSET,CA,95684,EL DORADO
CA-W-15838,JAMES T. & ALANNA S. TAFF,WINDWALKER WINERY,7360 PERRY CREEK RD,SOMERSET,CA,95684,EL DORADO
CA-W-15843,GDP GROUP INC.,SHADOW RANCH,7050 FAIRPLAY RD,SOMERSET,CA,95684,EL DORADO
CA-W-22879,LA CLARINE FARM LTD.,,7721 SNOWBIRD LN,SOMERSET,CA,95684,EL DORADO
CA-W-22001,TED ROQUE MEDEIROS,MEDEIROS FAMILY WINES,7480 FAIRPLAY RD,SOMERSET,CA,95684,EL DORADO
CA-W-22328,SICILIA LLC,SICILIA VINEYARDS,7351 FAIRPLAY RD,SOMERSET,CA,95684,EL DORADO
CA-W-21781,"SENTIVO, LLC",,7460 FAIRPLAY RD,SOMERSET,CA,95684,EL DORADO
CA-W-3317,WAYNE & BARBARA PROCISSI,PROCISSI CELLAR,7505 GRIZZLY FLAT RD,SOMERSET,CA,95684,EL DORADO
CA-W-23056,"RANCHO OLIVO VINEYARDS, LLC",,7280 FAIRPLAY RD,SOMERSET,CA,95682,EL DORADO
CA-W-22418,CREDENCE CORPORATION,ELEMENT 79 VINEYARDS,7350 FAIRPLAY RD,SOMERSET,CA,95684,EL DORADO
CA-W-2639,ROBERT R. LAJOIE & MIREILLE B. LAJOIE,CHALET FLEUR-DE-LYS,7696 PERRY CREEK RD,SOMERSET,CA,95684,EL DORADO
CA-W-15881,"TOOGOOD ESTATE WINERY, INC.",TOOGOOD ESTATE WINERY,7280 FAIRPLAY RD,SOMERSET,CA,95684,EL DORADO
CA-W-22306,"PVCS, LLC",BOM VINHO! VINEYARD,3040 OMO RANCH RD,FAIR PLAY,CA,95684,EL DORADO COUNTY
CA-W-22881,"VISTA DEL MIRADOR WINERY, LLC",,2501 OMO RANCH RD,SOMERSET,CA,95684,EL DORADO COUNTY
CA-W-17316,"OHSODUNNE, INC.",WATER2WINE,522 POLLASKY AVE,CLOVIS,CA,93612,FRESNO
CA-W-23153,3 OAKS VINEYARD INC.,3 OAKS VINEYARD,8807 N SUNNYSIDE AVE,CLOVIS,CA,93619,FRESNO
CA-W-24044,"MATTHEW HOOD, ALLISON THOMPSON, PATRICK KEITH",THE MEADING PLACE,26517 AUBERRY RD,CLOVIS,CA,93619,FRESNO
CA-W-17559,"GEMARGO WINE COMPANY, INC.",GEMARGO WINE COMPANY,2020 S GOLDEN STATE BLVD #105,FOWLER,CA,93625,FRESNO
CA-W-16675,ERIC NORMAN ENGELMAN AND TINA LYNN ENGELMAN,LOMAC WINERY,2674 N WESTLAWN AVE,FRESNO,CA,93723,FRESNO
CA-W-2730,FULL CIRCLE BREWING CO. LTD. LLC,LOS CALIFORNIOS WINERY,6142 N SAN PABLO AVE,FRESNO,CA,93704,FRESNO
CA-W-2816,BRET KEVIN ENGELMAN,ENGELMANN CELLARS,3275 N ROLINDA AVE,FRESNO,CA,93722,FRESNO
CA-W-22878,LAURA NOGUERA,THANK YOU FOR DRINKING,352 W BEDFORD AVE UNIT 111,FRESNO,CA,93711,FRESNO
CA-W-564,E. & J. GALLO WINERY,E. & J. GALLO WINERY,5610 E OLIVE AVE,FRESNO,CA,93727,FRESNO
CA-W-15390,"MARIAN TRADING, LTD.",MARIAN FARMS,2305 N ROLINDA,FRESNO,CA,93722,FRESNO
CA-W-1550,GOLDEN STATE VINTNERS,,7409 W CENTRAL AVE,FRESNO,CA,93706,FRESNO
CA-W-15104,JOSEPH J. MILLA,MILLA VINEYARDS,7465 W MCKINLEY,FRESNO,CA,93722,FRESNO
CA-W-22821,BUOYANT WINERY LLC,BUOYANT WINERY,5575 W BARSTOW AVE,FRESNO,CA,93722,FRESNO
CA-W-1574,"A. NONINI WINERY, INC.",,2640 N DICKENSON AVE,FRESNO,CA,93723,FRESNO
CA-W-309,VIE-DEL COMPANY,,11903 S CHESTNUT AVE,FRESNO,CA,93725,FRESNO
CA-W-2267,"THE AGRICULTURAL FOUNDATION OF CALIFORNIA STATE UNIVERSITY, FRESNO",FRESNO STATE VINEYARDS,2360 E BARSTOW AVE,FRESNO,CA,93740,FRESNO
CA-W-1835,"CRIBARI VINEYARDS, INC.",CRIBARI VINEYARDS,4180 W ALAMOS STE 108-10,FRESNO,CA,93722,FRESNO
CA-W-22224,DOBRA VINA INC.,ZIVELI,5840 N BIOLA AVE,FRESNO,CA,93723,FRESNO
CA-W-21452,"SOLITARY CELLARS WINE COMPANY, LLC",SOLITARY CELLARS,14439 N FRIANT RD,FRIANT,CA,93626,FRESNO
CA-W-17133,"SUMNER PECK RANCH, INC.",SUMNER PECK RANCH,14439 N FRIANT RD,FRIANT,CA,93626,FRESNO
CA-W-1951,MODERN DEVELOPMENT COMPANY (LP),BIANCHI VINEYARDS,5806 N MODOC AVE,KERMAN,CA,93630,FRESNO
CA-W-17337,JEFFERY RICHARD YRIBARREN,YRIBARREN WINERY,12333 W NIELSEN AVE,KERMAN,CA,93630,FRESNO
CA-W-397,VIE-DEL COMPANY,,13363 S INDIANOLA AVE,KINGSBURG,CA,93631,FRESNO
CA-W-15614,OSCAR RAMOS,,1665 SIMPSON ST,KINGSBURG,CA,93631,FRESNO
CA-W-17530,THOMAS M. RIFFEL,RIFFELHOF VINEYARDS,44011 DUNLAP RD,MIRAMONTE,CA,93641,FRESNO
CA-W-23956,FOOLS CRAFT CIDER LLC,,16518 E ADAMS AVE,PARLIER,CA,93648,FRESNO
CA-W-15128,O'NEILL BEVERAGES CO. LLC,O'NEILL VINTNERS & DISTILLERS,8418 S LAC JAC AVE,PARLIER,CA,93648,FRESNO
CA-W-23137,"HEMISPHERES, LLC",,8418 S LAC JAC AVE,PARLIER,CA,93648,FRESNO
CA-W-21314,KINGS RIVER WINERY LLC,KINGS RIVER WINERY,4276 S GREENWOOD AVE,SANGER,CA,93657,FRESNO
CA-W-21242,JAMES J. MARSHALL AND JENIFER L. MARSHALL,MARECHAL VINEYARDS,1835 N ZEDIKER AVE,SANGER,CA,93657,FRESNO
CA-W-23797,"GUERRIERO PACKING & WINE CO., INC",GUERRIERO PACKING AND WINE COMPANY,1061 S MCCALL AVE,SANGER,CA,93657,FRESNO
CA-W-1850,GIBSON WINE COMPANY,,1720 ACADEMY AVE,SANGER,CA,93657,FRESNO
CA-W-22689,"VALLEY OAK WINERY, LLC",,11809 E BELMONT AVE,SANGER,CA,93657,FRESNO
CA-W-3375,E. & J. GALLO WINERY,MCCALL WINERIES & DISTILLERIES,1042 S MCCALL AVE,SANGER,CA,93657,FRESNO
CA-W-22846,"MONASTERIO DE VID, LLC",CEDAR VIEW WINERY,1384 S FRANKWOOD AVE,SANGER,CA,93657,FRESNO
CA-W-1889,"NAPA VALLEY SPECIALTY WINES, INC.",NAPA VALLEY SPECIALTIES,1720 ACADEMY AVE,SANGER,CA,93657,FRESNO
CA-W-2498,THE WINE GROUP LLC,FRANZIA/SANGER,2916 S REED AVE,SANGER,CA,93657,FRESNO
CA-W-20094,KENNETH & SHERYL MERCIER,ADRIAN JOSEPH'S VINEYARDS AND WINERY,33533 WOLVERINE LN,SQUAW VALLEY,CA,93675,FRESNO
CA-W-21081,CHRISTINA M. FLANNIGAN,SIERRA PEAKS WINERY,50806 BRAMBLE LN,SQUAW VALLEY,CA,93675,FRESNO
CA-W-23503,"COUSINS ESTATE VINEYARD, LLC",UNHINGED CELLARS,7365 COUNTY ROAD 21,ORLAND,CA,95963,GLENN
CA-W-2506,ROBERT H. GOODMAN,ROBERT GOODMAN WINES,180 NATURE LN,ARCATA,CA,95521,HUMBOLDT
CA-W-17168,GRATEFUL GROUNDS LLC,CALIFORNIA CUSTOM CELLARS,550 S G ST 27,ARCATA,CA,95521,HUMBOLDT
CA-W-21913,PATRICIA ANNE KNITTEL,WRANGLETOWN CIDER COMPANY,955 -975 I ST,ARCATA,CA,95521,HUMBOLDT
CA-W-22113,KEVIN BRUCE PATZKOWSKY,KEVIN PATZKOWSKY WINES,5303 BOYD RD UNIT G,ARCATA,CA,95521,HUMBOLDT
CA-W-2796,"ED OLIVEIRA WINERY, LLC",ED OLIVEIRA WINERY,155 CENTER ST,ARCATA,CA,95521,HUMBOLDT
CA-W-16563,"NICOLL BROTHERS ENTERPRISES, LLC",LEVENPENCE CELLARS,751 PORCUPINE LN,CARLOTTA,CA,95528,HUMBOLDT
CA-W-21306,"HARRIS & K, INC.",OLD GROWTH CELLARS,500 QUAIL VALLEY RD,EUREKA,CA,95503,HUMBOLDT
CA-W-21648,C. ASHDON CIDER INCORPORATED,HUMBOLDT CIDER COMPANY,3750 HARRIS ST,EUREKA,CA,95503,HUMBOLDT
CA-W-21756,PAUL LESLIE AND HEIDI LESLIE,HUMBOLDT HONEY WINES,130 W 4TH ST,EUREKA,CA,95501,HUMBOLDT
CA-W-3427,LINA CARRO & DONALD WATTENBARGER,VIOLET-GREEN WINERY,101 MISTY HILL RD,EUREKA,CA,95503,HUMBOLDT
CA-W-22652,"TABLE BLUFF BREWING, INC.",LOST COAST BREWERY AND CAFE,1600 SUNSET DR,EUREKA,CA,95503,HUMBOLDT
CA-W-16435,FRANCIS HAROLD BRAZIL & SHARON ANN BRAZIL,FROG ALLEY CELLARS,1436 AMBROSINI LN,FERNDALE,CA,95536,HUMBOLDT
CA-W-2389,"FIELDBROOK WINERY, INC.",FIELDBROOK VALLEY WINERY,4241 FIELDBROOK RD,FIELDBROOK,CA,95519,HUMBOLDT
CA-W-21804,"AVIDITY BOUTIQUE CELLARS, LLC",AVIDITY BOUTIQUE CELLARS,4545 BRICELAND THORN RD,GARBERVILLE,CA,95542,HUMBOLDT
CA-W-21636,"GREEN FIRE WINERY, LLC",GREEN FIRE WINERY,199 CARPENTER LN,HOOPA,CA,95546,HUMBOLDT
CA-W-22003,RICHARD L. ROWLAND,BRIAR PATCH WINERY,MILE POST 1077 HIGHWAY 96,HOOPA,CA,95546,HUMBOLDT
CA-W-22243,"FLOR D' LUNA WINERY, LLC",,109 RED ROCK LN,MCKINLEYVILLE,CA,95519,HUMBOLDT
CA-W-3412,RIVERBEND CELLARS LLC,RIVERBEND CELLARS,12990 AVENUE OF THE GIANTS,MYERS FLAT,CA,95554,HUMBOLDT
CA-W-3250,ALAN JAMES ESTRADA AND SANDRA LYN ESTRADA,ELK PRAIRIE VINEYARD,11544 DYERVILLE LOOP RD,MYERS FLAT,CA,95554,HUMBOLDT
CA-W-3468,"CABOT VINEYARDS, INC.",CABOT VINEYARDS,209 FERRIS RANCH RD,ORLEANS,CA,95556,HUMBOLDT
CA-W-2860,NORMAN V. COATES,COATES VINEYARDS,3255 RED CAP RD,ORLEANS,CA,95556,HUMBOLDT
CA-W-15438,"LOST COAST VINEYARDS, INC.",,795 CONKLIN CREEK RD,PETROLIA,CA,95558,HUMBOLDT
CA-W-15416,ED B. LEWIS AND ROSINA LEE LEWIS,ROSINA VINEYARD,751 SORENSON RD,REDCREST,CA,95569,HUMBOLDT
CA-W-20083,MONUMENT MOUNTAIN VINEYARDS LLC,MONUMENT MOUNTAIN VINEYARDS,2330 MONUMENT RD,RIO DELL,CA,95562,HUMBOLDT
CA-W-20437,"BERGERON WINERY, INC",,380 PATRICKS POINT DR UNIT 168/169,TRINIDAD,CA,95570,HUMBOLDT
CA-W-15249,DONALD J. BREMM,MOONSTONE CROSSING,1000 MOONSTONE CROSS RD,TRINIDAD,CA,95570,HUMBOLDT
CA-W-2022,TASHA MCCORKLE & DANIEL A. DOHERTY,WHITETHORN WINERY,545 SHELTER COVE RD,WHITETHORN,CA,95589,HUMBOLDT
CA-W-3051,WINNETT VINEYARDS,,655 PEACH TREE LN,WILLOW CREEK,CA,95573,HUMBOLDT
CA-W-23288,"PEACH TREE LANE, LLC",PEACH TREE LANE VINEYARDS,655 PEACH TREE LN,WILLOW CREEK,CA,95573,HUMBOLDT
CA-W-15428,RAYMOND BRUCE NELSON,SENTINEL WINERY,2263 PATTERSON LN,WILLOW CREEK,CA,95573,HUMBOLDT
CA-W-21809,"PEARSON BROTHERS WINERY, INC",PEARSON BROTHERS WINERY,520 W ATEN RD STE 3,IMPERIAL,CA,92251,IMPERIAL
CA-W-23828,ROYAL WINE CORPORATION,ROYAL WINE-BAKERSFIELD,11220 EDISON HWY,BAKERSFIELD,CA,93307,KERN
CA-W-1840,F. KORBEL & BROS.,HECK CELLARS,15401 BEAR MOUNTAIN WINERY RD,DI GIORGIO,CA,93203,KERN
CA-W-413,GIUMARRA VINEYARDS CORPORATION,GIUMARRA VINEYARDS,11220 EDISON HWY,EDISON,CA,93220,KERN
CA-W-3514,THE WINE GROUP LLC,FRANZIA/MCFARLAND,31795 WHISLER RD,MC FARLAND,CA,93250,KERN
CA-W-1627,"ASV WINES, INC.",ASV WINES,31502 PETERSON RD,MC FARLAND,CA,93250,KERN
CA-W-20271,WILLOW SPRINGS COMPANY,WILLOW SPRINGS VILLAGE,3045 B 90TH ST W,ROSAMOND,CA,93560,KERN
CA-W-15034,DAVID ROBERT REYNOLDS,LEONA VALLEY WINERY,1200 ORANGE ST,ROSAMOND,CA,93560,KERN
CA-W-23638,STRAY LEAVES VINEYARD AND WINERY INC.,STRAY LEAVES VINEYARD AND WINERY,123 S GREEN ST,TEHACHAPI,CA,93561,KERN
CA-W-22873,SUSAN EVERROAD-CROOKE,SOUTHERN SIERRA WINERY,21192 OLD TOWN RD,TEHACHAPI,CA,93561,KERN
CA-W-21744,COHOL LLC,,2823 OFFICE CT,ROSAMOND,CA,93560,KERN COUNTY
CA-W-22795,TEHACHAPI WINERY INC.,,22136 BAILEY RD,TEHACHAPI,CA,93561,KERN COUNTY
CA-W-16277,EYOB EMBAYE,LULA TEJ,14530 LAKESHORE DR UNIT C,CLEARLAKE,CA,95422,LAKE
CA-W-17052,"SANAM, LLC",,16725 DAM RD,CLEARLAKE,CA,95422,LAKE
CA-W-21376,THE HESS COLLECTION WINERY,,10915 HIGH VALLEY RD,CLEARLAKE OAKS,CA,95423,LAKE
CA-W-23544,"STONEHOUSE CELLARS, LLC",STONEHOUSE CELLARS,500 OLD LONG VALLEY RD,CLEARLAKE OAKS,CA,95423,LAKE
CA-W-3098,"BRASSFIELD ESTATE WINERY, LLC",BRASSFIELD ESTATE WINERY,10915 HIGH VALLEY RD,CLEARLAKE OAKS,CA,95423,LAKE
CA-W-15962,"CLEARLAKE LAVA, INC.",CACHE CREEK VINEYARDS,250 NEW LONG VALLEY RD,CLEARLAKE OAKS,CA,95423,LAKE
CA-W-3583,"SHANNON RIDGE, INC.",,320 MORINE RANCH RD,CLEARLAKE OAKS,CA,95423,LAKE
CA-W-2929,"MONTE LAGO VINEYARDS & WINERY, INC.",MONTE LAGO VINEYARDS,11250 CERRITO DR,CLEARLAKE OAKS,CA,95423,LAKE
CA-W-3445,KAREN D. NOGGLE & WILLIAM M. NOGGLE,,700 OLD LONG VALLEY RD,CLEARLAKE OAKS,CA,95423,LAKE
CA-W-21747,"SHANNON RIDGE, INC.",SHANNON RIDGE FAMILY OF WINES,750 ROUND MOUNTAIN RD,CLEARLAKE OAKS,CA,95423,LAKE
CA-W-22239,RICKEY EUGENE GUNIER & SHANNON MARIE GUNIER,LOVISONE VINEYARDS & WINERY,2550 BIG VALLEY RD BLDG 1,KELSEYVILE,CA,95451,LAKE
CA-W-21300,APOCALYPSE WINES LLC,,6675 KELSEY CREEK DR,KELSEYVILLE,CA,95451,LAKE
CA-W-3201,NICK ANGELO BUTTITTA,ROSA D'ORO VINEYARDS,3155 MERRITT RD,KELSEYVILLE,CA,95451,LAKE
CA-W-2243,"STEELE WINES, INC.",,4350 THOMAS DR,KELSEYVILLE,CA,95451,LAKE
CA-W-16861,KEITH WHITE,BLUE SKY RANCH,9851 HIGHWAY 175,KELSEYVILLE,CA,95451,LAKE
CA-W-15079,"MT. KONOCTI GROWERS, INC.",,"2550 BIG VALLEY ROAD, BLDG. 1",KELSEYVILLE,CA,95451,LAKE
CA-W-23355,"DESAFINADO, LLC",DESAFINADO,9820 KELSEY CREEK DR,KELSEYVILLE,CA,95451,LAKE
CA-W-21857,"BOATIQUE WINERY, LLC",,8255 RED HILL RD,KELSEYVILLE,CA,95451,LAKE
CA-W-23963,"SHANNON RIDGE, INC.",,4350 THOMAS DR,KELSEYVILLE,CA,95451,LAKE
CA-W-17553,"BELL HILL VINEYARDS, LLC",BELL HILL VINEYARDS,2550 BIG VALLEY RD,KELSEYVILLE,CA,95451,LAKE
CA-W-16591,NILS VENGE,COUGAR'S LEAP WINERY,9300 SEIGLER SPRINGS RD,KELSEYVILLE,CA,95451,LAKE
CA-W-22640,"WINECO, INC.",,3495 BENSON LN,KELSEYVILLE,CA,95451,LAKE
CA-W-16721,SOL ROUGE LLC,,2550 BIG VALLEY RD BLDG 1,KELSEYVILLE,CA,95451,LAKE
CA-W-20482,MIQUEL ANGEL SILVA,DON ANGEL CELLARS,2550 BIG VALLEY RD BLDG 1,KELSEYVILLE,CA,95451,LAKE
CA-W-17031,WILLIAM F. & BARBARA R. HADDON,TALLEYRAND WINERY,3843 GLEBE RD,KELSEYVILLE,CA,95451,LAKE
CA-W-7059,"MOORE FAMILY VINEYARDS, INC.",MOORE FAMILY CELLARS,11990 BOTTLE ROCK RD,KELSEYVILLE,CA,95451,LAKE
CA-W-3064,"SUNSET CELLARS, LLC",,2550 BIG VALLEY RD,KELSEYVILLE,CA,95451,LAKE
CA-W-17633,"CHACEWATER, INC.",CHACEWATER WINE COMPANY,5625 GADDY LN,KELSEYVILLE,CA,95451,LAKE
CA-W-16667,DOMAINE AUX ARCS LLC,VILLA LA BRENTA,2550 BIG VALLEY RD BLDG 1,KELSEYVILLE,CA,95451,LAKE
CA-W-22014,"LAUJOR ESTATE WINERY, L.L.C.",,9300 SEIGLER SPRINGS RD,KELSEYVILLE,CA,95451,LAKE
CA-W-17009,"ROBLEDO FAMILY WINERY, INC.",ROBLEDO FAMILY WINERY,2970 STONE DR,LAKEPORT,CA,95453,LAKE
CA-W-17368,"EJ OLOF ENTERPRISES, INC.",OLOF CELLARS,5615 HIGHLANDS SPRINGS RD,LAKEPORT,CA,95453,LAKE
CA-W-1105,"JACKSON FAMILY WINES, INC.",KENDALL-JACKSON,600 MATTHEWS RD,LAKEPORT,CA,95453,LAKE
CA-W-21793,RHONDA HOOD,WILD WEST WINERY,1435 BIG VALLEY RD,LAKEPORT,CA,95453,LAKE
CA-W-16380,AGU ENTERPRISES LLC,,2676 LAKESHORE BLVD,LAKEPORT,CA,95453,LAKE
CA-W-16941,KAZ WINERY,,1435 BIG VALLEY RD,LAKEPORT,CA,95453,LAKE
CA-W-21164,"RED SQUARE VINEYARDS, LLC",,19798 OAK HAVEN RD,LOWER LAKE,CA,95457,LAKE
CA-W-3501,BRADLEY DAVID TERRILL,TERRILL CELLARS,16175 MAIN ST,LOWER LAKE,CA,95457,LAKE
CA-W-21422,FULTS FAMILY VINEYARDS LLC,,11441 HIGHWAY 29,LOWER LAKE,CA,95457,LAKE
CA-W-16937,"HAWK AND HORSE VINEYARDS, LLC",,13048 S STATE HWY 29,LOWER LAKE,CA,95457,LAKE
CA-W-23725,JLN WINE COMPANY LLC,,13444 SPRUCE GROVE RD,LOWER LAKE,CA,95457,LAKE
CA-W-15534,PLOYEZ WINERY LTD.,PLOYEZ WINERY,11171 S STATE HWY 29,LOWER LAKE,CA,95457,LAKE
CA-W-2363,"G. GRAHAM WINES, INC.",G. GRAHAM WINES,13633 POINT LAKEVIEW RD,LOWER LAKE,CA,95457,LAKE
CA-W-15354,SIX SIGMA WINERY LLC,SIX SIGMA WINERY,13444 SPRUCE GROVE RD,LOWER LAKE,CA,95457,LAKE
CA-W-17222,"SHANNON RIDGE, INC.",,13888 POINT LAKEVIEW RD,LOWER LAKE,CA,95457,LAKE
CA-W-3214,"MOUNT ST. HELENA WINERY, LLC",MOUNT ST. HELENA WINERY,20963 HIGHWAY 175,MIDDLETOWN,CA,95461,LAKE
CA-W-17758,"BEAVER CREEK VINEYARDS, LLC",BEAVER CREEK VINEYARDS,22000 HIGHWAY 29,MIDDLETOWN,CA,95461,LAKE
CA-W-20065,SHED HORN CELLARS LLC,SHED HORN CELLARS,11520 SOCRATES MINE RD,MIDDLETOWN,CA,95461,LAKE
CA-W-15731,OLIVE STREET LLC,VINO FAMILY VINEYARDS,4900 BARTLETT SPRINGS RD,NICE,CA,95464,LAKE
CA-W-23062,"SHANNON RIDGE, INC.",,4900 BARTLETT SPRINGS RD,NICE,CA,95464,LAKE
CA-W-17042,"ROBINSON LAKE VINEYARD, LLC",ROBINSON LAKE VINEYARD,755 E HIGHWAY 20,UPPER LAKE,CA,95485,LAKE
CA-W-23787,"LANGTRY FARMS, LLC","LANGTRY FARMS, LLC",21000 BUTTS CANYON RD,MIDDLETOWN,CA,95461,LAKE COUNTY
CA-W-2113,RONALD E. LUNDER,MOUNTAIN MEADOWS MEAD,12 3RD ST,WESTWOOD,CA,96137,LASSEN
CA-W-17414,"AGUA DULCE WINERY, LLC",,9640 SIERRA HWY,AGUA DULCE,CA,91390,LOS ANGELES
CA-W-17590,CONTINENTAL VENTURES GROUP TRUST,REYES WINERY,10262 SIERRA HWY,AGUA DULCE,CA,91390,LOS ANGELES
CA-W-24068,"STORY TAVERN LP, HILLCREST DEVELOPMENT PARTNERS, LLC GP",CIDERWORKS@STORY TAVERN,150 S SAN FERNANDO BLVD STE 30,BURBANK,CA,91502,LOS ANGELES
CA-W-22474,"IRONBARK CIDERWORKS, INC.",,1420 N CLAREMONT BLVD STE 107B,CLAREMONT,CA,91711,LOS ANGELES
CA-W-24033,JIVE BEVERAGES INC.,,14938 S FIGUEROA ST,GARDENA,CA,90248,LOS ANGELES
CA-W-17797,"WINE EXPEDITE, LLC",COACHELLA WINERY,44105 JACKSON ST STE 113,INDIO,CA,92201,LOS ANGELES
CA-W-22409,JOHN FRANCIS BARRETT,BARRETT CELLARS,114 W NEWGROVE ST,LANCASTER,CA,93534,LOS ANGELES
CA-W-22948,CLAY SCOTT PORLIER,PORLIER WINES,42257 6TH ST W STE 302,LANCASTER,CA,93534,LOS ANGELES
CA-W-23723,HERRMANN YORK WINE LLC,HERRMANN YORK WINE,42257 6TH ST W STE 302,LANCASTER,CA,93534,LOS ANGELES
CA-W-966,FRANK S. & CYNDEE JO DONATO,ANTELOPE VALLEY WINERY,42041 20TH ST,LANCASTER,CA,93534,LOS ANGELES
CA-W-23050,RUSSELL LEWIS BRILEY,NUGGUCCIET CELLARS,42257 W 6TH ST STE 302,LANCASTER,CA,93534,LOS ANGELES
CA-W-22970,JAMIELLY PATACSIL KREGER,DOMANE KREGER VINEYARDS,42257 6TH ST W STE 302,LANCASTER,CA,93534,LOS ANGELES
CA-W-23283,AHART CELLARS,AHART CELLARS,42257 6TH STREET W STE 302,LANCASTER,CA,93534,LOS ANGELES
CA-W-1726,STEVEN F. GODDE,CAMEO RANCH AND WINERY,8539 W AVENUE H,LANCASTER,CA,93536,LOS ANGELES
CA-W-21128,"GOLDEN STAR VINEYARDS, LLC",,36043 106TH ST E,LITTLEROCK,CA,93543,LOS ANGELES
CA-W-23279,CIDERLAB LLC,FICKLEWOOD CIDERWORKS,720 E BROADWAY,LONG BEACH,CA,90802,LOS ANGELES
CA-W-23290,SHORELINE CELLARS INC.,WATERS EDGE WINERY LONG BEACH,217 PINE AVE,LONG BEACH,CA,90802,LOS ANGELES
CA-W-163,"SAN ANTONIO WINERY, INC.",RIBOLI FAMILY WINES,737 LAMAR ST,LOS ANGELES,CA,90031,LOS ANGELES
CA-W-23648,BENNY BOY BREWING INC,BENNY BOY BREWING,1821 DALY ST,LOS ANGELES,CA,90031,LOS ANGELES
CA-W-21373,MORAGA CANYON VINEYARDS LLC,MORAGA VINEYARDS,1070 MORAGA DR,LOS ANGELES,CA,90049,LOS ANGELES
CA-W-23300,SABELLI-FRISCH WINES,SABELLI-FRISCH WINES,2079 E 15TH ST STE 120,LOS ANGELES,CA,90021,LOS ANGELES
CA-W-22982,"ANGELENO WINE CO, LLC",,1646 N SPRING ST UNIT C,LOS ANGELES,CA,90012,LOS ANGELES
CA-W-22964,MCTAVISH BRANDS LLC,,1700 NAUD ST UNIT A,LOS ANGELES,CA,90012,LOS ANGELES
CA-W-3366,"FLEISCHMANN'S VINEGAR COMPANY, INC.",,444 ROOSEVELT AVE,MONTEBELLO,CA,90640,LOS ANGELES
CA-W-15944,"EMMSTEL SACRED VINEYARD, INC.",EMMSTEL SACRED VINEYARD WINERY,37437 TYE PL,PALMDALE,CA,93551,LOS ANGELES
CA-W-23352,"OGOPOGO BREWING, LLC",OGOPOGO BREWING,864 COMMERCIAL AVE,SAN GABRIEL,CA,91776,LOS ANGELES
CA-W-23649,PLANAW LLC,WARSON WINE COMPANY,25327 AVENUE STANFORD STE 105,SANTA CLARITA,CA,91355,LOS ANGELES
CA-W-16821,STEVE LEMLEY AND NATE HASPER (GENERAL PARTNERSHIP),PULCHELLA WINERY,25327 AVENUE STANFORD STE 105,SANTA CLARITA,CA,91355,LOS ANGELES
CA-W-21562,JS ARNOLD LEGACY LLC,TRIASSIC LEGACY VINEYARD,25327 AVENUE STANFORD STE 105,SANTA CLARITA,CA,91355,LOS ANGELES
CA-W-21855,DAVID ARMAND FINLEY,FINLEY FAMILY WINES,25327 AVENUE STANFORD STE 105,SANTA CLARITA,CA,91355,LOS ANGELES
CA-W-23982,SYNCHRONICIFY LLC,CRUSH VINEYARD,25327 AVENUE STANFORD STE 105,SANTA CLARITA,CA,91355,LOS ANGELES
CA-W-23540,"AJA VINEYARDS, LLC",AJA CELLARS,25327 AVENUE STANFORD UNIT 105,SANTA CLARITA,CA,91355,LOS ANGELES
CA-W-23724,STRAY LEAVES VINEYARD AND WINERY INC.,STRAY LEAVES VINEYARD AND WINERY,25327 AVENUE STANFORD STE 105,SANTA CLARITA,CA,91355,LOS ANGELES
CA-W-22151,STRAY LEAVES VINEYARD LLC,,25327 AVENUE STANFORD STE 105,SANTA CLARITA,CA,91355,LOS ANGELES
CA-W-21798,"PAGTER BROTHERS, LLC",,25327 AVENUE STANFORD STE 105,SANTA CLARITA,CA,91355,LOS ANGELES
CA-W-22175,HOI POLLOI LLC,,25327 AVENUE STANFORD STE 105,SANTA CLARITA,CA,91355,LOS ANGELES
CA-W-21943,IN VINO MUSICAS LLC,,25327 AVENUE STANFORD STE 105,SANTA CLARITA,CA,91355,LOS ANGELES
CA-W-22261,BYRON BLATTY WINES,,25327 AVENUE STANFORD STE 105,SANTA CLARITA,CA,91355,LOS ANGELES
CA-W-22575,DANNY A. MASCARI,MASCARI ENTERPRISES,28964 BOUQUET CANYON RD,SAUGUS,CA,91390,LOS ANGELES
CA-W-16956,LIJEPA PLAVKA LLC,,11155 RUSH ST,SOUTH EL MONTE,CA,91733,LOS ANGELES
CA-W-23492,SAN GABRIEL BREWING LLC,PROGRESS WINE,9617 ALPACA ST,SOUTH EL MONTE,CA,91733,LOS ANGELES
CA-W-23269,"COSMIC BREWERY, LLC",COSMIC BREWERY,20316 GRAMERCY PL,TORRANCE,CA,90501,LOS ANGELES
CA-W-21966,"TRIUNFO CREEK, LLC",TRIUNFO CREEK VINEYARDS,31111 VIA COLINAS,WESTLAKE VILLAGE,CA,91362,LOS ANGELES
CA-W-23973,SMOOCH BEVERAGES USA INC,SMOOCH BEVERAGES USA,31220 LABAYA DR UNIT 115,WESTLAKE VILLAGE,CA,91362,LOS ANGELES
CA-W-23609,JEFFREY DAVID CANTER,S AND J CELLARS,31111 VIA COLINAS,WESTLAKE VILLAGE,CA,91362,LOS ANGELES
CA-W-21958,NABU WINES LLC,,2649 TOWNSGATE RD UNIT 200,WESTLAKE VILLAGE,CA,91361,LOS ANGELES
CA-W-21865,ARCHIUM CELLARS LLC,ARCHIUM CELLARS,31111 VIA COLINAS,WESTLAKE VILLAGE,CA,91362,LOS ANGELES
CA-W-21989,"WORLD WINE SOURCE & EDUCATION, LLC",RANCHO SANTIAGO VINEYARD,31111 VIA COLINAS,WESTLAKE VILLAGE,CA,91362,LOS ANGELES
CA-W-21110,"ALDABELLA CUSTOM CRUSH WINERY & STORAGE, LLC",,31111 VIA COLINAS,WESTLAKE VILLAGE,CA,91362,LOS ANGELES
CA-W-22614,URBAN PRESS SPIRITS LLC,,5220 4TH ST STE 16 & 17,IRWINDALE,CA,91706,LOS ANGELES COUNTY
CA-W-23633,"VDC WINE, LLC",VDC WINE,3225 E FOOTHILL BLVD,PASADENA,CA,91107,LOS ANGELES COUNTY
CA-W-23441,ACRI WINE COMPANY LLC,ACRI WINE COMPANY LLC,25327 AVENUE STANFORD STE 105,SANTA CLARITA,CA,91355,LOS ANGELES COUNTY
CA-W-23132,"SANTA PAULA CELLARS, LLC",SANTA PAULA CELLARS,25327 AVENUE STANFORD STE 105,SANTA CLARITA,CA,91355,LOS ANGELES COUNTY
CA-W-22711,ADAM HASPER,3H WINERY,25327 AVENUE STANFORD STE 105,SANTA CLARITA,CA,91355,LOS ANGELES COUNTY
CA-W-22084,RANCHO DE LOS VIAJEROS VINEYARD LLC,,25327 AVENUE STANFORD STE 105,SANTA CLARITA,CA,91355,LOS ANGELES COUNTY
CA-W-22158,"THE BLENDING LAB, INC.",,25327 AVENUE STANFORD STE 105,SANTA CLARITA,CA,91355,LOS ANGELES COUNTY
CA-W-17676,"QUADY SOUTH WINERY, LLC",QUADY WINERY,13181 ROAD 24,MADERA,CA,93637,MADERA
CA-W-21606,"TOCA MADERA WINERY, INC.",,36146 AVE 9,MADERA,CA,93636,MADERA
CA-W-21420,"GIVENS AND HALPERN, INC.",REGALO VALLEY RANCH,21801 AVENUE 16,MADERA,CA,93637,MADERA
CA-W-15996,"D.P. ENTERPRISES, LP, D. PAPAGNI INVESTMENTS, INC., GP",,9505 ROAD 30 1/2,MADERA,CA,93636,MADERA
CA-W-17182,"RBC GROUP, INC.",BALBAS-AMERICAN WINERY,19500 ROAD 28 1/2,MADERA,CA,93638,MADERA
CA-W-16652,THE WINE GROUP LLC,ALMADEN-MADERA,22004 ROAD 24,MADERA,CA,93638,MADERA
CA-W-23333,"HICKORY FARMS, LLC",,21801 AVENUE 16,MADERA,CA,93637,MADERA
CA-W-20074,"VISTA CELLARS, LLC",VISTA CELLARS,21801 AVENUE 16,MADERA,CA,93637,MADERA
CA-W-2431,"GOLDEN VALLEY GRAPE JUICE AND WINE, LLC",,11770 ROAD 27 1/2,MADERA,CA,93637,MADERA
CA-W-174,"CONSTELLATION BRANDS U.S. OPERATIONS, INC.",MISSION BELL WINERY,12667 ROAD 24,MADERA,CA,93637,MADERA
CA-W-15075,"MARIPOSA WINE COMPANY, LLC",MARIPOSA WINE COMPANY,20146 ROAD 21,MADERA,CA,93637,MADERA
CA-W-15033,E. & J. GALLO WINERY,,31754 AVENUE 9,MADERA,CA,93638,MADERA
CA-W-15271,ANTHONY RICHARD KIRK,BIRDSTONE WINERY,9400 ROAD 36,MADERA,CA,93638,MADERA
CA-W-2636,"PACIFIC CREST VINEYARD & WINE CO., INC.",,33137 AVENUE 9,MADERA,CA,93638,MADERA
CA-W-16054,SAN JOAQUIN WINE COMPANY INC.,SAN JOAQUIN WINE CO.,21801 16 AVE,MADERA,CA,93637,MADERA
CA-W-15451,WEST COAST ACQUISITION COMPANY,SIMPSON MEADOW WINERY,8492 ROAD 20,MADERA,CA,93637,MADERA
CA-W-21372,OAKLAND BEVERAGE GROUP,,9505 ROAD 30-1/2,MADERA,CA,93638,MADERA
CA-W-844,FICKLIN VINEYARDS,,30246 AVENUE 7 1/2,MADERA,CA,93637,MADERA
CA-W-2758,"JEDL ENTERPRISES, INC.",CHATEAU LASGOITY,11207 ROAD 26,MADERA,CA,93637,MADERA
CA-W-22009,NICHOLAS R. DEHART AND ANGELINE K. DEHART,DEHART KARINE WINES,33583 WOODLAND POND TRL,NORTH FORK,CA,93643,MADERA
CA-W-2867,"RAYMOND A. KRAUSE, JR.",WESTBROOK WINE FARM,49610 HOUSE RANCH RD,O NEALS,CA,93645,MADERA
CA-W-21032,"AGROVICE, INC.",FASI ESTATE WINERY,42415 ROAD 208,O'NEALS,CA,93645,MADERA
CA-W-15764,"C & R STRATEGY, INC.",IDLE HOUR WINERY,41139 HIGHWAY 41,OAKHURST,CA,93644,MADERA
CA-W-1110,SEAN HALEY THACKREY,THACKREY & CO.,240 OVERLOOK DR,BOLINAS,CA,94924,MARIN
CA-W-23714,DREW DOWSETT WINES LLC,DREW DOWSETT WINES,500 TAMAL PLAZA STE 516,CORTE MADERA,CA,94925,MARIN
CA-W-847,"F. ROWLAND, HM ROWLAND JR, D. ROWLAND, T. MEVES, ET AL",PACHECO RANCH WINERY,5495 REDWOOD HWY,IGNACIO,CA,94947,MARIN
CA-W-21517,SKYWALKER VINEYARDS LLC,SKYWALKER VINEYARDS,3838 LUCAS VALLEY RD,NICASIO,CA,94946,MARIN
CA-W-16626,DAVID H. MEASE,MOON HILL VINEYARD,275 NICASIO VALLEY RD,NICASIO,CA,94946,MARIN
CA-W-15532,"SARAFORNIA CELLARS, LLC",SAVAGE ESTATE,55 FROSTY LN,NOVATO,CA,94949,MARIN
CA-W-20161,TREK WINERY LLC,SAVAGE ESTATE,1026 MACHIN AVE,NOVATO,CA,94947,MARIN
CA-W-2492,D. BRIAN HESLIP,HESLIP FAMILY WINERY,2075 CENTER RD,NOVATO,CA,94947,MARIN
CA-W-15129,"TERREMOTO CELLARS, LLC",TERREMOTO CELLARS,102 HAMILTON DR STE A,NOVATO,CA,94949,MARIN
CA-W-1106,"KALIN CELLARS, INC.",,61 GALLI DR,NOVATO,CA,94949,MARIN
CA-W-2419,HEIDRUN MEADERY,,11925 STATE ROUTE 1,POINT REYES STATION,CA,94956,MARIN
CA-W-2269,STEPHEN D. DOUGHTY & SHARON M. DOUGHTY,POINT REYES VINEYARDS,12800 HIGHWAY 1,POINT REYES STATION,CA,94956,MARIN
CA-W-22421,ABSENTEE WINERY LLC,ABSENTEE WINERY,14500 POINT REYES PETALUMA RD MILKING BARN,POINT REYES STATION,CA,94956,MARIN
CA-W-2982,"ROSS VALLEY WINERY, INC.",ROSS VALLEY WINERY,343 SAN ANSELMO AVE,SAN ANSELMO,CA,94960,MARIN
CA-W-16035,BOB GLASS,BOB GLASS WINES,63 OAK KNOLL DR,SAN ANSELMO,CA,94960,MARIN
CA-W-23936,"CALIFORNIA WINERY PROPERTIES, LLC",,72 MAIN ST,TIBURON,CA,94920,MARIN
CA-W-20329,JAN LEE,APPLEGARDEN,3875 TOMALES - PETALUMA RD,TOMALES,CA,94971,MARIN
CA-W-1511,JOHN P. GERKEN & COLLEEN K. GERKEN,BUTTERFLY CREEK WINERY,5647 DARRAH RD,MARIPOSA,CA,95338,MARIPOSA
CA-W-21654,RAUCH RANCH VINEYARDS AND WINERY,,3398 BEN HUR RD,MARIPOSA,CA,95338,MARIPOSA
CA-W-23940,SIERRA CIDER LLC,,5585 MEADOW LN,MARIPOSA,CA,95338,MARIPOSA
CA-W-2553,SILVER FAMILY VINEYARDS LLC,SILVER FOX VINEYARDS,4683 MORNING STAR LN,MARIPOSA,CA,95338,MARIPOSA
CA-W-17777,MOUNT BULLION VINEYARD LLC,CASTO OAKS,6947 HIGHWAY 49 NORTH,MARIPOSA,CA,95338,MARIPOSA
CA-W-17411,A. DEAN CARRELL & SUZANNE ARAGO CARRELL,ROMA'S VINEYARD,100001 LONE TREE RIDGE RD,BOONVILLE,CA,95415,MENDOCINO
CA-W-3513,ELKE VINEYARDS LLC,ELKE VINEYARDS,12351 HIGHWAY 128,BOONVILLE,CA,95415,MENDOCINO
CA-W-23186,"VINO PHILO, LLC",,11001 G COUNTY ROAD 151,BOONVILLE,CA,95415,MENDOCINO
CA-W-23185,"LICHEN ESTATE, LLC",,11001 G COUNTY 151 RD,BOONVILLE,CA,95415,MENDOCINO
CA-W-16243,"FOURSIGHT WINES, INC.",,14475 HIGHWAY 128,BOONVILLE,CA,95415,MENDOCINO
CA-W-22183,"SPICY VINES, LLC",SPICY VINES,25475 CLOVERDALE PEAK RD,CLOVERDALE,CA,95425,MENDOCINO
CA-W-3235,JASON J. AND MOLLY N. DREW,DREW FAMILY CELLARS,31351 PHILO-GREENWOOD RD,ELK,CA,95432,MENDOCINO
CA-W-23173,"WENTWORTH VINEYARD AND RANCH, LLC",WENTWORTH VINEYARDS,31351 PHILO GREENWOOD RD,ELK,CA,95432,MENDOCINO
CA-W-22668,P BAXTER WINE SERVICES LLC,,28000 GREENWOOD RD,ELK,CA,95432,MENDOCINO
CA-W-2272,"BAXTER WINERY, INC.",PHILIPPE LORRAINE,28000 GREENWOOD RD,ELK,CA,95432,MENDOCINO
CA-W-2529,"PACIFIC STAR, LLC",,33000 N HIGHWAY 1,FORT BRAGG,CA,95437,MENDOCINO
CA-W-16043,"OLIVINO, INC.",OLIVINO,14200 MOUNTAIN HOUSE RD STE B,HOPLAND,CA,95449,MENDOCINO
CA-W-17072,"PELU PARTNERS, LLC",ROUTE 128 WINERY,22130 MOUNTAIN HOUSE RD,HOPLAND,CA,95449,MENDOCINO
CA-W-21622,DUCKHORN WINE COMPANY,WATERFOWL WINE COMPANY,14100 MOUNTAIN HOUSE RD,HOPLAND,CA,95449,MENDOCINO
CA-W-16703,"STONECUSHION, INC.",JEPSON VINEYARD,10400 S HIGHWAY 101,HOPLAND,CA,95449,MENDOCINO
CA-W-16534,"DARK HORSE WINES, LLC",,14100 MOUNTAIN HOUSE RD,HOPLAND,CA,95449,MENDOCINO
CA-W-17593,"BRUTOCAO CELLARS, BRUTOCAO FAMILY ENTERPRISES, LLC, GP, BRUTOCAO",,1400 HIGHWAY 175,HOPLAND,CA,95449,MENDOCINO
CA-W-23788,MENDOCINO BEVERAGE COMPANY LLC,,365 FELIZ CREEK RD,HOPLAND,CA,95449,MENDOCINO
CA-W-17059,"BERNARD LAWRENCE WINES, GENERAL PARTNERS: BERNARD A. ORSI AND LAW",ORSI PAPALE ESTATE WINES,NOT PROVIDED,HOPLAND,CA,95449,MENDOCINO
CA-W-23286,W.J. DEUTSCH & SONS LTD.,,13300 BUCKMAN DR,HOPLAND,CA,95449,MENDOCINO
CA-W-15142,GOLDEN CELLARS LLC,,14251 OLD RIVER RD,HOPLAND,CA,95449,MENDOCINO
CA-W-23235,"HERITANCE VINTNERS, LLC",SARACINA VINEYARDS,11684 HIGHWAY 101,HOPLAND,CA,95449,MENDOCINO
CA-W-1586,FETZER VINEYARDS,,12625 OLD RIVER RD,HOPLAND,CA,95449,MENDOCINO
CA-W-3108,"STARR MILANO, INC.",MILANO WINERY,14594 S HIGHWAY 101,HOPLAND,CA,95449,MENDOCINO
CA-W-22673,"VINTAGE WINE ESTATES, INC.",CAMERON HUGHES WINE,13300 BUCKMAN DR,HOPLAND,CA,95449,MENDOCINO
CA-W-20195,"CAMPOVIDA WINES, LLC",CAMPOVIDA,13601 OLD RIVER RD,HOPLAND,CA,95449,MENDOCINO
CA-W-23200,MLJ HOLDINGS LLC,TOPEL WINERY,1850 DUNCAN SPRINGS RD,HOPLAND,CA,95449,MENDOCINO
CA-W-2722,"MILDARA BLASS, INC.",WINDSOR VINEYARDS,13300 BUCKMAN DR,HOPLAND,CA,95449,MENDOCINO
CA-W-16362,"GROVE ACQUISITION, LLC",RAY'S STATION,13300 BUCKMAN DR,HOPLAND,CA,95449,MENDOCINO
CA-W-16340,SIEGRUND P C YEILDING & WILLOW ATHENE LALAND-YIELDING,,67442 BELL SPRINGS RD,LAYTONVILLE,CA,95454,MENDOCINO
CA-W-17557,OLD ROAD PRODUCERS LLC,BERGIN-SIPILA VINEYARDS,59861 BELL SPRINGS RD,LAYTONVILLE,CA,95454,MENDOCINO
CA-W-16617,"BEWLEY-MOTLUK FAMILY LIMITED PARTNERSHIP, ROSS STUART BEWLEY, GP",BEWLEY-MOTLUK FAMILY,2000 BAUER RD,LAYTONVILLE,CA,95454,MENDOCINO
CA-W-21645,"LULA CELLARS, LLC",LULA CELLARS,2800 GUNTLEY RD,MENDOCINO,CA,95460,MENDOCINO
CA-W-21235,SIGNAL RIDGE VINEYARDS LLC,SIGNAL RIDGE VINEYARD,9001 HIGHWAY 128,PHILO,CA,95466,MENDOCINO
CA-W-21733,CALIFORNIA CIDER HOUSE LLC,,6400 HIGHWAY 128,PHILO,CA,95403,MENDOCINO
CA-W-2731,"PANTHEA, LLC.",PANTHEA WINERY & VINEYARD,3400 CHARDONNAY LN,PHILO,CA,95466,MENDOCINO
CA-W-16545,DUCKHORN WINE COMPANY,GOLDENEYE,9200 HIGHWAY 128,PHILO,CA,95466,MENDOCINO
CA-W-16760,DUCKHORN WINE COMPANY,GOLDENEYE-GC,7201 HIGHWAY 128,PHILO,CA,95466,MENDOCINO
CA-W-23416,"SILVER OAK WINE CELLARS, LLC",SILVER OAK CELLARS,4741 HIGHWAY 128,PHILO,CA,95466,MENDOCINO
CA-W-21551,VAN WILLIAMSON,WITCHING STICK WINES,8001 NW HIGHWAY 128,PHILO,CA,95466,MENDOCINO
CA-W-23552,BRASHLEY VINEYARDS LLC,,7000 HIGHWAY 128,PHILO,CA,95466,MENDOCINO
CA-W-1180,"HUSCH VINEYARDS, INC.",,4400 HIGHWAY 128,PHILO,CA,95466,MENDOCINO
CA-W-17503,CYNTHIA L. PAULSON & DEBORAH E. SCHATZLEIN,BINK WINES,9001 HWY 128,PHILO,CA,95466,MENDOCINO
CA-W-17427,"HANDLEY CELLARS LIMITED PARTNERSHIP, HC GP INC., GENERAL PARTNER",HANDLEY CELLARS,3151 HIGHWAY 128,PHILO,CA,95466,MENDOCINO
CA-W-15247,"STANDISH WINE COMPANY, LLC",,5101 HWY. 128,PHILO,CA,95466,MENDOCINO
CA-W-2918,"ESTERLINA VINEYARDS & WINERY, LLC",ESTERLINA VINEYARDS & WINERY,1200 HOLMES RANCH RD,PHILO,CA,95466,MENDOCINO
CA-W-15982,NAVARRO VINEYARDS LLC,NAVARRO WINERY,5601 HIGHWAY 128,PHILO,CA,95466,MENDOCINO
CA-W-23240,"PHILLIPS HILL WINERY, LLC",PHILLIPS HILL WINERY,25690 PHILO GREENWOOD RD,PHILO,CA,95466,MENDOCINO
CA-W-22882,"SMITH STORY WINE CELLARS, LLC",SMITH STORY WINE CELLARS,9001 HIGHWAY 128,PHILO,CA,95466,MENDOCINO
CA-W-23095,"THOMAS T. THOMAS VINEYARDS, LLC",THOMAS T. THOMAS VINEYARDS,7581 HIGHWAY 128,PHILO,CA,95466,MENDOCINO
CA-W-17607,"BALO VINEYARDS, LLC",BALO VINEYARDS,9001 HIGHWAY 128,PHILO,CA,95466,MENDOCINO
CA-W-3043,FRED R. BUONANNO & HEATHER A. MCKELVEY,PHILO RIDGE VINEYARDS,27700 NASH MILL RD,PHILO,CA,95466,MENDOCINO
CA-W-16753,"JACKSON FAMILY WINES, INC.",,5500 HIGHWAY 128,PHILO,CA,95466,MENDOCINO
CA-W-3280,VERN BOLTZ,TOULOUSE VINEYARDS,8001 HIGHWAY 128,PHILO,CA,95466,MENDOCINO
CA-W-1711,BOWAR INC.,CLAUDIA SPRINGS WINERY,2160 GUNTLEY RD,PHILO,CA,95466,MENDOCINO
CA-W-1429,"ROEDERER ESTATE, INC.",,4501 HIGHWAY 128,PHILO,CA,95466,MENDOCINO
CA-W-15753,DANIEL F. DOOLING AND VICKI L. DOOLING,MAKAI WINERY,33525 MOUNTAIN VIEW RD,POINT ARENA,CA,95468,MENDOCINO
CA-W-24088,POTTER VALLEY WINE WORKS,,10320 MAIN ST,POTTER VALLEY,CA,95469,MENDOCINO
CA-W-17577,MARY JENNIFER WILSON-SCOTT & JIM SCOTT,NAUGHTY BOY VINEYARDS,10000 GIBSON LN,POTTER VALLEY,CA,95469,MENDOCINO
CA-W-23271,"KIMMEL AND KIMMEL, LLC",KIMMEL AND KIMMEL,12300 HAWN CREEK RD,POTTER VALLEY,CA,95469,MENDOCINO
CA-W-23630,WAYNE KENNETH BAUER,POTTER VALLEY WINE WORKS,10320 MAIN ST,POTTER VALLEY,CA,95469,MENDOCINO
CA-W-3603,"NINA FIELDS VINEYARDS & WINERY, INC",NINA FIELD VINEYARDS & WINERY,11351 BURRIS LN,POTTER VALLEY,CA,95469,MENDOCINO
CA-W-23409,"MCFADDEN VINEYARD, INC.",MCFADDEN VINEYARD,16000 POWERHOUSE RD,POTTER VALLEY,CA,95469,MENDOCINO
CA-W-15211,MICHAEL JOHN GIRARD,MANOIR GIRARD CELLARS,12601 EEL RIVER RD,POTTER VALLEY,CA,95469,MENDOCINO
CA-W-1839,WILLIAM C. PAULI,PAULI RANCH,12507 HAWN CREEK RD,POTTER VALLEY,CA,95469,MENDOCINO
CA-W-2193,"REDWOOD VALLEY CELLARS, L.P.",REDWOOD VALLEY CELLARS,7051 N STATE ST,REDWOOD VALLEY,CA,95470,MENDOCINO
CA-W-21725,"LOLONIS FAMILY VINEYARDS & WINERY, INC.",,1905 ROAD D,REDWOOD VALLEY,CA,95470,MENDOCINO
CA-W-17464,WESTFORK CELLARS LLC,WESTFORK CELLARS,10250 EAST RD,REDWOOD VALLEY,CA,95470,MENDOCINO
CA-W-1645,GREGORY EDWARD GRAZIANO,DOMAINE ST. GREGORY,1170 BEL ARBRES DR,REDWOOD VALLEY,CA,95470,MENDOCINO
CA-W-23812,"BARRA FAMILY WINES, LLC",BARRA OF MENDOCINO,10801 EAST RD,REDWOOD VALLEY,CA,95470,MENDOCINO
CA-W-17620,BROWN FAMILY WINES INC.,,1106 BEL ARBRES DR,REDWOOD VALLEY,CA,95470,MENDOCINO
CA-W-17293,HEIRLOOM WINE GROUP LLC,HEIRLOOM WINE GROUP,7301 N STATE ST,REDWOOD VALLEY,CA,95470,MENDOCINO
CA-W-2026,YORKVILLE CELLARS,,1170 BEL ARBRES DR,REDWOOD VALLEY,CA,95470,MENDOCINO
CA-W-16422,MASUT WINE COMPANY LLC,MASUT WINE COMPANY,301 REEVES CANYON RD,REDWOOD VALLEY,CA,95470,MENDOCINO
CA-W-963,"FREY VINEYARDS, LTD.",,14000 TOMKI RD,REDWOOD VALLEY,CA,95470,MENDOCINO
CA-W-22339,EDWARD LOVAAS & JULIA KELLER,BLUE FOX CELLARS,1170 BEL ARBRES DR,REDWOOD VALLEY,CA,95470,MENDOCINO
CA-W-3477,WILLIAM MARION NEESE & WILLIAM EDWARD NEESE,NEESE VINEYARDS,401 E SCHOOL WAY,REDWOOD VALLEY,CA,95470,MENDOCINO
CA-W-16394,"PINK SANDS, INC.",RIVINO WINERY,4101 COX-SCHRADER RD,UKIAH,CA,95482,MENDOCINO
CA-W-17671,NADIEM HANNA KHOURY,ELKFIELD VINEYARDS,7801 HIGHWAY 20,UKIAH,CA,95482,MENDOCINO
CA-W-17124,"TESTA VINEYARDS, LLC",TESTA VINEYARDS,6400 N STATE ST,UKIAH,CA,95482,MENDOCINO
CA-W-17700,LOUIS EDWARD BOCK,CHANCE CREEK VINEYARDS,501 PARDUCCI RD,UKIAH,CA,95482,MENDOCINO
CA-W-17721,"LUSCIOUS WINES, INC.",,2350 MCNAB RANCH RD,UKIAH,CA,95482,MENDOCINO
CA-W-2732,"MERLO RANCH, L.P.",LAGO DI MERLO,2350 MCNAB RANCH RD,UKIAH,CA,95482,MENDOCINO
CA-W-17458,GOLDEN CELLARS LLC,GOLDEN CELLARS,501 PARDUCCI RD,UKIAH,CA,95482,MENDOCINO
CA-W-16836,KNEZ WINERY CORP,KNEZ WINERY,1001 NELSON RANCH RD,UKIAH,CA,95482,MENDOCINO
CA-W-21245,"VIA PACIFICA US, INC.",ET CETERA WINE COMPANY,2350 MCNAB RANCH RD,UKIAH,CA,95482,MENDOCINO
CA-W-21214,"SIMAINE CELLARS, LLC",SIMAINE CELLARS,3001 S STATE ST STE 42,UKIAH,CA,95482,MENDOCINO
CA-W-15927,"SLJ GROUP, INC.",LIONSTONE INTERNATIONAL,2350 MCNAB RANCH,UKIAH,CA,95482,MENDOCINO
CA-W-23097,"RHYS VINEYARDS, LLC",,1265 MASONITE RD,UKIAH,CA,95482,MENDOCINO
CA-W-23943,SPECIAL BARBECUE WINE CO. LLC,,1001 NELSON RANCH RD,UKIAH,CA,95482,MENDOCINO
CA-W-24093,AVALINE LTD,AVALINE,501 PARDUCCI RD,UKIAH,CA,95482,MENDOCINO
CA-W-1041,RUSSELL M. AND ANN C. NYBORG,WHALER VINEYARDS,6201 OLD RIVER RD,UKIAH,CA,95482,MENDOCINO
CA-W-2710,"MICHAEL MERCIER WINERY, LTD",MICHAEL MERCIER WINERY,4921 OLD RIVER RD,UKIAH,CA,95482,MENDOCINO
CA-W-22028,UKIAH WINE CACHE LLC,,160 PARDUCCI RD,UKIAH,CA,95482,MENDOCINO
CA-W-1981,"HUSCH VINEYARDS, INC.",,2401 OLD RIVER RD,UKIAH,CA,95482,MENDOCINO
CA-W-3460,"NELSON AND SONS, INCORPORATED",NELSON FAMILY VINEYARDS,550 NELSON RANCH RD,UKIAH,CA,95482,MENDOCINO
CA-W-16755,MARIO MICHAEL ROSATI AND DANELLE STORM ROSATI,ROSATI FAMILY WINERY,1001 NELSON RANCH RD,UKIAH,CA,95482,MENDOCINO
CA-W-23261,NYBORG WINE COMPANY LLC,,6201 OLD RIVER RD,UKIAH,CA,95482,MENDOCINO
CA-W-16098,"YOKAYO WINE COMPANY, INC.",YOKAYO WINE COMPANY,301 W LAKE MENDOCINO DR,UKIAH,CA,95482,MENDOCINO
CA-W-21371,"TRINITY VALLEY VINEYARDS, LLC",SUN VALLEY VINEYARDS,1001 NELSON RANCH RD,UKIAH,CA,95482,MENDOCINO
CA-W-22695,SAMANTHA AND RACHEL RUDDICK,,1001 NELSON RANCH RD,UKIAH,CA,95482,MENDOCINO
CA-W-17304,TRE BELLI LLC,TRE BELLI,501 PARDUCCI RD,UKIAH,CA,95482,MENDOCINO
CA-W-2348,"CONSTELLATION BRANDS U.S. OPERATIONS, INC.",,2399 N STATE ST,UKIAH,CA,95482,MENDOCINO
CA-W-2729,"MCNAB RIDGE WINERY, LLC",MCNAB RIDGE WINERY,2350 MCNAB RANCH RD,UKIAH,CA,95482,MENDOCINO
CA-W-2402,"W.G. BEST WEINKELLEREI, INC.",MONTESQUIEU,2350 MCNAB RANCH RD,UKIAH,CA,95482,MENDOCINO
CA-W-22520,"FLAGSHIP BRANDS, INC.",FLAGSHIP BRANDS,2350 MCNAB RANCH RD,UKIAH,CA,95482,MENDOCINO
CA-W-23039,MAHALA WINES LLC,,160 PARDUCCI RD,UKIAH,CA,95482,MENDOCINO
CA-W-21991,ROBERTS' & ROGER'S LLC,ROBERTS AND ROGERS,2350 MCNAB RANCH RD,UKIAH,CA,95482,MENDOCINO
CA-W-21866,BENISON VINEYARDS & WINERY,,2350 MCNAB RANCH RD,UKIAH,CA,95482,MENDOCINO
CA-W-22428,INGER MATTERN,LOST IN THE CELLAR,6201 OLD RIVER RD,UKIAH,CA,95482,MENDOCINO
CA-W-15116,"MENDOCINO WINE GROUP, LLC",MENDOCINO WINE GROUP,501 PARDUCCI RD,UKIAH,CA,95482,MENDOCINO
CA-W-16919,"AEROVIN, LLC",REGENCY WINE GROUP,2350 MCNAB RANCH RD,UKIAH,CA,95482,MENDOCINO
CA-W-16466,"M. DRAXTON, INC.",DRAXTON WINES,2350 MCNAB RANCH RD,UKIAH,CA,95482,MENDOCINO
CA-W-3316,HOLLIS RAE HARMAN & ERIC BERNARD LEVIN,LE VIN WINERY & VINEYARDS,33151 HIGHWAY 128,YORKVILLE,CA,95494,MENDOCINO
CA-W-21570,"JUDSON HALE WINERY, INC.",,22000 HULBERT RD,YORKVILLE,CA,95494,MENDOCINO
CA-W-15158,"MEYER CELLARS, LLC",MEYER CELLARS,19750 HIGHWAY 128,YORKVILLE,CA,95494,MENDOCINO
CA-W-17730,"MAPLE CREEK PARTNERS, LLC",,20799 HIGHWAY 128,YORKVILLE,CA,95494,MENDOCINO
CA-W-2677,"MEYER FAMILY PORT, LLC",MEYER FAMILY CELLARS,19750 HIGHWAY 128,YORKVILLE,CA,95494,MENDOCINO
CA-W-23804,WEATHERBORNE WINE CORP.,,1001 NELSON RANCH RD,UKIAH,CA,95482,MENDOCINO COUNTY
CA-W-22024,"METTLER WINES, LLC",METTLER FAMILY VINEYARDS,2350 MCNAB RANCH RD,UKIAH,CA,95482,MENDOCINO COUNTY
CA-W-22025,DESIREA L MONAHAN,LE GRAND BERRY FARMS,9545 MARIPOSA WAY,LE GRAND,CA,95333,MERCED
CA-W-565,E. & J. GALLO WINERY,LERAXA WINERY,18000 RIVER RD,LIVINGSTON,CA,95334,MERCED
CA-W-15858,ARLAN THOMAS,,NOT PROVIDED,MERCED,CA,95340,MERCED
CA-W-17687,JOHN J STRINGER,STRINGER'S ORCHARD,60090 HWY 395,NEW PINE CREEK,CA,97635,MODOC
CA-W-22012,BLOODY POINT WINERY LLC,BLOODY POINT VINEYARD AND WINERY,7624 N COUNTY RD 114,TULELAKE,CA,96134,MODOC
CA-W-24030,MESSIER VINEYARDS LLC,MESSIER VINEYARDS,701 ALTA ST,GONZALES,CA,93926,MONETREY
CA-W-3398,MINTON & MANISSE NEWELL TRUSTEE NEWELL FAMILY TRT (COMMENTS),NEWELL VINEYARDS,51210 BRADLEY-LOCKWOOD RD,BRADLEY,CA,93426,MONTEREY
CA-W-22352,CULT OF 8,FOLKTALE,8940 CARMEL VALLEY RD,CARMEL,CA,93923,MONTEREY
CA-W-21161,"COWGIRL WINERY, LLC",COWGIRL WINERY,18201 CACHAGUA RD,CARMEL VALLEY,CA,93924,MONTEREY
CA-W-15784,SALVATORE F. ROMBI,SALVATORE ROMBI WINERY,26 TRAMPA CANYON,CARMEL VALLEY,CA,93924,MONTEREY
CA-W-16770,"PRIVATE CAPITAL STRATEGIES, INC.",SECRET GARDEN CELLARS,26365 JEANETTE RD,CARMEL VALLEY,CA,93924,MONTEREY
CA-W-21182,"CARMELO VINEYARDS, LLC",,124 E CARMEL VALLEY RD,CARMEL VALLEY,CA,93924,MONTEREY
CA-W-22208,HAMMLER WINE CORP.,JOULLIAN VINEYARDS,20300 CACHAGUA RD,CARMEL VALLEY,CA,93924,MONTEREY
CA-W-23480,PELIO VINEYARD LLC,PELIO VINEYARDS,60 HOLMAN RD,CARMEL VALLEY,CA,93924,MONTEREY
CA-W-23990,EDWARD LOVAAS & JULIA KELLER,BLUE FOX CELLARS,25 PILOT RD BLDG B,CARMEL VALLEY,CA,93924,MONTEREY
CA-W-3067,LYNN J. SAKASEGAWA & PAUL J. STOKES,CARMEL HILLS WINERY,11700 CAMINO ESCONDIDO,CARMEL VALLEY,CA,93924,MONTEREY
CA-W-23647,FERRARO FAMILY WINES LLC,FERRARO FAMILY WINES,17793 CACHAGUA RD,CARMEL VALLEY,CA,93924,MONTEREY
CA-W-23702,TIRA NANZA WINES LLC,TIRA NANZA WINES,18181 CACHAGUA RD,CARMEL VALLEY,CA,93924,MONTEREY
CA-W-15796,"RANCHO SIN FRENOS, LLC",RANCHO SIN FRENOS,33757 CARMEL VALLEY RD,CARMEL VALLEY,CA,93924,MONTEREY
CA-W-2049,"GALANTE FAMILY WINERY, INC.",GALANTE VINEYARDS,18181 CACHAGUA RD,CARMEL VALLEY,CA,93924,MONTEREY
CA-W-20218,DAWN'S DREAM LLC,DAWN'S DREAM,18181 CACHAGUA RD,CARMEL VALLEY,CA,93924,MONTEREY
CA-W-23160,"SWIRLING HAWK VINEYARDS, LLC",,11721 HIDDEN VALLEY RD,CARMEL VALLEY,CA,93924,MONTEREY
CA-W-23114,"R. DEBAUCHE WINERY, LLC",,37509 TASSAJARA RD,CARMEL VALLEY,CA,93924,MONTEREY
CA-W-22968,"MASSA'S PAVO REAL CELLARS, LLC",MASSA ESTATE,18820 CACHAGUA RD,CARMEL VALLEY,CA,93924,MONTEREY
CA-W-17292,"HOLMAN RANCH, LLC",HOLMAN RANCH,60 HOLMAN RD,CARMEL VALLEY,CA,93924,MONTEREY
CA-W-16556,RAYMOND V. SMITH,INDIGENE CELLARS,18181 CACHAGUA RD,CARMEL VALLEY,CA,93924,MONTEREY
CA-W-2974,BERNARDUS LLC,BERNARDUS,21810 PARROTT RANCH RD,CARMEL VALLEY,CA,93924,MONTEREY
CA-W-3264,ALHONA VINEYARDS LLC,ALHONA VINEYARDS,19356 CACHAGUA RD,CARMEL VALLEY,CA,93924,MONTEREY
CA-W-17738,DRENCH LLC,DRENCH,60 HOLMAN RD,CARMEL VALLEY,CA,93924,MONTEREY
CA-W-3626,"CMR, LLC","CHESEBRO WINES, CMR WINERY",37509 TASSAJARA RD,CARMEL VALLEY,CA,93924,MONTEREY
CA-W-2041,MONTEREY WINE AND PRODUCE CORPORATION,A TASTE OF MONTEREY,20300 CACHAGUA RD,CARMEL VALLEY,CA,93924,MONTEREY
CA-W-3070,WILLIAM J. AND JANA G. SAUNDERS,BOETE WINERY,67 E CARMEL VALLEY RD,CARMEL VALLEY,CA,93924,MONTEREY
CA-W-21315,SCOTT SHAPLEY AND LAURA HOOVER,FLYWHEEL WINES,11005 COMMERCIAL PKWY,CASTROVILLE,CA,95012,MONTEREY
CA-W-15423,"GARY FRANSCIONI & SONS, INC.",ROAR WINES,11005 COMMERCIAL PKWY,CASTROVILLE,CA,95012,MONTEREY
CA-W-24054,"FORWARD DRINKING, LLC",MINI VACAY WINES,11005 COMMERCIAL PKWY,CASTROVILLE,CA,95012,MONTEREY
CA-W-15514,"CONSTELLATION BRANDS U.S. OPERATIONS, INC.",,800 S ALTA ST,GONZALES,CA,93926,MONTEREY
CA-W-17511,"TUDOR WINES, INC.",TUDOR WINES,32720 RIVER RD,GONZALES,CA,93926,MONTEREY
CA-W-23844,DAWN'S DREAM LLC,DAWN'S DREAM,701 ALTA ST,GONZALES,CA,93926,MONTEREY
CA-W-17667,RF WINES LLC,RAY FRANSCIONI,32720 RIVER RD,GONZALES,CA,93926,MONTEREY
CA-W-17011,"CARACCIOLI CELLARS, INC.",CARACCIOLI CELLARS,701 ALTA ST,GONZALES,CA,93926,MONTEREY
CA-W-21316,J. LOHR WINERY CORPORATION,,39502 CYPRESS AVE,GREENFIELD,CA,93927,MONTEREY
CA-W-21674,STRATEGY PARTNERS INTERNATIONAL,WINDY OAKS ESTATE,1972 HOBSON AVE,GREENFIELD,CA,93927,MONTEREY
CA-W-15969,WENTE BROS.,,37995 W ELM AVE,GREENFIELD,CA,93927,MONTEREY
CA-W-15319,SCHEID VINEYARDS CALIFORNIA INC.,SCHEID WINERY,1972 HOBSON AVE,GREENFIELD,CA,93927,MONTEREY
CA-W-16936,ROBERT & BARBARA MADSEN,SYCAMORE CELLARS,45185 ARROYO SECO RD,GREENFIELD,CA,93927,MONTEREY
CA-W-16188,MESA DEL SOL WINE CELLAR INC.,MESA DEL SOL VINEYARDS,45803 ARROYO SECO RD,GREENFIELD,CA,93927,MONTEREY
CA-W-15497,DAN H. & KATHLEEN L. KARLSEN,CHOCK ROCK VINEYARD,42875 E CARMEL VALLEY RD,GREENFIELD,CA,93927,MONTEREY
CA-W-20150,"SHALE CANYON WINERY, LLC",SHALE CANYON WINES,32930 SYCAMORE FLAT RD,GREENFIELD,CA,93927,MONTEREY
CA-W-22135,"AGAJANIAN, INC.",AGAJANIAN VINEYARDS AND WINE COMPANY,1972 HOBSON AVE,GREENFIELD,CA,93927,MONTEREY
CA-W-17716,"PLATA WINE PARTNERS, LLC",,1010 INDUSTRIAL WAY,KING CITY,CA,93930,MONTEREY
CA-W-21192,WOMEN OF THE VINE LLC,WOMEN OF THE VINE SELECTIONS,1010 INDUSTRIAL WAY,KING CITY,CA,93930,MONTEREY
CA-W-21191,"ROSE BROS. WINERY, LLC.",,1010 INDUSTRIAL WAY,KING CITY,CA,93940,MONTEREY
CA-W-3222,"MONTEREY WINE COMPANY, LLC",MMONTEREY WINE COMPANY,1010 INDUSTRIAL WAY,KING CITY,CA,93930,MONTEREY
CA-W-21613,"BONNY DOON WINERY, INC.",,1010 INDUSTRIAL WAY,KING CITY,CA,93930,MONTEREY
CA-W-17645,"ARPENT, LLC",BIRICHINO,1010 INDUSTRIAL WAY,KING CITY,CA,93930,MONTEREY
CA-W-22225,"AMERICAN VINTNERS, LLC",AMERICAN VINTNERS,1010 INDUSTRIAL WAY,KING CITY,CA,93930,MONTEREY
CA-W-16892,"FILINI WINE COMPANY, LLC",FILINI WINE GROWERS,1010 INDUSTRIAL WAY,KING CITY,CA,93930,MONTEREY
CA-W-17498,J. A. SILVA,,1010 INDUSTRIAL WAY,KING CITY,CA,93930,MONTEREY
CA-W-1924,DELICATO VINEYARDS,DELICATO MONTEREY,51955 OASIS RD,KING CITY,CA,93930,MONTEREY
CA-W-16754,"STUDER ENTERPRISES, INC.",,1010 INDUSTRIAL WAY,KING CITY,CA,93930,MONTEREY
CA-W-22251,ELEVATE BEVERAGE INC.,,1010 INDUSTRIAL WAY,KING CITY,CA,93930,MONTEREY
CA-W-21649,PATRICK D OAKES & WANDA E OAKES,G. AMANI VINEYARD,50105 ADOBE PL,LOCKWOOD,CA,93447,MONTEREY
CA-W-17343,"PIERCE RANCH VINEYARDS, LLC",PIERCE RANCH VINEYARDS,53523 BRADLEY LOCKWOOD RD,LOCKWOOD,CA,93932,MONTEREY
CA-W-23798,12EC LLC,12EC,53600 BRADLEY LOCKWOOD RD,LOCKWOOD,CA,93932,MONTEREY
CA-W-15383,KENNETH FREDERICK JONES,VOLO DEL CORVO WINERY,65401 CROSS RD,LOCKWOOD,CA,93932,MONTEREY
CA-W-17728,"COASTVIEW VINEYARD, LLC",COASTVIEW VINEYARD,3348 PAUL DAVIS DR STE 101,MARINA,CA,93933,MONTEREY
CA-W-17715,LENORA CAREY,BIG SUR VINEYARDS,3348 PAUL DAVIS DR STE 101,MARINA,CA,93933,MONTEREY
CA-W-23529,ALBATROSS RIDGE LLC,ALBATROSS RIDGE,3344 PAUL DAVIS DR UNIT 6,MARINA,CA,93933,MONTEREY
CA-W-23569,BRANDEN A. HAMBY,HAMBY CELLARS,3348 PAUL DAVIS DR STE 101,MARINA,CA,93933,MONTEREY
CA-W-23568,VITIS JENIFERA LLC,,3348 PAUL DAVIS DR STE 101,MARINA,CA,93933,MONTEREY
CA-W-22681,COMANCHE CELLARS LLC,COMANCHE CELLARS,3344 PAUL DAVIS DR UNIT 7,MARINA,CA,93933,MONTEREY
CA-W-23069,"TOUCHSTONE CELLARS, LLC",TOUCHSTONE WINERY,3348 PAUL DAVIS DR STE 100 - 103,MARINA,CA,93933,MONTEREY
CA-W-16912,"FUTUREWINE, LLC",MERCY VINEYARDS,3348 PAUL DAVIS DR STE 101,MARINA,CA,93933,MONTEREY
CA-W-23539,CARMEL RANCH CORPORATION,CARMEL RIDGE WINERY,700 CANNERY ROW STE C,MONTEREY,CA,93940,MONTEREY
CA-W-21946,TIM HARRIS,VINO GIULIANA,953 ROOSEVELT ST,MONTEREY,CA,93940,MONTEREY
CA-W-22000,"THE WINE EXPERIENCE, LLC",THE WINE EXPERIENCE,381 CANNERY ROW STE N,MONTEREY,CA,93940,MONTEREY
CA-W-22274,"DOC PEPE'S LAB, LLC",DOC PEPE'S LAB,2700 GARDEN RD STE A-3,MONTEREY,CA,93940,MONTEREY
CA-W-16818,"LUCIA HIGHLANDS VINEYARD, INC.",LUCIA HIGHLANDS VINEYARD,1645 RIVER RD,SALINAS,CA,93908,MONTEREY
CA-W-23588,BROCATENY LLC,BREA WINES,1367 DAYTON ST UNIT B & D,SALINAS,CA,93901,MONTEREY
CA-W-21393,MARK DIORIO,DIORIO CELLARS,645 RIVER RD,SALINAS,CA,93908,MONTEREY
CA-W-1744,"MORGAN WINERY, INC.",,526 BRUNKEN AVE STE B,SALINAS,CA,93901,MONTEREY
CA-W-21433,"JOYCE VINEYARDS, LLC",JOYCE VINEYARDS,1341 DAYTON ST STE D & G,SALINAS,CA,93901,MONTEREY
CA-W-22493,AUSTIN HARLOW WINERY INC.,MID LIFE CRISIS WINES,1341 DAYTON ST UNIT G,SALINAS,CA,93901,MONTEREY
CA-W-2905,"DE TIERRA VINEYARD, LLC",DE TIERRA VINEYARD,1341 DAYTON ST STE G,SALINAS,CA,93901,MONTEREY
CA-W-17027,"JOHN & SUSAN'S WINERY, LLC",VINTNER'S CELLAR CUSTOM WINERY,238 MAIN ST,SALINAS,CA,93901,MONTEREY
CA-W-3167,"DE TIERRA VINEYARD, LLC",,503 CORRAL DE TIERRA RD,SALINAS,CA,93908,MONTEREY
CA-W-23754,FENNACY WINE COMPANY LLC,REPUBLICAN RED,1645 RIVER RD,SALINAS,CA,93908,MONTEREY
CA-W-23847,RUSTIQUE WINES LLC,RUSTIQUE WINES,1010 RIVER RD,SALINAS,CA,93908,MONTEREY
CA-W-17496,REGINALD HAMMOND,HAMMOND VINEYARDS,645 RIVER RD,SALINAS,CA,93908,MONTEREY
CA-W-23428,"SLING & STONE WINES, INC.",SLING & STONE WINES,645 RIVER RD,SALINAS,CA,93908,MONTEREY
CA-W-23311,BIG SUR WINE COMPANY,BIG SUR VINEYARDS,1341 DAYTON ST STE D-G,SALINAS,CA,93901,MONTEREY
CA-W-16411,MER ET SOLEIL LLC,MER ET SOLEIL,1290 RIVER RD,SALINAS,CA,93908,MONTEREY
CA-W-23272,ODONATA WINERY,ODONATA WINERY,645 RIVER RD,SALINAS,CA,93908,MONTEREY
CA-W-16316,"OTTER COVE, LLC",OTTER COVE WINES,1645 RIVER RD,SALINAS,CA,93908,MONTEREY
CA-W-17223,CHUALAR CANYON WINERY LLC,CHUALAR CANYON WINERY,1367 DAYTON ST UNIT B,SALINAS,CA,93901,MONTEREY
CA-W-22962,"BELL FAMILY VINEYARDS, LLC",CORRAL WINE CO.,484 CORRAL DE TIERRA RD,SALINAS,CA,93908,MONTEREY
CA-W-22778,ALBATROSS RIDGE LLC,ALBATROSS RIDGE,1341 DAYTON ST STE E-G,SALINAS,CA,93901,MONTEREY
CA-W-22284,"COVENTRY WINES, INC",COVENTRY WINES,607 BRUNKEN AVE UNIT 3-4,SALINAS,CA,93901,MONTEREY
CA-W-17765,E. & J. GALLO WINERY,ROBERT TALBOTT VINEYARDS & WINERY,1380 RIVER ROAD,SALINAS,CA,93908,MONTEREY
CA-W-15263,"PWG, LLC",PESSAGNO WINERY,1645 RIVER RD,SALINAS,CA,93908,MONTEREY
CA-W-21895,"STEFANIA WINE, LLC",STEFANIA WINE,1367 DAYTON ST STE B & C,SALINAS,CA,93901,MONTEREY
CA-W-16112,"CONUNDRUM WINERY, LLC",CONUNDRUM,1290 RIVER RD BLDG #2,SALINAS,CA,93908,MONTEREY
CA-W-23239,DEANOUX CELLARS,BON NICHE,2627 GOLDEN EAGLE WAY,SAN MIGUEL,CA,92344,MONTEREY
CA-W-21279,"KRUSHWERKS, LLC",,59020 PARIS VALLEY RD,SAN LUCAS,CA,93954,MONTEREY
CA-W-22838,"SMASHING BOTTLES, INC.",,59020 PARIS VALLEY RD,SAN LUCAS,CA,93954,MONTEREY
CA-W-23077,RANCHITA CANYON WINE PARTNERS LLC,J & J CELLARS,59020 PARIS VALLEY RD,SAN LUCAS,CA,93954,MONTEREY
CA-W-3620,GARY ALAN SINNET,CHATEAU SINNET,1182 BROADWAY AVE,SEASIDE,CA,93955,MONTEREY
CA-W-2477,"JACKSON FAMILY WINES, INC.",KENDALL-JACKSON .,37300 DOUD RD,SOLEDAD,CA,93960,MONTEREY
CA-W-16596,MANZONI ESTATE VINEYARD LLC,MANZONI ESTATE VINEYARD,30981 RIVER RD,SOLEDAD,CA,93960,MONTEREY
CA-W-1516,HAHN ESTATE,,37700 FOOTHILL RD,SOLEDAD,CA,93960,MONTEREY
CA-W-17379,"INDIGO WINE COMPANY, INC.",LAUMANN FAMILY ESTATE WINES,35801 FOOTHILL RD,SOLEDAD,CA,93960,MONTEREY
CA-W-2353,GOLDEN STATE VINTNERS,,1777 METZ RD,SOLEDAD,CA,93960,MONTEREY
CA-W-17795,SABRINE MARIE RODEMS,SCRATCH WINES,35801 FOOTHILL RD,SOLEDAD,CA,93960,MONTEREY
CA-W-2131,"TPWC, INC.",STONEWALL CANYON WINERY AND VINEYARD,980 BRYANT CANYON,SOLEDAD,CA,93960,MONTEREY
CA-W-23255,MENIKETTI WINES LLC,MENIKETTI WINES,35801 FOOTHILL RD,SOLEDAD,CA,93960,MONTEREY
CA-W-23146,SCHEID VINEYARDS CALIFORNIA INC.,,34954 METZ RD,SOLEDAD,CA,93960,MONTEREY
CA-W-23232,KORI WINES LLC,KORI WINES,35801 FOOTHILL RD,SOLEDAD,CA,93960,MONTEREY
CA-W-15826,"VENTANA VINTNERS, LLC",VENTANA VINEYARDS,38740 LOS COCHES RD,SOLEDAD,CA,93960,MONTEREY
CA-W-3556,"SHEPPARD WINES, LLC",,38060 PARAISO SPRINGS RD,SOLEDAD,CA,93960,MONTEREY
CA-W-22144,"FOLEY FAMILY WINES, INC.",CHALONE VINEYARD,32020 STONEWALL CANYON RD,SOLEDAD,CA,93960,MONTEREY
CA-W-1716,RICHARD & CLAUDIA SMITH TRUSTEE OF THE RICHARD R. SMITH FAMILY TRUST,PARAISO SPRINGS VINEYARDS,38060 PARAISO SPRINGS RD,SOLEDAD,CA,93960,MONTEREY
CA-W-22037,"LEPE CELLARS, LLC",LEPE CELLARS,35801 FOOTHILL DR,SOLEDAD,CA,93960,MONTEREY
CA-W-21123,"BLAIR VINEYARDS, LLC",BLAIR ESTATE,"38582 HIGHWAY 101, SOUTH",SOLEDAD,CA,93960,MONTEREY
CA-W-2176,"SAN SABA VINEYARDS, INC.",WRATH WINES,35801 FOOTHILL RD,SOLEDAD,CA,93960,MONTEREY
CA-W-16261,"BOEKENOOGEN WINERY, LLC",BOEKENOOGEN,33520 FAIRVIEW RD,SOLEDAD,CA,93960,MONTEREY
