PERMIT NUMBER,OWNER NAME,OPERATING NAME,STREET,CITY,STATE,ZIP,COUNTY
CA-W-22233,"D'VINE INTERVENTION, LLC",D'VINE INTERVENTION,110 DODD CT,AMERICAN CANYON,CA,94503,NAPA
CA-W-15806,DEAN THOMAS HART,RIGART GARAGE WINERY,89 DONALDSON WAY,AMERICAN CANYON,CA,94503,NAPA
CA-W-23218,FOUR BEARS WINERY LLC,FOUR BEARS WINERY,205 JIM OSWALT WAY STE A,AMERICAN CANYON,CA,94503,NAPA
CA-W-23711,HOVERING HAWK LLC,,100 NAPA JUNCTION RD,AMERICAN CANYON,CA,95403,NAPA
CA-W-22809,"INFINITY BOTTLING, LLC",,677 HANNA DR STE B,AMERICAN CANYON,CA,94503,NAPA
CA-W-22733,"LAIRD FAMILY ESTATE, LLC",SUNRISE RANCH WINERY,1 KIRKLAND RANCH RD,AMERICAN CANYON,CA,94503,NAPA
CA-W-16147,MAS WINE COMPANY LLC,MAS WINE CO.,205 JIM OSWALT WAY SUITE A,AMERICAN CANYON,CA,94503,NAPA
CA-W-21353,"MIOCENE WINE, LLC",NAPA JUNCTION CUSTOM CRUSH,100 NAPA JUNCTION RD,AMERICAN CANYON,CA,94503,NAPA
CA-W-23253,"NAKEDWINES.COM, INC.","NAKEDWINES.COM, INC.",677 HANNA DR STE B,AMERICAN CANYON,CA,94503,NAPA
CA-W-22810,POPCORN DESIGN LLC,PROSPECT BRANDS,677 HANNA DR STE B,AMERICAN CANYON,CA,94503,NAPA
CA-W-24071,PRESTIGE WORLDWIDE WINE COMPANY LLC,INFINITY BOTTLING,677 HANNA DR,AMERICAN CANYON,CA,94503,NAPA
CA-W-22301,"ROOTS RUN DEEP, LLC",,1 KIRKLAND RANCH RD,AMERICAN CANYON,CA,94503,NAPA
CA-W-3424,THE HESS COLLECTION WINERY,,1166 COMMERCE BLVD,AMERICAN CANYON,CA,94503,NAPA
CA-W-24025,"WARROOM VENTURES, LLC",WARROOM CELLARS,677 HANNA DR STE B,AMERICAN CANYON,CA,94503,NAPA
CA-W-20293,"WORLD'S END, LLC",WORLD'S END,100 NAPA JUNCTION RD,AMERICAN CANYON,CA,94503,NAPA
CA-W-17717,"PLATA WINE PARTNERS, LLC",,677 HANNA DR SUITE B,AMERICAN CYN,CA,94503,NAPA
CA-W-17810,"WINERY EXCHANGE, INC.",,1 KIRKLAND RNCH,AMERICAN CYN,CA,94503,NAPA
CA-W-16564,"ADAMVS, LLC",ADAMVS,555 COLLEGE AVE,ANGWIN,CA,94508,NAPA
CA-W-20382,AHA PARTNERS LLC,MEMENTO MORI,335 WEST LN,ANGWIN,CA,94508,NAPA
CA-W-22109,"AMB WINE CELLARS, LLC",AMB WINE CELLARS,335 WEST LN,ANGWIN,CA,94508,NAPA
CA-W-16476,"ARKENSTONE VINEYARDS, LLC",ARKENSTONE VINEYARDS,335 WEST LN,ANGWIN,CA,94508,NAPA
CA-W-21580,"AS VINEYARDS, LLC",SODHANI WINERY,2075 SUMMIT LAKE DR,ANGWIN,CA,94508,NAPA
CA-W-22756,BEATTY WINES LLC,,2000 SUMMIT LAKE DR,ANGWIN,CA,94508,NAPA
CA-W-22177,"BLACK SEARS ESTATE WINES, LLC",BLACK SEARS,2075 SUMMIT LAKE DR,ANGWIN,CA,94508,NAPA
CA-W-22926,"BLANTON FAMILY VINEYARDS, LLC",SELAH WINES,2075 SUMMIT LAKE DR,ANGWIN,CA,94508,NAPA
CA-W-16653,"BLUE HALL, LLC",BLUE HALL VINEYARD,994 WHITE COTTAGE RD,ANGWIN,CA,94508,NAPA
CA-W-2937,"CHIARELLO FAMILY VINEYARDS, LLC",CHIARELLO FAMILY VINEYARDS,2075 SUMMIT LAKE DR,ANGWIN,CA,94508,NAPA
CA-W-16973,"CORNELL FARMS, LLC",CORNELL FARMS,335 WEST LN,ANGWIN,CA,94508,NAPA
CA-W-23894,"CROSSED ARROWS WINE, LLC",COVEY & LINN WINE,2000 SUMMIT LAKE DR,ANGWIN,CA,94508,NAPA
CA-W-3084,"DIAMOND TERRACE VINEYARDS, LLC",DIAMOND TERRACE,2075 SUMMIT LAKE DR,ANGWIN,CA,94508,NAPA
CA-W-20010,DIAMOND VINE LLC,PADIS VINEYARDS,1300 SUMMIT LAKE DR,ANGWIN,CA,94508,NAPA
CA-W-21676,DREAM SIECKERS LLC,,994 WHITE COTTAGE RD N,ANGWIN,CA,94508,NAPA
CA-W-1159,"DUNN VINEYARDS, LLC",,805 WHITE COTTAGE RD,ANGWIN,CA,94508,NAPA
CA-W-22653,"DUTCH CANYON, LLC",HEIMARK FAMILY VINEYARD,335 WEST LN,ANGWIN,CA,94508,NAPA
CA-W-2782,DYER STRAITS WINE COMPANY LLC,DYER STRAITS WINE COMPANY,335 W LANE,ANGWIN,CA,94508,NAPA
CA-W-22543,FAIRCHILD NAPA VALLEY LLC,FAIRCHILD NAPA VALLEY,335 WEST LN,ANGWIN,CA,94508,NAPA
CA-W-21197,"HEIBEL RANCH VINEYARDS, LLC",HEIBEL RANCH VINEYARDS,2000 SUMMIT LAKE DR,ANGWIN,CA,94508,NAPA
CA-W-15943,"HOWELL MOUNTAIN VINEYARD COMPANY, LLC",BRAVANTE VINEYARDS,330 STONERIDGE RD,ANGWIN,CA,94508,NAPA
CA-W-17370,"J. PETERSON FAMILY WINE COMPANY, LLC",SWITCHBACK RIDGE,1300 SUMMIT LAKE DR,ANGWIN,CA,94508,NAPA
CA-W-16493,"JACKSON FAMILY WINES, INC.",LA JOTA WINERY,1102 LAS POSADAS RD,ANGWIN,CA,94508,NAPA
CA-W-15389,JAMES KELLOGG WHEAT,29 SONGS,716 LIPARITA RD,ANGWIN,CA,94508,NAPA
CA-W-23690,JENNAMARISE WINES LLC,JENNAMARISE WINES,1300 SUMMIT LAKE DR,ANGWIN,CA,94508,NAPA
CA-W-23506,JONATHAN M. JONES,PARAVEL WINES,994 N WHITE COTTAGE LN,ANGWIN,CA,94508,NAPA
CA-W-23603,"K.J. GELLIS, LLC",BLUE MONSTER,1181 LAS POSADAS RD,ANGWIN,CA,94508,NAPA
CA-W-16913,"LAIL VINEYARDS, LLC",LAIL VINEYARDS,335 WEST LN,ANGWIN,CA,94508,NAPA
CA-W-22952,LM SHELTON VINEYARD LLC,CAMI VINEYARDS,2075 SUMMIT LAKE DR,ANGWIN,CA,94508,NAPA
CA-W-22480,MAXEM WINES LLC,MAXEM WINES,335 WEST LN,ANGWIN,CA,94508,NAPA
CA-W-22774,MCSCHERK GRAPE HOLDINGS LLC,ALMACERRO,1181 LAS POSADAS RD,ANGWIN,CA,94508,NAPA
CA-W-16018,METEOR VINEYARD LLC,METEOR VINEYARD,335 WEST LANE,ANGWIN,CA,94508,NAPA
CA-W-2824,NEAL FAMILY VINEYARDS LLC,NEAL FAMILY VINEYARDS,716 LIPARITA RD,ANGWIN,CA,94508,NAPA
CA-W-3085,O'SHAUGHNESSY DEL OSO LLC,,1150 FRIESEN DR,ANGWIN,CA,94508,NAPA
CA-W-21550,"PEACE WATER WINERY, LLC",PEACE WATER WINERY,2000 SUMMIT LAKE DR,ANGWIN,CA,94508,NAPA
CA-W-23578,"PHILLIPS FAMILY FARMING, LLC",VINE HILL RANCH,335 WEST LN,ANGWIN,CA,94508,NAPA
CA-W-21863,"PUAMANA, LLC",ACCENDO CELLARS,335 WEST LN,ANGWIN,CA,94508,NAPA
CA-W-21280,"RED THREAD WINE COMPANY, LLC",RED THREAD WINE COMPANY,2000 SUMMIT LAKE DR,ANGWIN,CA,94508,NAPA
CA-W-3055,"ROBERT CRAIG WINERY, L.P.",,2475 SUMMIT LAKE DR,ANGWIN,CA,94508,NAPA
CA-W-15080,"ROBERT FOLEY, LLC",ROBERT FOLEY VINEYARDS,1300 SUMMIT LAKE DR,ANGWIN,CA,94508,NAPA
CA-W-16756,"SCHRADER CELLARS, LLC",SCHRADER CELLARS,2075 SUMMIT LAKE DR,ANGWIN,CA,94508,NAPA
CA-W-15906,"SEAVER VINEYARDS, LLC",SEAVER VINEYARDS,2075 SUMMIT LAKE DR,ANGWIN,CA,94508,NAPA
CA-W-20342,SPENCE VINEYARDS LLC,SPENCE VINEYARDS,994 WHITE COTTAGE RD N,ANGWIN,CA,94508,NAPA
CA-W-15205,"STONEWRITER, LLC",,1976 SUMMIT LAKE DR,ANGWIN,CA,94508,NAPA
CA-W-15578,"SUMMIT LAKE VINEYARDS & WINERY, LLC",SUMMIT LAKE VINEYARDS,2000 SUMMIT LAKE DR,ANGWIN,CA,94508,NAPA
CA-W-22387,TESSERON VINEYARDS,,2610 SUMMIT LAKE DR,ANGWIN,CA,94508,NAPA
CA-W-23268,TOURELLE LLC,OUTPOST WINES,2075 SUMMIT LAKE DR,ANGWIN,CA,94508,NAPA
CA-W-21611,"TRAVAIL ESTATE, LLC",TRAVAIL ESTATE,2075 SUMMIT LAKE DR,ANGWIN,CA,94508,NAPA
CA-W-23950,"VIDA VALIENTE WINERY, LLC",VIDA VALIENTE WINERY,335 WEST LN,ANGWIN,CA,94508,NAPA
CA-W-16149,"VILLA ENCINAL PARTNERS, L.P.",CADE WINERY,360 HOWELL MOUNTAIN RD,ANGWIN,CA,94508,NAPA
CA-W-22420,"VILLA ENCINAL PARTNERS, L.P.",,150 WHITE COTTAGE RD S,ANGWIN,CA,94508,NAPA
CA-W-22181,MAITRE DE CHAI LLC,MAITRE DE CHAI,2323 B 4TH ST,BERKELY,CA,94710,NAPA
CA-W-21651,"ECLIPSE ASSETS, LLC",HINDSIGHT VINEYARDS,2383 MORA AVE,CALISTGOA,CA,94515,NAPA
CA-W-22429,1510 LIQUOR LLC,,1510 DIAMOND MOUNTAIN RD,CALISTOGA,CA,94515,NAPA
CA-W-22287,1520 LIQUOR LLC,,1520 DIAMOND MOUNTAIN RD,CALISTOGA,CA,94515,NAPA
CA-W-20529,"2880 WINES, LLC",,2880 FOOTHILL BLVD,CALISTOGA,CA,94515,NAPA
CA-W-20393,"AMICI CELLARS, INC.",AMICI,3130 OLD LAWLEY TOLL RD,CALISTOGA,CA,94515,NAPA
CA-W-15265,ANA MARIA BECKER & GILBERT SCOTT BECKER,BOODEAUX VINEYARDS,1111 BERRY ST,CALISTOGA,CA,94515,NAPA
CA-W-21411,"ARROYO WINERY, LLC",,2280 GREENWOOD AVE,CALISTOGA,CA,94515,NAPA
CA-W-21344,"ARTISAN WINES OF CALIFORNIA, LLC",ARTISAN WINES OF CALIFORNIA,1391 TUCKER RD,CALISTOGA,CA,94515,NAPA
CA-W-2967,AUBERT WINEGROWING INCORPORATED,AUBERT WINES,333 SILVERADO TRL,CALISTOGA,CA,94515,NAPA
CA-W-16603,"BARLOW VINEYARDS, LLC",BARLOW VINEYARDS,4550 SILVERADO TRL,CALISTOGA,CA,94515,NAPA
CA-W-3463,BENNETT LANE WINERY LLC,BENNETT LANE WINERY,3340 HIGHWAY 128,CALISTOGA,CA,94515,NAPA
CA-W-23624,BILLY D EXPERIENCE LLC,,1471 1ST ST,CALISTOGA,CA,94515,NAPA
CA-W-22460,BOARS' VIEW LLC,BOARS' VIEW,1251 TUBBS LN,CALISTOGA,CA,94515,NAPA
CA-W-16424,"BRAGG VINEYARDS, LLC",BRAGG VINEYARDS,2020 CEDAR ST,CALISTOGA,CA,94515,NAPA
CA-W-21869,"BRIAN ARDEN WINES HOLDINGS, INC.",BRIAN ARDEN WINES,331 SILVERADO TRL,CALISTOGA,CA,94515,NAPA
CA-W-16516,BROOKS AND DOHERTY LLC,,1715 N OAK ST,CALISTOGA,CA,94515,NAPA
CA-W-16845,"BRYAN HENRY, RICHARD HENRY & MICHAEL TRUJILLO",KARL LAWRENCE CELLARS,3718 N. SAINT HELENA HWY,CALISTOGA,CA,94515,NAPA
CA-W-15093,"C. BECK, LLC",C. BECK WINERY,2424 JANIS WAY,CALISTOGA,CA,94515,NAPA
CA-W-16660,"CANARD VINEYARDS, LLC",CANARD VINEYARDS,4550 SILVERADO TRL,CALISTOGA,CA,94515,NAPA
CA-W-24007,"CANARD VINEYARDS, LLC",CANARD VINEYARD,1016 DUNAWEAL LN,CALISTOGA,CA,94515,NAPA
CA-W-23275,CASTELLUCCI NAPA VALLEY LLC,CASTELLUCCI NAPA VALLEY,4455 ST HELENA HWY N,CALISTOGA,CA,94515,NAPA
CA-W-15348,"CEDERQUIST WINE COMPANY, LLC",CEDERQUIST WINE COMPANY,5136 SHARP RD,CALISTOGA,CA,94515,NAPA
CA-W-1897,CHARLES LELAND JOHNSTON III,HELENA VIEW JOHNSTON VINEYARDS WINERY,3500 STATE HIGHWAY 128,CALISTOGA,CA,94515,NAPA
CA-W-15661,"CHECKERBOARD VINEYARDS, LLC",CHECKERBOARD VINEYARDS,4331 AZALEA SPRINGS WAY,CALISTOGA,CA,94515,NAPA
CA-W-22870,CRAIG S. HANDLY,TERROIR NAPA VALLEY,4550 N SILVERADO TRL,CALISTOGA,CA,94515,NAPA
CA-W-15315,"D-CUBED CELLARS, INC.",D-CUBED CELLARS,1091 LARKMEAD LN,CALISTOGA,CA,94515,NAPA
CA-W-21347,"DAILY CELLARS, LLC",,4550 SILVERADO TRL,CALISTOGA,CA,94515,NAPA
CA-W-21702,DAVIS ESTATES LLC,DAVIS ESTATES,4060 SILVERADO TRL,CALISTOGA,CA,94515,NAPA
CA-W-2016,DIAMOND MOUNTAIN VINEYARD,,2121 DIAMOND MOUNTAIN RD,CALISTOGA,CA,94515,NAPA
CA-W-23683,"DIAMOND MOUNTAIN VINEYARD COMPANY, INC.",DIAMOND CREEK VINEYARDS,1500 DIAMOND MOUNTAIN RD,CALISTOGA,CA,94515,NAPA
CA-W-22775,"DONGYI INTERNATIONAL, LLC",CONSTANT DIAMOND MOUNTAIN VINEYARD,2121 DIAMOND MOUNTAIN RD,CALISTOGA,CA,94515,NAPA
CA-W-23953,DOUBLEPLUS WINE COMPANY LLC,DOUBLEPLUS WINE CO,3718 ST HELENA HWY,CALISTOGA,CA,94515,NAPA
CA-W-23619,E. & J. GALLO WINERY,PAHLMEYER,1111 DUNAWEAL LN,CALISTOGA,CA,94515,NAPA
CA-W-22898,"ENCROACHMENT WINES, LLC",,4708 SILVERADO TRL,CALISTOGA,CA,94515,NAPA
CA-W-15908,"ENVY WINES, LLC",ENVY WINES,1170 TUBBS LN,CALISTOGA,CA,94515,NAPA
CA-W-22102,"FAIRWINDS ESTATE, LLC",FAIRWINDS ESTATE,4550 SILVERADO TRL N,CALISTOGA,CA,94515,NAPA
CA-W-23381,FISHER VINEYARDS,FISHER VINEYARDS,4771 SILVERADO TRL,CALISTOGA,CA,94515,NAPA
CA-W-23111,"FLINT KNOLL, LLC",FLINT KNOLL WINERY,1251 TUBBS LN,CALISTOGA,CA,94515,NAPA
CA-W-2649,"FRANK FAMILY VINEYARDS, LLC",FRANK FAMILY VINEYARDS,1091 LARKMEAD LN,CALISTOGA,CA,94515,NAPA
CA-W-23444,"FRIAS FAMILY VINEYARD, INC.",FRIAS FAMILY VINEYARD,4550 SILVERADO TRAIL N,CALISTOGA,CA,94515,NAPA
CA-W-16280,"FULTON FAMILY WINERY, INC",,263 PETRIFIED FOREST RD,CALISTOGA,CA,94515,NAPA
CA-W-22744,GAMLING & MC DUCK INC,,331 SILVERADO TRL,CALISTOGA,CA,94515,NAPA
CA-W-22961,GIRARD WINERY LLC,GIRARD WINERY,1077 DUNAWEAL LN,CALISTOGA,CA,94515,NAPA
CA-W-23666,"HERITANCE VINTNERS, LLC",,3718 N SAINT HELENA HWY,CALISTOGA,CA,94515,NAPA
CA-W-23886,HISTORIC VINES LLC,,3106 PALISADES RD,CALISTOGA,CA,94515,NAPA
CA-W-21528,"HOBEL WINES, LLC",HOBEL,1251 TUBBS LN,CALISTOGA,CA,94515,NAPA
CA-W-22669,"HOUDINI, INC.",,4550 N SILVERADO TRL,CALISTOGA,CA,94515,NAPA
CA-W-16574,"HOURGLASS WINE COMPANY, INC.",HOURGLASS WINE COMPANY,817 LOMMEL RD,CALISTOGA,CA,94515,NAPA
CA-W-23414,"HTBE WINES, LLC",HTBE WINES,331 SILVERADO TRL,CALISTOGA,CA,94515,NAPA
CA-W-17265,"HUDSON WINE COMPANY, LLC",SCARLETT WINES,1170 TUBBS LN,CALISTOGA,CA,94515,NAPA
CA-W-17386,"J. CELLARS INVESTMENTS, LLC",JOSEPH CELLARS,4455 ST. HELENA HWY,CALISTOGA,CA,94515,NAPA
CA-W-21210,J3 WINE PARTNERS LLC,TANK GARAGE WINERY,1020 FOOTHILL BLVD STE C,CALISTOGA,CA,94515,NAPA
CA-W-16488,"JACKSON FAMILY WINES, INC.",SPIRE COLLECTION,3299 BENNETT LN,CALISTOGA,CA,94515,NAPA
CA-W-21617,"JAX VINEYARDS, LLC",,4708 SILVERADO TRL,CALISTOGA,CA,94515,NAPA
CA-W-15261,JEFFREY SCOTT SMITH,DUSINBERRE,1111 BERRY ST,CALISTOGA,CA,94515,NAPA
CA-W-3329,JERICHO CANYON VINEYARDS LLC.,JERICHO CANYON VINEYARDS,3292 OLD LAWLEY TOLL RD,CALISTOGA,CA,94515,NAPA
CA-W-2258,"JONES FAMILY WINERY, LLC",JONES FAMILY WINERY,1251 TUBBS LN,CALISTOGA,CA,94515,NAPA
CA-W-21864,KAISER FAMILY WINERY INC,,2280 GREENWOOD AVE,CALISTOGA,CA,94515,NAPA
CA-W-17060,"KENEFICK RANCHES WINERY, LLC","KENEFICK RANCHES, LLC",4550 SILVERADO TRAIL,CALISTOGA,CA,94515,NAPA
CA-W-21392,KERWIN ESTATE LLC,EISELE VINEYARD ESTATE,2155 PICKETT RD,CALISTOGA,CA,94515,NAPA
CA-W-20050,"KRILL FAMILY VINEYARDS, LLC",KRILL FAMILY VINEYARDS,3718 N ST HELENA HWY,CALISTOGA,CA,94515,NAPA
CA-W-23531,"LADERA WINERY, LLC",LADERA WINERY,3942 SILVERADO TRL N,CALISTOGA,CA,94515,NAPA
CA-W-15556,"LAMBORN FAMILY WINE COMPANY, LP","LFWC MANAGEMENT, INC. GENERAL PARTNER",4455 N ST HELENA HWY,CALISTOGA,CA,94515,NAPA
CA-W-15363,LARKMEAD VINEYARDS,,1100 LARKMEAD LN,CALISTOGA,CA,94515,NAPA
CA-W-3212,"LAURA MICHAEL WINES, INC.",LAURA MICHAEL WINES,2250 LAKE COUNTY HWY,CALISTOGA,CA,94515,NAPA
CA-W-20314,"LEGENDARY MERMAID, LP SAME ROPE ENTERPRISES, LLC, GP",LA SIRENA WINES,4455 N ST HELENA HWY,CALISTOGA,CA,94515,NAPA
CA-W-17660,"LEVY & MCCLELLAN, LLC",LEVY & MCCLELLAN,4331 AZALEA SPRINGS WAY,CALISTOGA,CA,94515,NAPA
CA-W-17137,"M.T. BOTTLES, LLC",THE GRADE CELLARS,1251 TUBBS LN,CALISTOGA,CA,94515,NAPA
CA-W-23081,MACAULEY WINE CORPORATION,MACAULEY VINEYARDS,4708 SILVERADO TRL,CALISTOGA,CA,94515,NAPA
CA-W-17235,MALDONADO WINES LLC,MALDONADO VINEYARDS,3070 OLD LAWLEY TOLL RD,CALISTOGA,CA,94515,NAPA
CA-W-17484,MANUEL & MARIA FRIAS,FRIAS FAMILY VINEYARD,4550 N SILVERADO TRL,CALISTOGA,CA,94515,NAPA
CA-W-17087,MASSICAN LLC,MASSICAN,1518 FILMORE ST,CALISTOGA,CA,94515,NAPA
CA-W-16794,MATTHEW ST JOHNS REID & MARTHA LAMAR WEBB,PWR WINES,1311 PINE ST,CALISTOGA,CA,94515,NAPA
CA-W-22422,"MAUREZE FINK WINEGROWERS, LLC",,331 SILVERADO TRL,CALISTOGA,CA,94515,NAPA
CA-W-16058,MC WINES LLC,MC WINES,1170 TUBBS LN,CALISTOGA,CA,94515,NAPA
CA-W-16129,"MELISSA KELLY WINES, LLC",,3718 ST HELENA HWY,CALISTOGA,CA,94515,NAPA
CA-W-23306,"MIDNIGHT ROSE, LLC",MIDNIGHT ROSE,331 SILVERADO TRL,CALISTOGA,CA,94515,NAPA
CA-W-22919,"MOJAVE WINES, LLC",,2339 PICKETT RD,CALISTOGA,CA,94515,NAPA
CA-W-16532,NILE B. ZACHERLE & WHITNEY B. FISHER,ZACHERLE,1501 CEDAR ST,CALISTOGA,CA,94515,NAPA
CA-W-1927,OAT HILL CORPORATION,DUTCH HENRY WINERY,4300 SILVERADO TRL,CALISTOGA,CA,94515,NAPA
CA-W-23410,OGDEN WINE CO LLC,,1251 TUBBS LN,CALISTOGA,CA,94515,NAPA
CA-W-3336,"OLABISI, LLC",OLABISI,1617 CEDAR ST,CALISTOGA,CA,94515,NAPA
CA-W-17146,"OLD VINE WINE PARTNERS, LLC",T-VINE CELLARS,810 FOOTHILL BLVD,CALISTOGA,CA,94515,NAPA
CA-W-20233,"PALISADES WINE COMPANY, LLC",PALISADES WINE COMPANY,3130 OLD LAWLEY TOLL RD,CALISTOGA,CA,94515,NAPA
CA-W-17773,"PAOLETTI ESTATES WINERY, INC.",PAOLETTI WINERY,4501 SILVERADO TRAIL,CALISTOGA,CA,94515,NAPA
CA-W-21579,PAUL NELSON ARDZROONI AND GENEVIEVE ROSE ARDZROONI,WENDLING VINEYARDS,31 TERRACE DR,CALISTOGA,CA,94515,NAPA
CA-W-17392,"PAVITT FAMILY VINEYARDS, LLC",PHIFER PAVITT WINES,4660 SILVERADO TRL,CALISTOGA,CA,94515,NAPA
CA-W-23644,"PERCHANCE ESTATES, LLC",PERCHANCE ESTATES,1170 TUBBS LN,CALISTOGA,CA,94515,NAPA
CA-W-21075,"PHILLIPS FAMILY FARMING, LLC",VINEHILL RANCH,2339 PICKETT RD,CALISTOGA,CA,94515,NAPA
CA-W-17113,"PICKETT ROAD WINE COMPANY, LLC",PICKETT ROAD WINE COMPANY,2339 PICKETT RD,CALISTOGA,CA,94515,NAPA
CA-W-21687,"PIPER CELLARS, LLC",ROY PIPER WINES,1251 TUBBS LN,CALISTOGA,CA,94515,NAPA
CA-W-16378,"PORTALUPI WINE COMPANY, INC.",PORTALUPI WINE COMPANY,1170 TUBBS LN,CALISTOGA,CA,94515,NAPA
CA-W-23485,"QUIVET CELLARS, LLC",QUIVET CELLARS,1170 TUBBS LN,CALISTOGA,CA,94515,NAPA
CA-W-1124,RALPH E. WERMUTH,WERMUTH WINERY,3942 SILVERADO TRL,CALISTOGA,CA,94515,NAPA
CA-W-24078,RICHARD M. STELTZNER,STELTZNER VINEYARDS,1251 TUBBS LN,CALISTOGA,CA,94515,NAPA
CA-W-23151,"RICHARD S. GOETZ & COMPANY, INC.",RANCHO COYOTE VINEYARDS & WINERY,1251 TUBBS LN,CALISTOGA,CA,94515,NAPA
CA-W-16350,"RIOS WINE COMPANY, LLC",RIOS WINE COMPANY,3070 OLD LAWLEY TOLL RD,CALISTOGA,CA,94515,NAPA
CA-W-15737,"RISA WINES, LLC",TERISA,1618 CEDAR ST,CALISTOGA,CA,94515,NAPA
CA-W-23636,"RIVERS-MARIE WINES, LLC",RIVERS-MARIE WINES,900 FOOTHILL BLVD,CALISTOGA,CA,94515,NAPA
CA-W-303,SCHRAMSBERG VINEYARDS COMPANY,J DAVIES,1400 SCHRAMSBERG RD,CALISTOGA,CA,94515,NAPA
CA-W-22253,"SENS3S, LLC",,1251 TUBBS LN,CALISTOGA,CA,94515,NAPA
CA-W-22150,"SEPIA WINES, LLC",,817 LOMMEL RD,CALISTOGA,CA,94515,NAPA
CA-W-22750,"SHIBUMI KNOLL VINEYARDS, LLC",,1251 TUBBS LN,CALISTOGA,CA,94515,NAPA
CA-W-15140,SHYPOKE VINEYARD LLC,,2882 FOOTHILL BLVD,CALISTOGA,CA,94515,NAPA
CA-W-22728,"SILVER OAK WINE CELLARS, LLC",SILVER OAK WINE CELLARS,1183 DUNAWEAL LN,CALISTOGA,CA,94515,NAPA
CA-W-23716,"SILVER ROSE WINERY OPERATOR, LLC",ELUSA WINERY,400 SILVERADO TRL,CALISTOGA,CA,94515,NAPA
CA-W-21961,STANDING JOURNEY LLC,CHATEAU MONTELENA,1429 TUBBS LN,CALISTOGA,CA,94515,NAPA
CA-W-2406,"STORYBOOK MOUNTAIN WINERY, INC.",,3835 STATE HIGHWAY 128,CALISTOGA,CA,94515,NAPA
CA-W-16946,"TAMBER BEY VINEYARDS, LLC",TAMBER BEY VINEYARDS,1251 TUBBS LN,CALISTOGA,CA,94515,NAPA
CA-W-22213,TEALE CREEK ASSOCIATES,VON STRASSER WINERY,965 SILVERADO TRL,CALISTOGA,CA,94515,NAPA
CA-W-15275,"TEDESCHI COMPANY, LLC",TEDESCHI FAMILY WINERY,2779 GRANT ST,CALISTOGA,CA,94515,NAPA
CA-W-3008,TFT #5 LTD.,TEACHWORTH WINERY,4451 ST. HELENA HWY,CALISTOGA,CA,94515,NAPA
CA-W-22746,"THE SETTING WINES, LLC",THE SETTING WINES,1170 TUBBS LN,CALISTOGA,CA,94515,NAPA
CA-W-15037,"THE WINE GARAGE, INC.",WINE GARAGE,1020 UNIT C FOOTHILL BLVD,CALISTOGA,CA,94515,NAPA
CA-W-21917,THEOREM VINEYARDS LLC,THEOREM VINEYARDS,255 PETRIFIED FOREST RD,CALISTOGA,CA,94515,NAPA
CA-W-21688,"TOM EDDY WINERY, LLC",TOM EDDY WINERY,3870 HIGHWAY 128,CALISTOGA,CA,94515,NAPA
CA-W-22290,TREASURY WINE ESTATES AMERICAS COMPANY,STERLING VINEYARDS,1111 DUNAWEAL LN,CALISTOGA,CA,94515,NAPA
CA-W-21928,"TRESPASS VINEYARDS, INC.",,4708 SILVERADO TRL,CALISTOGA,CA,94515,NAPA
CA-W-22992,"TRIO CELLARS, LLC",MYRIAD CELLARS,1170 TUBBS LN,CALISTOGA,CA,94515,NAPA
CA-W-22044,TROTTER 1/16 WINERY LLC,,1103 MITZI DR,CALISTOGA,CA,94515,NAPA
CA-W-20265,VALLEY FLOOR VINEYARD LLC,VALLEY FLOOR VINEYARD,4550 SILVERADO TRAIL,CALISTOGA,CA,94515,NAPA
CA-W-16538,"VENGE VINEYARDS, INC.",VENGE VINEYARDS,4708 SILVERADO TRL,CALISTOGA,CA,94515,NAPA
CA-W-16759,VERMEIL WINE GROUP LLC,VERMEIL WINE GROUP,1251 TUBBS LN,CALISTOGA,CA,94515,NAPA
CA-W-16691,VERSANT VINEYARDS INC.,VERSANT VINEYARDS,3292 OLD LAWLEY TOLL RD,CALISTOGA,CA,94515,NAPA
CA-W-3393,"VILLA AMOROSA, INC.",CASTELLO DI AMOROSA,4045 SAINT HELENA HWY,CALISTOGA,CA,94515,NAPA
CA-W-2955,VINCENT ALAN TOFANELLI,TOFANELLI WINES,1212 PINE ST,CALISTOGA,CA,94515,NAPA
CA-W-1816,"VINCENT ARROYO WINERY, INC.",,2361 GREENWOOD AVE,CALISTOGA,CA,94515,NAPA
CA-W-21472,"VINTAGE WINE ESTATES, INC.",CLOS PEGASE WINERY,1060 DUNAWEAL LN,CALISTOGA,CA,94515,NAPA
CA-W-16959,"W.G. BEST WEINKELLEREI, INC.",MONTESQUIEU WINERY,4550 SILVERADO TRL,CALISTOGA,CA,94515,NAPA
CA-W-21872,W.J. DEUTSCH & SONS LTD.,DEUTSCH FAMILY WINE & SPIRITS,1077 DUNAWEAL LN,CALISTOGA,CA,94515,NAPA
CA-W-22015,"WILD DIAMOND VINEYARDS, LLC",MOON TEARS,4455 ST. HELENA HWY,CALISTOGA,CA,94515,NAPA
CA-W-23816,INTENTUS FINE WINES LLC,,1120 DEER PARK RD,DEER PARK,CA,94559,NAPA
CA-W-23897,SHANGRI-LA WINE COMPANY LLC,,1120 DEER PARK RD,DEER PARK,CA,94576,NAPA
CA-W-2576,VIADER VINEYARDS,,1120 DEER PARK RD,DEER PARK,CA,94576,NAPA
CA-W-15004,"THREE GUYS AND A GIRL, INC.",VITA LUCE CELLARS,3801 ARTESIA AVE,FULLERTON,CA,92833,NAPA
CA-W-23965,BENJAMIN BLAKE HEROD,RADICLE WINE CO,10295 WESTSIDE RD,HEALDSBURG,CA,95448,NAPA
CA-W-17665,"ONESTA WINES, LLC",ONESTA WINES,1620 S WHITE HALL LN,HELENA,CA,94574,NAPA
CA-W-15480,"1-800-WINESHOP.COM, INC.",1-800-WINESHOP,560 TECHNOLOGY WAY,NAPA,CA,94558,NAPA
CA-W-16607,"1-800-WINESHOP.COM, INC.",1-800-WINESHOP,2545 NAPA VALLEY CORPORATE DR STE C,NAPA,CA,94558,NAPA
CA-W-15295,"13 APPELLATIONS, LLC",,3266 SILVERADO TRL,NAPA,CA,94558,NAPA
CA-W-15388,"26 BRIX, LLC",B CELLARS,703 OAKVILLE CROSS RD,NAPA,CA,94558,NAPA
CA-W-21381,"8687 FAMILY WINE COMPANY, LLC",SIBLING RIVALRY,1201 DARMS LN,NAPA,CA,94558,NAPA
CA-W-21016,"9 DRAGON CELLARS, LLC",,5055 SOLANO AVE,NAPA,CA,94558,NAPA
CA-W-17155,A. FAUSTINI WINES LLC,A. FAUSTINI WINES,5055 SOLANO AVE,NAPA,CA,94558,NAPA
CA-W-22910,AARON BUONCRISTIANI LLC,,918 ENTERPRISE WAY STE G I,NAPA,CA,94558,NAPA
CA-W-22907,ACHESON WINES LLC,ACHESON WINES,2747 NAPA VALLEY CORPORATE DR,NAPA,CA,94558,NAPA
CA-W-15351,"ACKERMAN FAMILY VINEYARDS, LLC",ACKERMAN FAMILY,24 BLUE OAK LN,NAPA,CA,94558,NAPA
CA-W-16515,AGU ENTERPRISES LLC,,3807 MONTICELLO RD,NAPA,CA,94558,NAPA
CA-W-23228,ALEXANDRIE CELLARS LLC,ALEXANDRIE CELLARS,55 ENTERPRISE CT UNIT 5,NAPA,CA,94558,NAPA
CA-W-21534,ALLAN CHRISTENSEN & KRISTIN METSON,AMAZON RANCH WINERY,3738 LINDA VISTA AVE,NAPA,CA,94558,NAPA
CA-W-20237,ALTA WINES LLC,ALTA,2747 NAPA VALLEY CORPORATE DR,NAPA,CA,94558,NAPA
CA-W-2520,"ALTAMURA WINERY, INC.",ALTAMURA WINERY,1700 WOODEN VALLEY RD,NAPA,CA,94558,NAPA
CA-W-21842,ALYRIS VINEYARDS LIMITED,ALYRIS VINEYARDS,2840 MONTICELLO RD,NAPA,CA,94558,NAPA
CA-W-16517,"AMETHYST, LLC",,1075 BUCHLI STATION RD,NAPA,CA,94559,NAPA
CA-W-16972,"AMICUS CELLARS II, LLC",X WINERY,2747 NAPA VALLEY CORPORATE DR,NAPA,CA,94558,NAPA
CA-W-20147,ANANTAAH WINE INCORPORATED,ANANTAAH,5225 SOLANO AVE,NAPA,CA,94558,NAPA
CA-W-15940,"ANCIEN WINES, INC.",ANCIEN,1221 DUHIG RD,NAPA,CA,94559,NAPA
CA-W-16305,"ANDERS-LANE ARTISAN WINES, L.P.",ANDERS-LANE ARTISAN WINES,5225 SOLANO AVE,NAPA,CA,94558,NAPA
CA-W-3000,ANDREW MICHAEL ELLICOCK,ELLICOCK FAMILY WINERY,136 KIRKLAND RANCH RD,NAPA,CA,94558,NAPA
CA-W-16247,"ANGEL'S SHARE INTERNATIONAL, INC.",THE BLACK BOTTLE,270 KREUZER LN,NAPA,CA,94559,NAPA
CA-W-15904,"ANIMO, L.P.",ANIMO,5330 SILVERADO TRL,NAPA,CA,94558,NAPA
CA-W-16904,"ANTHEM WINERY AND VINEYARDS, LLC",,5055 SOLANO AVE,NAPA,CA,94558,NAPA
CA-W-1719,ANTHONY M. TRUCHARD,TRUCHARD VINEYARDS,3234 OLD SONOMA RD,NAPA,CA,94559,NAPA
CA-W-16621,ANTINORI CALIFORNIA,,3700 SODA CANYON RD,NAPA,CA,94558,NAPA
CA-W-20276,ANU WINES LLC,,830 LATOUR CT,NAPA,CA,94559,NAPA
CA-W-17742,"APOSTROPHE CELLARS, LLC",APOSTROPHE CELLARS,620 TRANCAS ST,NAPA,CA,94558,NAPA
CA-W-21659,APPELLATION TRADING COMPANY LLC,APPELLATION TRADING COMPANY,55 ENTERPRISE CT STE 5,NAPA,CA,94558,NAPA
CA-W-21590,"APPELLATIONS, LP MARCON INVESTMENTS MANAGEMENT, LLC, GP",ITALICS WINEGROWERS,40 RAPP LN,NAPA,CA,94558,NAPA
CA-W-2814,"ARCHANGEL INVESTMENTS, LLC",BALDACCI WINERY,6236 SILVERADO TRL,NAPA,CA,94558,NAPA
CA-W-23706,"ARIETTA, INC.",ARIETTA,5398 CARNEROS HWY,NAPA,CA,94559,NAPA
CA-W-17529,"ARNS FAMILY VINEYARDS, LLC",TOURNESOL,1221 DUHIG RD,NAPA,CA,94559,NAPA
CA-W-22739,"ASTRODYNAMIC WINES, LLC",OCEANO WINES,40 RAPP LN,NAPA,CA,94558,NAPA
CA-W-3391,AUTUMN MOON WINE CELLARS LLC,AUTUMN MOON CELLARS,3310 SCENIC DR,NAPA,CA,94558,NAPA
CA-W-3314,"AVATAR VINTNERS, INC.",,1006 MONTICELLO RD,NAPA,CA,94558,NAPA
CA-W-16938,"AVENUE WINE COMPANY, LLC",AVENUE WINE COMPANY,3304 SCENIC DR,NAPA,CA,94558,NAPA
CA-W-17301,AVER FAMILY VINEYARDS LLC,,5055 SOLANO AVE,NAPA,CA,94558,NAPA
CA-W-2236,"AWG, LTD.",ANDRETTI WINERY,4162 BIG RANCH RD,NAPA,CA,94558,NAPA
CA-W-21301,"AXIOS, INC.",AXIOS WINES,2747 NAPA VALLEY CORPORATE DR,NAPA,CA,94558,NAPA
CA-W-22148,AZUR WINES LLC,,15 CHATEAU LN,NAPA,CA,94558,NAPA
CA-W-23328,"B WISE VINEYARDS, LLC",,5537 SOLANO AVE,NAPA,CA,94558,NAPA
CA-W-21758,"B WISE VINEYARDS, LLC",,270 KREUZER LN,NAPA,CA,94559,NAPA
CA-W-2634,"BACIO DIVINO CELLARS, LLC",BACIO DIVINO CELLARS,703 OAKVILLE CROSS RD,NAPA,CA,94558,NAPA
CA-W-21741,BALL WINES LLC,BRICK ANGEL,902 ENTERPRISE WAY STE P,NAPA,CA,94558,NAPA
CA-W-2787,"BARREL TEN QUARTER CIRCLE, INC.","BARREL TEN QUARTER CIRCLE, INC",33 HARLOW CT,NAPA,CA,94558,NAPA
CA-W-3313,"BART ENTERPRISES, INC.",,6015 STEELE CANYON RD SUITE A,NAPA,CA,94558,NAPA
CA-W-16150,BARTALOTTI WINE COMPANY,BARTALOTTI WINE COMPANY,901 ENTERPRISE WAY SUITE B,NAPA,CA,94558,NAPA
CA-W-22377,"BAW, INC.",BLUE APRON WINE,2747 NAPA VALLEY CORPORATE DR,NAPA,CA,94558,NAPA
CA-W-23438,BAY WINE GROUP,,55 ENTERPRISE CT STE 5,NAPA,CA,94558,NAPA
CA-W-22518,"BAZAN CELLARS, LLC",,1721 PARTRICK RD,NAPA,CA,94558,NAPA
CA-W-17373,"BELLO FAMILY VINEYARD, LLC",BELLO FAMILY VINEYARD,55 ENTERPRISE DR #5,NAPA,CA,94558,NAPA
CA-W-23257,BFW ENTERPRISES LLC,BENTON FAMILY WINES,880 VALLEJO ST,NAPA,CA,94559,NAPA
CA-W-2716,"BIGHORN CELLARS, LLC",BIGHORN CELLARS,2731 & 2747 NAPA VALLEY CORPORATE DR,NAPA,CA,94558,NAPA
CA-W-21535,BIGRANCH PROPERTIES LLC,JUNGLE LOVE VINEYARD,4326 BIG RANCH RD,NAPA,CA,94558,NAPA
CA-W-15591,"BIN TO BOTTLE, LLC",BIN TO BOTTLE,110 -122 CAMINO ORUGA,NAPA,CA,94558,NAPA
CA-W-15990,"BLACK COYOTE CHATEAU, LLC",BLACK COYOTE,110 CAMINO ORUGA,NAPA,CA,94558,NAPA
CA-W-22353,"BLACKBIRD VINEYARDS, LLC",,831 LATOUR CT STE C,NAPA,CA,94558,NAPA
CA-W-23298,BLUE FARM LLC,BLUE FARM,1240 DUHIG RD,NAPA,CA,94558,NAPA
CA-W-22389,"BLUE FROG WINES, INC.",BLUE FROG WINERY,901 ENTERPRISE WAY STE C,NAPA,CA,94558,NAPA
CA-W-17594,"BNA WINE GROUP, LLC",BNA WINE GROUP,707 TECHNOLOGY WAY,NAPA,CA,94558,NAPA
CA-W-23829,"BOLENOLOGY, LLC",REHAB WINE,5225 SOLANO AVE,NAPA,CA,94558,NAPA
CA-W-17441,"BOLENOLOGY, LLC",FORTHRIGHT WINERY,2253 DRY CREEK RD,NAPA,CA,94558,NAPA
CA-W-1598,"BOUCHAINE VINEYARDS, INC.",BOUCHAINE VINEYARDS,1075 BUCHLI STATION RD,NAPA,CA,94559,NAPA
CA-W-3545,"BOURASSA WINE GROUP, LLC",BOURASSA VINEYARDS,"190 CAMINO ORUGA SUITES H,J",NAPA,CA,94558,NAPA
CA-W-16857,BOYANCI LLC,,1221 DUHIG RD,NAPA,CA,94559,NAPA
CA-W-15715,"BOYD FAMILY VINEYARDS, LLC",BOYD FAMILY VINEYARDS,4326 BIG RANCH RD,NAPA,CA,94558,NAPA
CA-W-20106,BRADFORD SCOTT KITSON,KITSON WINES,2253 DRY CREEK RD,NAPA,CA,94558,NAPA
CA-W-23769,"BRANDON GREGORY ESTATE, LLC","BRANDON GREGORY ESTATE, LLC",15 CHATEAU LN,NAPA,CA,94558,NAPA
CA-W-2356,"BROMAN & ASSOCIATES, INC.",BROMAN CELLARS,5400 OLD SONOMA RD,NAPA,CA,94559,NAPA
CA-W-21389,"BROOKSIDE WINERY, LLC",BROOKSIDE WINERY,"45 ENTERPRISE CT UNIT 1,2,3,4,7",NAPA,CA,94558,NAPA
CA-W-16414,BROVELLI-BETTINI LLC,BROVELLI-BETTINI WINERY,3211 TWIN OAKS DR,NAPA,CA,94558,NAPA
CA-W-23721,BUHMAN ESTATE VINEYARDS LLC,BUHMAN FAMILY VINEYARDS,"45 ENTERPRISE CT UNIT 1,2,3,4,7",NAPA,CA,94558,NAPA
CA-W-17657,"BUON VINO, INC.",BUON VINO,5055 SOLANO AVE,NAPA,CA,94558,NAPA
CA-W-3423,"BUONCRISTIANI WINE CO., LLC",BUONCRISTIANI WINE CO.,"45 ENTERPRISE CT 1, 3 & 4",NAPA,CA,94558,NAPA
CA-W-21852,"BUSELLI FAMILY WINES, LLC",BUSELLI FAMILY WINES,"45 ENTERPRISE CT UNIT 1,2,3,4,7",NAPA,CA,94558,NAPA
CA-W-23517,BXT BUBBLES BY TOM LLC,BXT BUBBLES BY TOM,3548 SANDYBROOK LN,NAPA,CA,94558,NAPA
CA-W-21540,"CA' MOMI WINERY, LLC",,2125 CUTTINGS WHARF RD,NAPA,CA,94559,NAPA
CA-W-3012,"CALDWELL WINERY, LLC",CALDWELL VINEYARD,270 KREUZER LN,NAPA,CA,94559,NAPA
CA-W-23099,"CANNATELLI WINES, LLC",CANNATELLI WINES,5055 SOLANO AVE,NAPA,CA,94558,NAPA
CA-W-23703,"CARDANO WINES, LLC",CARDANO ESTATES,110 - 122 CAMINO ORUGA,NAPA,CA,94558,NAPA
CA-W-17056,"CARNEROS WINE COMPANY, INC.",CARNEROS WINE COMPANY,1134 DEALY LN,NAPA,CA,94559,NAPA
CA-W-16495,CASPAR WINE LLC,,620 TRANCAS ST,NAPA,CA,94558,NAPA
CA-W-22343,"CASTIEL ESTATE, LLC",CASTIEL ESTATE,5055 SOLANO AVE,NAPA,CA,94558,NAPA
CA-W-21485,"CASTRUCCI WINES, LLC",CASTRUCCI WINES,110 CAMINO ORUGA,NAPA,CA,94558,NAPA
CA-W-22704,CATHOLICA SOCIETATE,BISHOP'S VINEYARD,2747 & 2731 NAPA VALLEY CORPORATE DR,NAPA,CA,94558,NAPA
CA-W-17247,"CEDAR KNOLL VINEYARDS, INC.",CEDAR KNOLL VINEYARDS,4029 HAGEN RD,NAPA,CA,94558,NAPA
CA-W-16136,"CELIA WELCH WINES, LLC",CORRA WINES,5055 SOLANO AVE,NAPA,CA,94558,NAPA
CA-W-21767,CENTURION FAMILY VINEYARD LLC,CENTURION FAMILY VINEYARD,110 CAMINO ORUGA,NAPA,CA,94558,NAPA
CA-W-24056,"CERRUTI CELLARS, INC.",CERRUTI CELLARS,2731 2747 NAPA VALLEY CORPORATE DR,NAPA,CA,94558,NAPA
CA-W-23570,"CHATEAU NOIR VINEYARDS, LLC",,3010 CUTTINGS WHARF RD,NAPA,CA,94599,NAPA
CA-W-21166,"CHATEAU POTELLE HOLDINGS, LLC",CHATEAU POTELLE,1721 PARTRICK RD,NAPA,CA,94558,NAPA
CA-W-23237,"CHATEAU POTELLE HOLDINGS, LLC",VGS CHATEAU POTELLE,45 ENTERPRISE COURT CT BLDG 1-4 & 7,NAPA,CA,94558,NAPA
CA-W-2837,"CHIMNEY ROCK WINERY, LLC",CHIMNEY ROCK WINERY,5350 SILVERADO TRL,NAPA,CA,94558,NAPA
CA-W-17340,"CIELO MALIBU ESTATE VINEYARDS, LLC",CIELO MALIBU ESTATE VINEYARDS,5225 SOLANO AVE,NAPA,CA,94558,NAPA
CA-W-17662,CLARA STREET COMPANY,,5055 SOLANO AVE,NAPA,CA,94558,NAPA
CA-W-22526,"CLIF BAR FAMILY WINERY AND FARM, LLC",CLIF FAMILY WINERY,4326 BIG RANCH RD,NAPA,CA,94558,NAPA
CA-W-778,"CLOS DU VAL WINE COMPANY, LTD.",CLOS DU VAL WINE COMPANY,5330 SILVERADO TRL,NAPA,CA,94558,NAPA
CA-W-24027,"COASTAL VITICULTURAL CONSULTANTS, INC.",RAHN ESTATE,5225 SOLANO AVE,NAPA,CA,94558,NAPA
CA-W-23248,COBBLESTONE VINEYARDS LLC,COBBLESTONE VINEYARDS,7850 SILVERADO TRL,NAPA,CA,94558,NAPA
CA-W-15896,COCKERELL WINE CONSULTING LLC,COQUEREL FAMILY WINE ESTATES,1721 PARTRICK RD,NAPA,CA,94558,NAPA
CA-W-1786,"CODORNIU NAPA, INC.",ARTESA WINERY,1345 HENRY RD,NAPA,CA,94559,NAPA
CA-W-16994,"COHO WINES, LLC",COHO,110 CAMINO ORUGA WAY SUITE M,NAPA,CA,94558,NAPA
CA-W-16951,COLEMAN NICOLE WINES LLC,COLEMAN NICOLE WINES,5225 SOLANO AVE,NAPA,CA,94558,NAPA
CA-W-17501,"CONSTELLATION BRANDS U.S. OPERATIONS, INC.",ROBERT MONDAVI WINERY,901 KAISER RD,NAPA,CA,94558,NAPA
CA-W-17663,CONTRAIL VINTNERS LLC,,"45 ENTERPRISE CT UNIT 1,2,3,4,7",NAPA,CA,94558,NAPA
CA-W-22979,CORNERSTONE CELLARS LLC,,5225 SOLANO AVE,NAPA,CA,94558,NAPA
CA-W-17794,CORNERSTONE CELLARS LLC,CORNERSTONE CELLARS,5055 SOLANO AVE,NAPA,CA,94558,NAPA
CA-W-22706,"COSTA DEL SOL, LLC",,4038 BIG RANCH RD,NAPA,CA,94558,NAPA
CA-W-2608,CRANE FAMILY VINEYARDS,,1051 BORRETTE LN,NAPA,CA,94558,NAPA
CA-W-15728,CRANE WINE COMPANY LLC,CRANE WINE COMPANY,4038 BIG RANCH RD,NAPA,CA,94558,NAPA
CA-W-21862,CRISTIE KERR WINES LLC,,1221 DUHIG RD,NAPA,CA,94559,NAPA
CA-W-17189,"CULLPEPPER VINEYARDS, INC.",CULLPEPPER VINEYARDS,"45 ENTERPRISE CT STE 1,3,4",NAPA,CA,94558,NAPA
CA-W-23459,CUMMINGS FAMILY WINES LLC,CUMMINGS FAMILY WINES,918 ENTERPRISE WAY STE G & I,NAPA,CA,94558,NAPA
CA-W-17603,"CUNAT PREMIUM VINEYARDS, LLC",CUNAT FAMILY VINEYARDS,4326 BIG RANCH RD,NAPA,CA,94558,NAPA
CA-W-15071,"CUVAISON, INC.",CUVAISON WINERY,1221 DUHIG RD,NAPA,CA,94559,NAPA
CA-W-23084,"CV WINE, LLC",FE WINES,831 LATOUR CT STE C,NAPA,CA,94558,NAPA
CA-W-21189,D'ARTAGNAN WINES CORPORATION,Y ROUSSEAU WINES,902 ENTERPRISE WAY STE O,NAPA,CA,94558,NAPA
CA-W-16065,DA VE WINERY INC.,,2515 NAPA VALLEY CORPORATE DR,NAPA,CA,94558,NAPA
CA-W-23985,DANIEL RAY MANIES,DRM WINERY,1758 INDUSTRIAL WAY STE 213,NAPA,CA,94558,NAPA
CA-W-2572,"DARIOUSH KHALEDI WINERY, LLC",,4240 SILVERADO TRL,NAPA,CA,94558,NAPA
CA-W-3429,"DARMS LANE, LLC",DARMS LANE VINEYARD,5055 SOLANO AVE,NAPA,CA,94558,NAPA
CA-W-16223,"DARRIN FAMILY VINEYARDS, LLC",DARRIN FAMILY VINEYARDS,2456 N 3RD AVE,NAPA,CA,94558,NAPA
CA-W-17190,DAVID BECKER,SHORT & SWEET WINES,3541 TWIN OAKS DR,NAPA,CA,94558,NAPA
CA-W-16601,DAVID G. WHITE AND LOIS M. TAKAHASHI,ROSALYND WINERY,901 ENTERPRISE WAY SUITE B,NAPA,CA,94558,NAPA
CA-W-20309,DAVID HUNT,DEFINE WINES,2545 NAPA VALLEY CORPORATE DR STE C,NAPA,CA,94558,NAPA
CA-W-1900,"DAVID, JEANETTE, AARON, AND ERIK BADER",PHOENIX WINERY,3175 DRY CREEK RD,NAPA,CA,94558,NAPA
CA-W-17295,DEJAN NIKITOVIC,ARETE WINES,110 CAMINO ORUGA,NAPA,CA,94559,NAPA
CA-W-3146,DEL DOTTO VINEYARDS,,1055 ATLAS PEAK RD,NAPA,CA,94558,NAPA
CA-W-22350,DEL DOTTO VINEYARDS,PIAZZA DEL DOTTO,7466 SAINT HELENA HWY,NAPA,CA,94558,NAPA
CA-W-23536,"DELGADILLO WINE COMPANY, LLC",DELGADILLO CELLARS,901 ENTERPRISE WAY STE C,NAPA,CA,94558,NAPA
CA-W-16842,"DELGADILLO WINE COMPANY, LLC",DELGADILLO WINE COMPANY,2812 SACRAMENTO ST,NAPA,CA,94558,NAPA
CA-W-17236,DELICATO VINEYARDS,BLACK STALLION WINERY,4089 SILVERADO TRL,NAPA,CA,94558,NAPA
CA-W-16624,"DESTINO WINE GROUP, LLC",DESTINO WINES,1075 BUCHLI STATION RD,NAPA,CA,94559,NAPA
CA-W-17094,DINO DINA,CIMAROSSA VINEYARDS,5055 SOLANO AVE,NAPA,CA,94558,NAPA
CA-W-22619,"DOMAINE BEAU-SOLEIL, LLC",RARECAT WINES,4326 BIG RANCH RD,NAPA,CA,94558,NAPA
CA-W-1607,"DOMAINE CARNEROS, LTD.",DOMAINE CARNEROS,1240 DUHIG RD,NAPA,CA,94559,NAPA
CA-W-2023,DON SEBASTIANI & SONS INTERNATIONAL WINE NEGOCIANTS,,520 AIRPARK RD,NAPA,CA,94558,NAPA
CA-W-21382,DRAGON SPIRITZ VINEYARD,DRAGON SPIRITZ VINEYARD,3106 SILVERADO TRL,NAPA,CA,94558,NAPA
CA-W-16271,DRASELLE HAHN MUSCATINE,MUSCATINE VINEYARD,2410 SODA CANYON RD,NAPA,CA,94558,NAPA
CA-W-22680,"DRISCOLL WINE COMPANY, LLC",DRISCOLL WINE COMPANY,7554 ST. HELENA HWY,NAPA,CA,94558,NAPA
CA-W-16544,DUCKHORN WINE COMPANY,PARADUXX,7257 SILVERADO TRAIL,NAPA,CA,94558,NAPA
CA-W-23443,DUCKHORN WINE COMPANY,MIGRATION,1451 STANLY LN,NAPA,CA,94559,NAPA
CA-W-23365,DUDLEY VINEYARDS LLC,,45 ENTERPRISE CT UNIT 1-4 & 7,NAPA,CA,94558,NAPA
CA-W-16156,E. & J. GALLO WINERY,WILLIAM HILL WINERY,1761 ATLAS PEAK RD,NAPA,CA,94558,NAPA
CA-W-23821,EDV WINES LLC,,2022 IDA ST,NAPA,CA,94558,NAPA
CA-W-22900,"EDWARD LEWIS CELLARS, LLC",EDWARD LEWIS CELLARS,110 CAMINO ORUGA,NAPA,CA,94558,NAPA
CA-W-22134,"EGAN VINEYARDS & OLIVE GROVES, LLC",EGAN VINEYARDS,"520 CALIFORNIA BLVD STE 18,19,20",NAPA,CA,94559,NAPA
CA-W-21616,"ELEGANCE PROPERTIES, LLC",ELEVEN ELEVEN WINES,620 TRANCAS ST,NAPA,CA,94558,NAPA
CA-W-17249,"ELIXIR WINE CO, INC.",ELIXIR WINE CO.,5055 SOLANO AVE,NAPA,CA,94558,NAPA
CA-W-23577,"ELKHORN PEAK CELLARS, LLC",ELKHORN PEAK CELLARS,2545 NAPA VALLEY CORPORATE DR STE C,NAPA,CA,94558,NAPA
CA-W-2876,ELLIOTT-SMITH DEVELOPMENT COMPANY,ELAN VINEYARDS,4500 ATLAS PEAK RD,NAPA,CA,94558,NAPA
CA-W-21022,"ELLMAN FAMILY VINEYARDS, LLC",,620 TRANCAS ST,NAPA,CA,94558,NAPA
CA-W-15803,"EMILIAN, LP",PAGE WINE CELLARS,"520 CALIFORNIA BLVD SUITE 18,",NAPA,CA,94559,NAPA
CA-W-21324,"ENTERPRISE WINE COMPANY, LLC",ENTERPRISE WINE COMPANY,910 ENTERPRISE WAY STE M,NAPA,CA,94558,NAPA
CA-W-22766,ERIC & DONNA LYMAN,A GHOST OF A CHANCE,2332 SILVERADO TRL,NAPA,CA,94558,NAPA
CA-W-23883,ESSERE FRANCO L.P.,ESSERE FRANCO,5055 SOLANO AVE,NAPA,CA,94558,NAPA
CA-W-23448,ESTEE HILL VINEYARD LLC,ESTEE HILL VINEYARD,1521 ESTEE AVE,NAPA,CA,94558,NAPA
CA-W-17567,"EUCLID WINES, LLC",EUCLID WINES,2747 & 2731 NAPA VALLEY CORPORATE DR,NAPA,CA,94558,NAPA
CA-W-15138,"FALCOR WINE CELLARS, LLC",,2511 NAPA VALLEY CORPORATE DR SUITE 115,NAPA,CA,94559,NAPA
CA-W-15522,FARELLA-PARK VINEYARDS LLC,,2222 N THIRD AVE,NAPA,CA,94558,NAPA
CA-W-17127,"FAVIA ERICKSON WINEGROWERS, LLC",,620 TRANCAS ST,NAPA,CA,94558,NAPA
CA-W-17783,"FAVIA ERICKSON WINEGROWERS, LLC",PLENTY OF ROOM,2031 COOMBSVILLE RD,NAPA,CA,94558,NAPA
CA-W-15322,FINKELSTEIN VINEYARDS,JUDD'S HILL,2332 SILVERADO TRL,NAPA,CA,94558,NAPA
CA-W-21419,"FIOR DI SOLE, LLC",FIOR DI SOLE,2515 AND 2545 NAPA VALLEY CORPORATE DR,NAPA,CA,94558,NAPA
CA-W-16175,"FOLIO WINE COMPANY, LLC",FOLIO WINE COMPANY,610 FIRST ST SUITE CM-9,NAPA,CA,94559,NAPA
CA-W-15894,"FOLIO WINE COMPANY, LLC",FOLIO WINE PARTNERS,2731 & 2747 NAPA VALLEY CORPORATE DR,NAPA,CA,94558,NAPA
CA-W-16401,"FONTANELLA WINES, LLC",FONTANELLA FAMILY WINERY,1721 PARTRICK RD,NAPA,CA,94558,NAPA
CA-W-17085,"FORE FAMILY VINEYARDS, LLC",FORE FAMILY VINEYARDS,5055 SOLANO AVE,NAPA,CA,94558,NAPA
CA-W-23358,"FORTUNATI WINERY, LLC",FORTUNATI WINERY,980 SALVADOR AVE,NAPA,CA,94558,NAPA
CA-W-23559,"FORTUNATI WINERY, LLC",FORTUNATI WINERY,4326 BIG RANCH RD,NAPA,CA,94558,NAPA
CA-W-15660,"FOTINOS BROTHERS WINERY, INC.",FOTINOS BROTHERS WINERY,2762 PINE ST,NAPA,CA,94558,NAPA
CA-W-16835,FOUR OLNEY LLC,,2253 DRY CREEK RD,NAPA,CA,94558,NAPA
CA-W-22029,"FOURTH LEAF WINES, LLC",FOURTH LEAF WINES,1907 N KELLY RD,NAPA,CA,94558,NAPA
CA-W-15413,FOX PEAK LLC,FOX PEAK VINEYARDS,4015 ATLAS PEAK RD,NAPA,CA,94558,NAPA
CA-W-23614,"FRESH GRAPES, LLC",FRESH GRAPES,2515 NAPA VALLEY CORPORATE DR,NAPA,CA,94558,NAPA
CA-W-21354,"FRISINGER FAMILY, LLC",,2275 DRY CREEK RD,NAPA,CA,94558,NAPA
CA-W-17263,"FULCRUM WINES, LLC",CLOISONNE WINES,110 -122 CAMINO ORUGA,NAPA,CA,94558,NAPA
CA-W-16289,"G GAUTHIER CELLARS, INC.",,1075 BUCHLI STATION RD,NAPA,CA,94559,NAPA
CA-W-17285,"G WINE CELLARS, LLC",G WINE CELLARS,"45 ENTERPRISE CT UNIT 1,2,3,4,7",NAPA,CA,94558,NAPA
CA-W-15795,"GALLERON SIGNATURE WINES, LLC",GALLERON SIGNATURE WINES,759 LA HOMA DR,NAPA,CA,94558,NAPA
CA-W-15748,"GARGIULO VINEYARD, LLC",,575 OAKVILLE CROSS RD,NAPA,CA,94558,NAPA
CA-W-16629,GARY BRIAN BROOKMAN,BROOKMAN WINE CO.,7850 SILVERADO TRL,NAPA,CA,94558,NAPA
CA-W-2646,"GEORGE ALTAMURA, SR.",STRACK VINEYARD,1 EXECUTIVE WAY,NAPA,CA,94558,NAPA
CA-W-2869,GEORGE O. HENDRY,HENDRY RANCH WINERY,3104 REDWOOD RD,NAPA,CA,94558,NAPA
CA-W-23464,GHOSTPRINTS LLC,,2340 SOLANO AVE,NAPA,CA,94558,NAPA
CA-W-23139,GIRONDE CUSTOMS BROKERAGE LLC,THE WINE TRUST,2731 & 2747 NAPA VALLEY CORPORATE DR,NAPA,CA,94558,NAPA
CA-W-23680,GLASSHAUS VINEYARDS LLC,THE 50 BY 50,2332 SILVERADO TRL.,NAPA,CA,94558,NAPA
CA-W-22862,"GLJR WINE, LLC",,201 DEVLIN RD,NAPA,CA,94558,NAPA
CA-W-21899,GOLD COUNTRY ENTERPRISES LLC,VINO GODFATHER,1 EXECUTIVE WAY BLDG 1 & 2,NAPA,CA,94558,NAPA
CA-W-23005,"GOOSE EGG, LLC",EMPATHY WINES,110 -122 CAMINO ORUGA,NAPA,CA,94558,NAPA
CA-W-17664,"GOTT'S HOME, LLC",,2055 HOFFMAN LN,NAPA,CA,94558,NAPA
CA-W-23519,GREATER FOOL WINE LLC,GREATER FOOL WINE,5225 SOLANO AVE,NAPA,CA,94558,NAPA
CA-W-22488,GREGORY ROBERT MELANSON,MELANSON VINEYARDS,1721 PARTRICK RD,NAPA,CA,94558,NAPA
CA-W-17582,GREGORY T. CROUSE AND KAREN C. CROUSE,MOUNT VEEDER MAGIC VINEYARDS,1721 PARTICK RD,NAPA,CA,94558,NAPA
CA-W-23342,GRINDSTONE WINES LLC,GRINDSTONE WINES,110 CAMINO ORUGA,NAPA,CA,94558,NAPA
CA-W-3624,"GROTH VINEYARDS AND WINERY, LLC",,908 ENTERPRISE WAY BLDG A,NAPA,CA,94558,NAPA
CA-W-22220,"GRR VINEYARD, LLC",GEORG RAFAEL VINEYARDS,2253 DRY CREEK RD,NAPA,CA,94558,NAPA
CA-W-20469,"GRR VINEYARD, LLC",GEORG RAFAEL VINEYARDS,5225 SOLANO AVE,NAPA,CA,94558,NAPA
CA-W-17232,"GUARDIAN WINERY, LLC",,2511 NAPA VALLEY CORPORATE DR STE 115,NAPA,CA,94558,NAPA
CA-W-16266,GUFFY FAMILY WINES LLC,GUFFY FAMILY WINES,4015 ATLAS PEAK RD,NAPA,CA,94558,NAPA
CA-W-3279,GUSTAVO LLC,GUSTAVO WINES,902 ENTERPRISE WAY SUITE P,NAPA,CA,94558,NAPA
CA-W-3416,"H DE V, LLC",H DE V,588 TRANCAS ST,NAPA,CA,94558,NAPA
CA-W-2763,"HAGAFEN CELLARS, INC.",,4160 SILVERADO TRL,NAPA,CA,94558,NAPA
CA-W-23687,HANABI LAGER COMPANY LLC,LANDLORD SAILOR,1 EXECUTIVE WAY BLDG 1,NAPA,CA,94558,NAPA
CA-W-21024,"HANDWRITTEN WINES, LLC",,25 ENTERPRISE CT UNIT 4-8,NAPA,CA,94558,NAPA
CA-W-23763,HAYNES ESTATE LLC,,4047 E THIRD AVE,NAPA,CA,94558,NAPA
CA-W-21941,HEITZ WINE CELLARS,,5445 SOLANO AVE,NAPA,CA,94558,NAPA
CA-W-15083,"HEMISPHERE WINE COMPANY, INC.",HEMISPHERE WINE COMPANY,5055 SOLANO AVE,NAPA,CA,94558,NAPA
CA-W-17584,"HENSLEY FAMILY VINEYARDS, L.L.C.",HENSLEY FAMILY VINEYARDS,1721 PATRICK RD,NAPA,CA,94558,NAPA
CA-W-17466,"HENTLEY FARM, LLC",,626 CALIFORNIA BLVD,NAPA,CA,94559,NAPA
CA-W-17303,HERB LAMB VINEYARDS LLC,HERB LAMB VINEYARDS,4326 BIG RANCH RD,NAPA,CA,94558,NAPA
CA-W-22506,"HERITANCE VINTNERS, LLC",HERITANCE VINTNERS,7400 SILVERADO TRL,NAPA,CA,94558,NAPA
CA-W-21532,"HERITANCE VINTNERS, LLC",HERITANCE VINTNERS,5055 SOLANO AVE,NAPA,CA,94558,NAPA
CA-W-20302,HERON LAKE WINERY LLC,HERON LAKE WINERY,4626 GREEN VALLEY RD,NAPA,CA,94558,NAPA
CA-W-22299,"HERTELENDY VINEYARDS, LLC",HERTELENDY VINEYARDS,2275 SODA CANYON RD,NAPA,CA,94558,NAPA
CA-W-16874,"HESTAN VINEYARDS, LLC",HESTAN VINEYARDS,5055 SOLANO AVE,NAPA,CA,94558,NAPA
CA-W-22911,"HIDDEN RIDGE VINEYARD, LLC",IMMORTAL ESTATE,"1 EXECUTIVE WAY BLDG 1, 2 & 3",NAPA,CA,94558,NAPA
CA-W-1914,HIGHGATE WINE COMPANY,ARNS WINERY,1721 PARTRICK RD,NAPA,CA,94558,NAPA
CA-W-15323,"HIGHLANDS WINERY, LLC",HIGHLANDS WINERY,5225 SOLANO AVE,NAPA,CA,94558,NAPA
CA-W-21685,"HILL ESTATES, INC.",HILL FAMILY ESTATE,5055 SOLANO AVE,NAPA,CA,94558,NAPA
CA-W-23472,"HILL WALKER, LLC",HILLWALKER VINEYARDS,1871 MT. VEEDER RD,NAPA,CA,94558,NAPA
CA-W-16529,"HOLLYWOOD CLASSIC, LLC",HOLLYWOOD CLASSIC,270 KREUZER LN,NAPA,CA,94559,NAPA
CA-W-21383,"HOLMAN CELLARS, LLC",HOLMAN CELLARS,918 ENTERPRISE WAY STE G & I,NAPA,CA,94558,NAPA
CA-W-17259,"HOPE & GRACE WINES, INC.",HOPE & GRACE WINES,5055 SOLANO AVE,NAPA,CA,94558,NAPA
CA-W-17410,"HOPE WINE, LLC",ONE HOPE WINES,1285 DEALY LN,NAPA,CA,94559,NAPA
CA-W-16224,"HOUDINI, INC.",BRIAR CREEK CELLARS,2747 NAPA VALLEY CORPORATE DR,NAPA,CA,94558,NAPA
CA-W-23341,HQ WINERY LLC,ELYSE WINERY,2100 HOFFMAN LN,NAPA,CA,94558,NAPA
CA-W-21008,"HUDSON WINES, LLC",HUDSON WINES,5398 CARNEROS HWY,NAPA,CA,94559,NAPA
CA-W-15498,"HUGHES FAMILY VINEYARDS, LLC",HUGHES FAMILY VINEYARDS,910 ENTERPRISE WAY SUITE M,NAPA,CA,94558,NAPA
CA-W-15933,"HUSIC VINEYARDS, LLC",HUSIC VINEYARDS,2275 SODA CANYON RD,NAPA,CA,94558,NAPA
CA-W-17785,HYDE WINES LLC,LARRY HYDE & SONS,1044 LOS CARNEROS AVE,NAPA,CA,94559,NAPA
CA-W-22369,"INCONNU, LLC",INCONNU,2511 NAPA VALLEY CORPORATE DR STE 115,NAPA,CA,94558,NAPA
CA-W-16412,INGENIOUS SOLUTIONS INCORPORATED,I NAPA WINE,4082 ATLAS PEAK RD,NAPA,CA,94558,NAPA
CA-W-17290,"INTERPANGEA, LLC",,55 ENTERPRISE CT SUITE 5,NAPA,CA,94558,NAPA
CA-W-23128,J AND J WINERY INC,,2747 NAPA VALLEY CORPORATE DR,NAPA,CA,94558,NAPA
CA-W-21935,"J. GREGORY CELLARS, LLC",,2731 & 2747 NAPA VALLEY CORPORATE DR,NAPA,CA,94558,NAPA
CA-W-16678,"J. J. COHN ESTATE, LLC",SCARECROW WINE,5055 SOLANO AVE,NAPA,CA,94558,NAPA
CA-W-21713,"J. MOSS WINES, LLC",J. MOSS,901 ENTERPRISE WAY STE B,NAPA,CA,94558,NAPA
CA-W-23259,"J.A.C.K. WINES, LLC",K.C.A.J. WINES,4326 BIG RANCH RD,NAPA,CA,94558,NAPA
CA-W-21938,"J.W. THOMAS, LLC",SMITH DEVEREUX,2750 LAS AMIGAS RD,NAPA,CA,94559,NAPA
CA-W-23388,JABELA GROUP LLC,JABELA WINES,2400 SODA CANYON RD,NAPA,CA,94558,NAPA
CA-W-16365,"JACKSON FAMILY WINES, INC.",LOKOYA WINERY,3875 MOUNT VEEDER RD,NAPA,CA,94558,NAPA
CA-W-23992,"JACKSON STREET WINE WAREHOUSE, LLC",,849 JACKSON ST UNIT 3,NAPA,CA,94559,NAPA
CA-W-15312,JAMES WILLIAM BARBOUR,,5055 SOLANO AVE,NAPA,CA,94558,NAPA
CA-W-21911,JAMIE M LLC,AUBERGE ROAD,15 CHATEAU LN,NAPA,CA,94558,NAPA
CA-W-1886,JARVIS,,2970 MONTICELLO RD,NAPA,CA,94558,NAPA
CA-W-21206,JASON MIKAMI & MITZI ONIZUKA,MIKAMI VINEYARDS,1721 PARTRICK RD,NAPA,CA,94558,NAPA
CA-W-24020,"JAX VINEYARDS, LLC",,5055 SOLANO AVE,NAPA,CA,94558,NAPA
CA-W-21413,JC WAUGH WINE CO. LLC,WAUGH FAMILY WINES,2275 SODA CANYON RD,NAPA,CA,94558,NAPA
CA-W-22930,JENSEN ROBERTS LLC,KEEP WINES,2511 NAPA VALLEY CORPORATE DR STE 115,NAPA,CA,94558,NAPA
CA-W-15622,"JESSUP CELLARS HOLDING COMPANY, LLC",JESSUP CELLARS,25 ENTERPRISE CT UNIT 3-8,NAPA,CA,94558,NAPA
CA-W-23657,"JH WINE GROUP, LLC",THE UNFILTERED COLLECTION,2731 AND 2747 NAPA VALLEY CORPORATE DR,NAPA,CA,94558,NAPA
CA-W-22550,JHO NAPA VALLEY LLC,VINO MIO WINES,902 ENTERPRISE WAY STE P,NAPA,CA,94558,NAPA
CA-W-22555,"JOHN ANTHONY VINEYARDS, LLC",JOHN ANTHONY VINEYARDS,2545 NAPA VALLEY CORPORATE DR STE C,NAPA,CA,94558,NAPA
CA-W-17122,"JOHN ANTHONY VINEYARDS, LLC",,25 ENTERPRISE CT,NAPA,CA,94558,NAPA
CA-W-23661,JON NATHANIEL LLC,,967 FIRST ST,NAPA,CA,94559,NAPA
CA-W-21930,"JOOSTE WINE, LLC",,5055 SOLANO AVE,NAPA,CA,94558,NAPA
CA-W-16106,JOSEPH FAMILY VINEYARDS LLC,JOSEPH FAMILY VINEYARDS,110 CAMINO ORUGA,NAPA,CA,94558,NAPA
CA-W-3088,"JOSEPH KIRKWOOD REID, JR.",REID FAMILY VINEYARDS,1020 BORRETTE LN,NAPA,CA,94558,NAPA
CA-W-23864,JUST THE TIPSY INC.,,918 ENTERPRISE WAY STE G & I,NAPA,CA,94558,NAPA
CA-W-23456,K.R. III NAPA WINES LLC,,2100 HOFFMAN LN,NAPA,CA,94558,NAPA
CA-W-21581,KACHINA CELLARS LLC,KACHINA CELLARS,110 - 122 CAMINO ORUGA,NAPA,CA,94558,NAPA
CA-W-21693,KACHINA CELLARS LLC,,5055 SOLANO AVE,NAPA,CA,94558,NAPA
CA-W-16719,KALE DAVID LLC,KALE WINES,45 ENTERPRISE CT UNIT 1-4 & 7,NAPA,CA,94558,NAPA
CA-W-22937,"KANPAI WINES, LLC",,110 CAMINO ORUGA,NAPA,CA,94558,NAPA
CA-W-23719,KATNIP WINES LLC,KATNIP WINES LLC,2181 EUCLID AVE,NAPA,CA,94558,NAPA
CA-W-23849,KDM GLOBAL PARTNERS LLC,,110 -122 CAMINO ORUGA,NAPA,CA,94558,NAPA
CA-W-15580,"KEEVER VINEYARDS, LLC",KEEVER VINEYARDS,26 VINEYARD VIEW DR,NAPA,CA,94558,NAPA
CA-W-23100,KENNEDY CELLARS INC.,KENNEDY CELLARS,110 CAMINO ORUGA,NAPA,CA,94558,NAPA
CA-W-1673,KENT RASMUSSEN WINERY,,2515 NAPA VALLEY CORPORATE DR,NAPA,CA,94558,NAPA
CA-W-16875,KENZO ESTATE INC,KENZO ESTATE,3200 MONTICELLO RD,NAPA,CA,94558,NAPA
CA-W-21717,"KIEU HOANG WINERY, LLC",KIEU HOANG WINERY,1285 DEALY LN,NAPA,CA,94559,NAPA
CA-W-15746,KIMBERTON WINES LLC,BUCCELLA,860 KAISER RD SUITE I,NAPA,CA,94558,NAPA
CA-W-21843,"KING OF CLUBS WINE, LLC",KING OF CLUBS,"45 ENTERPRISE CT UNIT 1,2,3,4,7",NAPA,CA,94558,NAPA
CA-W-23524,"KIPPER FAMILY VINEYARD, LLC",KIPPER FAMILY VINEYARD,3311 DAVID DR,NAPA,CA,94558,NAPA
CA-W-16448,"KNIGHTS BRIDGE WINERY, LLC",KNIGHTS BRIDGE WINERY,5055 SOLANO AVE,NAPA,CA,94558,NAPA
CA-W-3294,KONGSGAARD WINE LLC,,4375 ATLAS PEAK RD,NAPA,CA,94558,NAPA
CA-W-17558,KRAEMER FAMILY WINES LLC,KRAEMER FAMILY WINES,1221 DUHIG RD,NAPA,CA,94559,NAPA
CA-W-16834,"KRISTINE ASHE VINEYARDS, LLC",ENTRE NOUS,270 KREUZER LN,NAPA,CA,94559,NAPA
CA-W-22453,"KUVEE, INC.",,908 ENTERPRISE WAY STE C,NAPA,CA,94558,NAPA
CA-W-3004,L & C WINE COUNTRY OPERATIONS LLC,,1006 MONTICELLO RD,NAPA,CA,94558,NAPA
CA-W-23856,L. BRENDEL VINEYARD LLC,,5445 SOLANO AVE,NAPA,CA,94558,NAPA
CA-W-24069,L. ROBERTS & REED LLC,,45 ENTERPRISE CT STE 1-4 & 7,NAPA,CA,94558,NAPA
CA-W-16560,"LA FAMIGLIA BOLOGNA, INC.",LA FAMIGLIA BOLOGNA,1075 BUCHLI STATION RD,NAPA,CA,94559,NAPA
CA-W-22931,"LA PELLE WINES, LLC",,620 TRANCAS ST,NAPA,CA,94558,NAPA
CA-W-22264,LAGNIAPPE PEAK VINEYARDS LLC,,1721 PARTRICK RD,NAPA,CA,94558,NAPA
CA-W-2984,"LAIRD FAMILY ESTATE, LLC",LAIRD FAMILY ESTATE,4162 BIG RANCH RD,NAPA,CA,94558,NAPA
CA-W-2626,"LAIRD FAMILY ESTATE, LLC",LAIRD FAMILY ESTATE,5055 SOLANO AVE,NAPA,CA,94558,NAPA
CA-W-3580,LANG & REED LLC,,5055 SOLANO AVE STE O,NAPA,CA,94558,NAPA
CA-W-17318,"LARKIN WINES, INC.",LARKIN WINES,880 VALLEJO ST SUITE 3,NAPA,CA,94558,NAPA
CA-W-23406,LATINO VINTNERS UNIDOS WINES LLC,ORTEGA FAMILY WINES,5055 SOLANO AVE,NAPA,CA,94558,NAPA
CA-W-16530,"LAWER FAMILY WINERY, INC.",,5055 SOLANO AVE,NAPA,CA,94558,NAPA
CA-W-904,LAWRENCE LLOYD OLDS,SKY VINEYARDS,1500 LOKOYA RD,NAPA,CA,94558,NAPA
CA-W-2333,LC WINE,LEWIS CELLARS,4101 BIG RANCH RD,NAPA,CA,94558,NAPA
CA-W-21140,"LEAF AND VINE, LLC",,190 CAMINO ORUGA ST CONDO 24,NAPA,CA,94558,NAPA
CA-W-23803,"LEEMIND, INC.",EP WINE,270 KREUZER LN,NAPA,CA,94559,NAPA
CA-W-17525,LEFT COAST WINE COMPANY LLC,PRIME CELLARS,5330 SILVERADO TRL,NAPA,CA,94558,NAPA
CA-W-17143,"LEIGH & LEE WINES, LLC",TALLULAH WINES,1221 DUHIG RD,NAPA,CA,94559,NAPA
CA-W-2573,LEROY A. YOUNG,YOUNG ENTERPRISES,945 LINCOLN AVE,NAPA,CA,94558,NAPA
CA-W-22118,"LETO CELLARS, INC.",LETO CELLARS,761 TECHNOLOGY WAY,NAPA,CA,94558,NAPA
CA-W-16450,"LIEFF WINES, LLC",LIEFF WINES,5055 SOLANO AVE,NAPA,CA,94558,NAPA
CA-W-22839,"LIFE WINE, LLC",LIFE WINE,"45 ENTERPRISE CT UNIT 1,2,3,4,7",NAPA,CA,94558,NAPA
CA-W-21686,LIGHTNING WINE FARM LLC,LIGHTNING WINES,620 TRANCAS ST,NAPA,CA,94558,NAPA
CA-W-17429,"LIQUID TRADE SOLUTIONS, INC.",BIGVINE,1451 STANLY LN,NAPA,CA,94559,NAPA
CA-W-23906,"LLAMAS FAMILY WINES, INC.",LLAMAS FAMILY WINES,5225 SOLANO AVE,NAPA,CA,94558,NAPA
CA-W-22875,"LLOYD & LOUISE, INC",LOOKOUT RIDGE WINERY,110 CAMINO ORUGA,NAPA,CA,94558,NAPA
CA-W-21357,LLOYD CELLARS INC,LLOYD WINEMAKING,25 ENTERPRISE CT STE 1-8,NAPA,CA,94558,NAPA
CA-W-21437,"LOBO WINES, LLC",LOBO WINES,2275 SODA CANYON RD,NAPA,CA,94558,NAPA
CA-W-21163,"LONG-TERM WINE COMPANY, LLC",,110 CAMINO ARUGA,NAPA,CA,94558,NAPA
CA-W-3343,"LONGFELLOW WINE COMPANY, LLC",LONGFELLOW WINE COMPANY,45 ENTERPRISE WAY SUITE 1-4,NAPA,CA,94558,NAPA
CA-W-20370,"LOVALL VALLEY WINERY, LLC",GRIEVE FAMILY WINES,4326 BIG RANCH RD,NAPA,CA,94558,NAPA
CA-W-23980,LUNA VINEYARDS LLC,LUNA VINEYARDS,2921 SILVERADO TRL,NAPA,CA,94558,NAPA
CA-W-21600,"LYNNTON ENTERPRISES, LP",WING CANYON VINEYARD,3100 MT. VEEDER RD,NAPA,CA,94558,NAPA
CA-W-24052,"M & O WINE CELLARS, LLC",,5225 SOLANO AVENUE,NAPA,CA,94558,NAPA
CA-W-17770,"M.S. TORUN RANCH, INC.",M.S. TORUN RANCH,5185 WRAGG CANYON RD,NAPA,CA,94558,NAPA
CA-W-21668,"M.W. FAMILY WINE COMPANY, L.L.C.",MW WINES,620 TRANCAS ST,NAPA,CA,94558,NAPA
CA-W-23502,MAJUSCULE LLC,,1500 LOS CARNEROS AVE,NAPA,CA,94559,NAPA
CA-W-16697,"MARITA'S VINEYARD, LLC",MARITA'S VINEYARD,270 KREUZER LN,NAPA,CA,94559,NAPA
CA-W-22492,MARK JAMES DAVIS,COBDEN WINI WINES,1200 ORCHARD AVE,NAPA,CA,94558,NAPA
CA-W-16781,MARK JOSEPH BUNTER,BUNTERSPRING WINERY,1062 FIRST AVE,NAPA,CA,94558,NAPA
CA-W-21269,MARKE WINES LLC,MARKE WINES,270 KREUZER LN,NAPA,CA,94559,NAPA
CA-W-16559,MARKETTA VINEYARDS AND WINERY LLC,,528 COOMBS ST,NAPA,CA,94559,NAPA
CA-W-20559,MARKETTA VINEYARDS AND WINERY LLC,,411 FIRST ST,NAPA,CA,94559,NAPA
CA-W-21311,"MAROON WINERY, LLC",MAROON WINES,2747 NAPA VALLEY CORPORATE DR,NAPA,CA,94558,NAPA
CA-W-21707,"MARSTON FAMILY VINEYARD, LLC",MARSTON FAMILY VINEYARD,40 RAPP LN,NAPA,CA,94558,NAPA
CA-W-22984,"MATHEW BRUNO WINES, LLC",,2545 NAPA VALLEY CORPORATE DR STE C,NAPA,CA,94558,NAPA
CA-W-23876,"MATT DEMPSEY WINES, LLC","MATT DEMPSEY WINES, LLC",3311 DAVID DR,NAPA,CA,94558,NAPA
CA-W-22530,"MATTHEW RORICK WINES, INC.",MATTHEW RORICK WINES,110 CAMINO ORUGA,NAPA,CA,94558,NAPA
CA-W-16720,"MATTHIASSON FAMILY VINEYARDS, LLC",MATTHIASSON FAMILY VINEYARDS,110-122 CAMINO ORUGA,NAPA,CA,94558,NAPA
CA-W-22865,"MAWNAN LANE, INC",,2747 NAPA VALLEY CORPORATE DR,NAPA,CA,94558,NAPA
CA-W-16160,"MAYRO-MURDICK WINES, LLC",MAYRO-MURDICK WINE,1285 DEALY LN A3,NAPA,CA,94559,NAPA
CA-W-15820,"MCCRORIE FAMILY VINEYARD, LLC",MCCRORIE FAMILY VINEYARD,3106 SILVERADO TRL,NAPA,CA,94558,NAPA
CA-W-17672,"MDC WINES, LLC",MDC WINES,190 CAMINO ORUGA UNIT 24,NAPA,CA,94558,NAPA
CA-W-17159,"MELANGE A TROIS, LLC",ELEMENTS OF SONOMA,620 TRANCAS ST,NAPA,CA,94558,NAPA
CA-W-3441,MELISSA MARGARET MORAVEC & KURT G. REAUME,CASA CARNEROS,1075 BUCHLI STATION RD,NAPA,CA,94559,NAPA
CA-W-22257,MELMAR WINES LLC,,45 ENTERPRISE CT UNIT 1-4 & 7,NAPA,CA,94558,NAPA
CA-W-23952,MERIWETHER VENTURES INC,,45 ENTERPRISE CT STE 1-4 & 7,NAPA,CA,94558,NAPA
CA-W-22851,"METAPHOR WINES, INCORPORATED",,45 ENTERPRISE CT STE 1-4 & 7,NAPA,CA,94558,NAPA
CA-W-21017,"MI SUENO WINERY, INC.",MI SUENO WINERY,910 ENTERPRISE WAY STE M,NAPA,CA,94558,NAPA
CA-W-15768,MICHAEL C. YATES,YATES FAMILY VINEYARD,1721 PARTRICK RD,NAPA,CA,94558,NAPA
CA-W-2890,"MICHAEL SCOTT WINES, LTD.",MICHAEL SCOTT WINES,2993 BROOKWOOD DR,NAPA,CA,94558,NAPA
CA-W-21067,MIDSUMMER CELLARS LLC,,901 ENTERPRISE WAY STE B,NAPA,CA,94558,NAPA
CA-W-17366,MIKE AND MOLLY HENDRY,MIKE AND MOLLY HENDRY WINE COMPANY,3104 REDWOOD RD,NAPA,CA,94558,NAPA
CA-W-22246,MILK WINE LLC,,1721 PARTRICK RD,NAPA,CA,94558,NAPA
CA-W-22782,"MIRER MANAGEMENT COMPANY, LLC",MIRROR NAPA VALLEY,620 TRANCAS ST,NAPA,CA,94558,NAPA
CA-W-23343,"MITHRAS WINERY, LLC",MITHRA WINERY,15 CHATEAU LN,NAPA,CA,94558,NAPA
CA-W-21867,"MK CELLARS, LLC",,620 TRANCAS ST,NAPA,CA,94558,NAPA
CA-W-898,"MONT ST. JOHN CELLARS, INC.",MONT ST. JOHN CELLARS,5400 OLD SONOMA RD,NAPA,CA,94559,NAPA
CA-W-1128,"MONTICELLO CELLARS, INC.",MONTICELLO CELLARS,4242 BIG RANCH RD,NAPA,CA,94558,NAPA
CA-W-23433,"MORGAN IMPORTS, LLC",,45 ENTERPRISE CT STE 1-4 & 7,NAPA,CA,94558,NAPA
CA-W-22702,"MORNING SIDE VINEYARDS, INC.",,4038 BIG RANCH RD,NAPA,CA,94558,NAPA
CA-W-2169,"MOSS CREEK WINERY & VINEYARDS, INC.",MOSS CREEK WINERY,6015 STEELE CANYON RD,NAPA,CA,94558,NAPA
CA-W-22279,"MOUNT SAINT JOSEPH WINES, LLC",MOUNT SAINT JOSEPH WINES,110 CAMINO ORUGA,NAPA,CA,94558,NAPA
CA-W-21454,MOUNTAIN PEAK VINEYARDS LLC,ACUMEN,1044 LOS CARNEROS AVE,NAPA,CA,94559,NAPA
CA-W-22761,MOUNTAIN TIDES WINE CO.. LLC,MOUNTAIN TIDES WINE CO.,620 TRANCAS ST,NAPA,CA,94558,NAPA
CA-W-23751,"MOUNTAIN VIEW VINTNERS, LLC",BACKSTAGE WINERY,1 EXECUTIVE WAY BLDG 1 AND 2,NAPA,CA,94558,NAPA
CA-W-17231,"MUSANTE FAMILY VINEYARDS, LLC",MUSANTE FAMILY VINEYARDS,620 TRANCAS ST,NAPA,CA,94558,NAPA
CA-W-22045,"NAKAMURA CELLARS, LLC",NAKAMURA CELLARS,5225 SOLANO AVE,NAPA,CA,94558,NAPA
CA-W-24070,"NAKEDWINES.COM, INC.",NAKEDWINES.COM,110 122 CAMINO ORUGA,NAPA,CA,94558,NAPA
CA-W-15195,"NAPA CUSTOM PACKAGING SOLUTIONS, LLC",NAPA BOTTLING GROUP,450 TECHNOLOGY WAY SUITE B,NAPA,CA,94558,NAPA
CA-W-15686,"NAPA L'ATTITUDE, LLC",IDEOLOGY CELLARS,5225 SOLANO AVE,NAPA,CA,94558,NAPA
CA-W-21432,"NAPA RANCH WINES, LLC",NAPA RANCH WINES,2731 AND 2747 NAPA VALLEY CORPORATE DR,NAPA,CA,94558,NAPA
CA-W-16502,NAPA VALLEY COLLEGE VITICULTURE AND WINERY TECHNOLOGY FOUNDATION,,2277 NAPA VALLEJO HWY,NAPA,CA,94558,NAPA
CA-W-22078,"NAPA VALLEY CONNECTION, INC.",NAPA VALLEY CONNECTION FAMILY WINES,5225 SOLANO AVE,NAPA,CA,94558,NAPA
CA-W-16687,"NAPA VALLEY PARTNERS, LLC",SHIFFLETT FAMILY WINES,1201 DARMS LN,NAPA,CA,94558,NAPA
CA-W-21003,"NAPA WINE & SPIRITS, LLC",NAPA WINE VENTURES,1075 GOLDEN GATE DR,NAPA,CA,94558,NAPA
CA-W-22624,"NAPA WINERY GROUP, LLC",ASHES & DIAMONDS WINERY,4130 HOWARD LN,NAPA,CA,94558,NAPA
CA-W-22212,"NAPA WINERY GROUP, LLC",,110 CAMINO ORUGA,NAPA,CA,94558,NAPA
CA-W-22999,"NAPASTAK, INC",NAPASTAK CELLARS,5055 SOLANO AVE,NAPA,CA,94558,NAPA
CA-W-15342,NARSAI M. DAVID,NARSAI,7580 SILVERADO TRL,NAPA,CA,94558,NAPA
CA-W-22231,"NEIMAN CELLARS, LLC",,270 KREUZER LN,NAPA,CA,94558,NAPA
CA-W-21505,NELLCOTE WINE GROUP INC,NELLCOTE CELLARS,110 CAMINO ORUGA,NAPA,CA,94558,NAPA
CA-W-16299,"NICALI, LLC",LINDSTROM WINES,5055 SOLANO AVE,NAPA,CA,94558,NAPA
CA-W-21802,"NICHOLSON JONES SELECTIONS, LLC",NICHOLSON JONES SELECTIONS,15 CHATEAU LN,NAPA,CA,94558,NAPA
CA-W-23586,"NIDUS WINERY, LLC",,880 VALLEJO ST,NAPA,CA,94559,NAPA
CA-W-2808,O'BRIEN FAMILY VINEYARD LLC,O'BRIEN FAMILY VINEYARD,1200 ORCHARD AVE STE B,NAPA,CA,94558,NAPA
CA-W-16710,"O'NEILL VOSTI ESTATE, LLC",O'NEILL VOSTI ESTATE,5055 SOLANO AVE,NAPA,CA,94558,NAPA
CA-W-21990,"OAKVILLE RANCH WINERY, INC.",OAKVILLE RANCH,7781 SILVERADO TRL,NAPA,CA,94558,NAPA
CA-W-23873,"OAKVILLE RANCH WINERY, INC.",OAKVILLE RANCH WINERY,4326 BIG RANCH RD,NAPA,CA,94558,NAPA
CA-W-23632,OLD ACRE HOLDINGS LLC,,45 ENTERPRISE CT STE 1-4 & 7,NAPA,CA,94558,NAPA
CA-W-22583,"OLD COUNTY CELLARS, LLC","OLD COUNTY CELLARS, LLC",2731 & 2747 NAPA VALLEY CORPORATE DR,NAPA,CA,94558,NAPA
CA-W-21592,"OLD VINE WINE PARTNERS, LLC",T VINE CELLARS,5584 SILVERADO TRL,NAPA,CA,94558,NAPA
CA-W-21145,"ON Q WINES, LLC",ON Q WINES,620 TRANCAS ST,NAPA,CA,94558,NAPA
CA-W-23846,"ONEHOPE, INC",ONEHOPE,8301 SAINT HELENA HWY,NAPA,CA,94558,NAPA
CA-W-16779,"P.B. HEIN VINEYARDS, INC",P. B. HEIN VINEYARDS,918 ENTERPRISE WAY SUITE G,NAPA,CA,94558,NAPA
CA-W-17695,"P.B. HEIN VINEYARDS, INC",PB HEIN VINEYARDS,3 EXECUTIVE WAY,NAPA,CA,94558,NAPA
CA-W-17565,"PARTRIDGE CELLARS, LLC",PARTRIDGE CELLARS,1721 PARTRICK RD,NAPA,CA,94558,NAPA
CA-W-17463,"PATEL WINERY, LLC",PATEL WINERY,425 GATEWAY RD,NAPA,CA,94558,NAPA
CA-W-21400,"PATLAND ESTATE VINEYARDS, LLC",PATLAND ESTATE VINEYARDS,2275 SODA CANYON RD,NAPA,CA,94558,NAPA
CA-W-16257,PATRICIA HOWE,PATRICIA HOWE WINES,1720 SPENCER ST,NAPA,CA,94559,NAPA
CA-W-15925,"PCJ, INC.",JUSLYN VINEYARDS,110 CAMINO ORUGA,NAPA,CA,94558,NAPA
CA-W-23495,PEDRO RODRIGUEZ,FATHIA WINES,39 EDGEFIELD CT,NAPA,CA,94558,NAPA
CA-W-22226,"PEJU FAMILY OPERATING PARTNERSHIP, LP",LIANA ESTATES,2750 LAS AMIGAS RD,NAPA,CA,94558,NAPA
CA-W-23522,"PERLISS ESTATE VINEYARDS, LLC",PERLISS ESTATE VINEYARDS,"831 LATOUR CT STE B, C AND D",NAPA,CA,94558,NAPA
CA-W-22442,PERNOD RICARD WINEMAKERS NAPA LLC,MUMM NAPA ESTATES,8445 SILVERADO TRL,NAPA,CA,94558,NAPA
CA-W-2487,"PERRY VINEYARDS, INC.",,1187 GREEN VALLEY RD,NAPA,CA,94558,NAPA
CA-W-23498,PERSON WINE LLC,PERSON WINE COMPANY,1 EXECUTIVE WAY,NAPA,CA,94558,NAPA
CA-W-16091,"PETER FRANUS WINE COMPANY, INC",PETER FRANUS WINE COMPANY,5055 SOLANO AVE,NAPA,CA,94558,NAPA
CA-W-16292,PETER J. HOFFMANN,HOFFMANN FAMILY WINERY,2844 MONTICELLO RD,NAPA,CA,94558,NAPA
CA-W-16980,"PETER PAUL WINES, LLC",PETER PAUL WINES,5055 SOLANO AVE,NAPA,CA,94558,NAPA
CA-W-23996,"PETER PAUL WINES, LLC",PETER PAUL WINES,1 EXECUTIVE WAY BLDG 1 & 2,NAPA,CA,94558,NAPA
CA-W-16262,PETER RENWICK THOMPSON,ANDREW GEOFFREY VINEYARD,3104 REDWOOD RD,NAPA,CA,94558,NAPA
CA-W-21980,PETREE CELLARS,,"45 ENTERPRISE CT STE 1,2,3,4,7",NAPA,CA,94558,NAPA
CA-W-23848,"PHOENIX WINE COMPANY, LLC",DE NEGOCE,110 - 122 CAMINO ORUGA,NAPA,CA,94558,NAPA
CA-W-22272,PICAYUNE CELLARS LLC,,2747 NAPA VALLEY CORPORATE DR,NAPA,CA,94558,NAPA
CA-W-16178,"PICAZO VINEYARDS, INC.",PICAZO VINEYARDS,270 KREUZER LN,NAPA,CA,94559,NAPA
CA-W-16518,"PICKETT ROAD WINE COMPANY, LLC",,5055 SOLANO AVE,NAPA,CA,94558,NAPA
CA-W-2512,"PINE RIDGE WINERY, LLC",PINE RIDGE WINERY,5901 SILVERADO TRL,NAPA,CA,94558,NAPA
CA-W-16409,"POEM CELLARS, LLC",POEM CELLARS,5225 SOLANO AVE,NAPA,CA,94558,NAPA
CA-W-21055,POPCORN DESIGN LLC,PROSPECT BRANDS,5055 SOLANO AVE,NAPA,CA,94558,NAPA
CA-W-16222,"PORTER FAMILY VINEYARDS, LLC",PORTER FAMILY VINEYARDS,1189 GREEN VALLEY RD,NAPA,CA,94558,NAPA
CA-W-2666,"PORTFOLIO LIMITED EDITION, LLC",,86 EL NIDO DR,NAPA,CA,94559,NAPA
CA-W-22030,POTT WINE,POTT WINE,"831 LATOUR CT STE B, C & D",NAPA,CA,94558,NAPA
CA-W-21794,"PRIM FAMILY VINEYARD, LLC",HUB & SPOKE WINE CO,4326 BIG RANCH RD,NAPA,CA,94558,NAPA
CA-W-21444,"PRIME SOLUM, LLC",PRIME SOLUM,2731 & 2747 NAPA VALLEY CORPORATE DR,NAPA,CA,94558,NAPA
CA-W-22156,"PROGENY WINERY, LLC",PROGENY WINERY,1032 MOUNT VEEDER RD,NAPA,CA,94558,NAPA
CA-W-17442,"PROJECT WEEKENDER, LLC",,520 AIRPARK RD,NAPA,CA,94558,NAPA
CA-W-17307,"PURECRU, LLC",PURECOS,2545 NAPA VALLEY CORPORATE DR STE C,NAPA,CA,94558,NAPA
CA-W-20097,"PURLIEU WINES, INC.",PURLIEU WINES,"190 CAMINO ORUGA STE 5,9,12 RD",NAPA,CA,94558,NAPA
CA-W-23032,"QUIXOTE WINERY, LLC",,6126 SILVERADO TRAIL,NAPA,CA,94558,NAPA
CA-W-22122,"RAMSPUR WINERY, LLC",RAMSPUR WINERY,"45 ENTERPRISE CT UNIT 1,2,3,4,7",NAPA,CA,94558,NAPA
CA-W-16510,"RAMSPUR WINERY, LLC",,3100 OLD SONOMA RD,NAPA,CA,94558,NAPA
CA-W-17626,RANG DONG JOINT STOCK COMPANY,RD WINERY,1 EXECUTIVE WAY BLDG 1 & 2,NAPA,CA,94558,NAPA
CA-W-2203,"RAYMOND E. SIGNORELLO, JR.",SIGNORELLO VINEYARDS,4500 SILVERADO TRL,NAPA,CA,94558,NAPA
CA-W-1745,RAYMOND GREGORY RODENO,VILLA RAGAZZI,7878 MONEY RD,NAPA,CA,94558,NAPA
CA-W-2678,"RAZI'S WINERY, LLC",RAZI'S WINERY,3106 SILVERADO TRL,NAPA,CA,94558,NAPA
CA-W-17681,REBEL WINE CO. LLC,,2055 HOFFMAN LN,NAPA,CA,94558,NAPA
CA-W-22742,REBIRTH WINE BRANDS LLC,TARPON CELLARS,5225 SOLANO AVE,NAPA,CA,94558,NAPA
CA-W-22812,"REDMON FAMILY VINEYARDS, LLC",,4326 BIG RANCH RD,NAPA,CA,94558,NAPA
CA-W-15209,"REGUSCI WINERY, INCORPORATED",REGUSCI WINERY,5584 SILVERADO TRL,NAPA,CA,94558,NAPA
CA-W-21831,"RELIC WINE CELLARS, LLC",RELIC WINE CELLARS,2400 SODA CANYON RD,NAPA,CA,94558,NAPA
CA-W-21963,"RENDA WINES, LLC",,2545 NAPA VALLEY CORPORATE DR STE C,NAPA,CA,94558,NAPA
CA-W-16154,"RENTERIA WINES, LLC",RENTERIA,703 OAKVILLE CROSS RD,NAPA,CA,94558,NAPA
CA-W-23442,"REPUBLIC OF NAPA, INC.",,2731 & 2747 NAPA VALLEY CORPORATE DR,NAPA,CA,94558,NAPA
CA-W-22521,"REWA VINEYARDS, LLC",REWA VINEYARDS,5055 SOLANO AVE,NAPA,CA,94558,NAPA
CA-W-3001,"REYNOLDS CREATIVE PRODUCTS, INC.",,3266 SILVERADO TRL,NAPA,CA,94558,NAPA
CA-W-20400,"RHEO CELLARS, LLC",RHEO CELLARS,5225 SOLANO AVE,NAPA,CA,94558,NAPA
CA-W-22572,RICHARD GRAESER,GRAESER WINERY,877 VALLEJO ST,NAPA,CA,94559,NAPA
CA-W-21285,"RIPE USA, INC.",,4088 ATLAS PEAK RD,NAPA,CA,94558,NAPA
CA-W-17098,ROBERT DUNCAN NICOL,LA JOLLA,620 TRANCAS ST,NAPA,CA,94558,NAPA
CA-W-22998,"ROBERT JOHN VINEYARDS, LLC",ROBERT JOHN VINEYARDS,"45 ENTERPRISE WAY UNIT 1,2,3,4,7",NAPA,CA,94558,NAPA
CA-W-2013,ROBERT MONDAVI WINERY,,1319 DUHIG RD,NAPA,CA,94558,NAPA
CA-W-3442,"ROBINSON FAMILY VINEYARDS, LLC",,5880 SILVERADO TRL,NAPA,CA,94558,NAPA
CA-W-16824,"ROCCA FAMILY VINEYARDS, INC.",ROCCA FAMIILY VINEYARDS,5055 SOLANO AVE,NAPA,CA,94558,NAPA
CA-W-22786,ROCK AND CLAY WINES LLC,,45 ENTERPRISE CT STE 1-4 & 7,NAPA,CA,94558,NAPA
CA-W-17384,RODDE FAMILY VINEYARDS,,425 GATEWAY RD,NAPA,CA,94558,NAPA
CA-W-16033,"ROMBAUER VINEYARDS, INC.",ROMBAUER VINEYARDS,601 AIRPARK,NAPA,CA,94558,NAPA
CA-W-15289,"ROMEO VINEYARDS & CELLARS, LLC",ROMEO VINEYARDS & CELLARS,5055 SOLANO AVE,NAPA,CA,94558,NAPA
CA-W-17746,"RON MCGINNIS WINERY, LLC",,45 ENTERPRISE CT STE 3,NAPA,CA,94558,NAPA
CA-W-2997,RONALD G. AND SUSAN E. ADAMS,ADAMS RIDGE,3181 KINGSTON AVE,NAPA,CA,94558,NAPA
CA-W-21484,ROUGE ADIEU INC,ROUGE ADIEU,5225 SOLANO AVE,NAPA,CA,94558,NAPA
CA-W-21090,"ROUND POND ESTATE, LLC",ROUND POND WINES,4326 BIG RANCH RD,NAPA,CA,94558,NAPA
CA-W-20474,ROWDY RED WINE COMPANY LLC,VANISHING POINT WINERY,5225 SOLANO AVE,NAPA,CA,94558,NAPA
CA-W-22950,ROY ESTATE WINES LLC,ROY ESTATE,4326 BIG RANCH RD,NAPA,CA,94558,NAPA
CA-W-22717,"ROYAL WINE & SPIRITS, LLC",ROYAL PRINCE WINES,110-122 CAMINO ORUGA,NAPA,CA,94558,NAPA
CA-W-22172,"RUBIA, L.L.C.",,"190 CAMINO ORUGA STE 5, 9 & 12",NAPA,CA,94558,NAPA
CA-W-16264,RUBISSOW FAMILY WINES LLC,RUBISSOW,110 CAMINO ORUGA,NAPA,CA,94558,NAPA
CA-W-16303,"RUTHERFORD BENCH, LLC",HOWELL MOUNTAIN VINEYARDS,110 CAMINO ORUGA,NAPA,CA,94558,NAPA
CA-W-22985,RUTLEDGE & VINE LLC,RUTLEDGE & VINE,880 VALLEJO ST,NAPA,CA,94559,NAPA
CA-W-3256,"S&R ASSOCIATES, LLC",MATCH VINEYARDS,110 CAMINO ORUGA,NAPA,CA,94558,NAPA
CA-W-3544,SAINTSBURY LLC,SAINTSBURY,1500 LOS CARNEROS AVE,NAPA,CA,94559,NAPA
CA-W-22359,SAMANTHA SHEEHAN IMPORTS,,2222 N THIRD AVE,NAPA,CA,94558,NAPA
CA-W-23921,SAMANTHA SHEEHAN IMPORTS,POE WINES,1500 LOS CARNEROS AVE,NAPA,CA,94559,NAPA
CA-W-17358,SAMANTHA SHEEHAN IMPORTS,SAMANTHA SHEEHAN,4326 BIG RANCH RD,NAPA,CA,94558,NAPA
CA-W-17183,"SANDY BAY HOLDING COMPANY, LLC",ARATAS WINE,1221 DUHIG RD,NAPA,CA,94559,NAPA
CA-W-22956,"SARAH FRANCIS WINES, LLC",SARAH FRANCIS WINES,2731 NAPA CORPORATE DR,NAPA,CA,94558,NAPA
CA-W-22119,SAWYER CELLARS,,761 TECHNOLOGY WAY,NAPA,CA,94558,NAPA
CA-W-21477,SCALON CELLARS INC.,,"190 CAMINO ORUGA STE 5, 9, & 12",NAPA,CA,94558,NAPA
CA-W-16219,"SCHRADER VINEYARDS, LLC",SCHRADER VINEYARDS,1271 MONTICELLO RD,NAPA,CA,94558,NAPA
CA-W-16884,"SCIANDRI FAMILY VINEYARDS, LLC",SCIANDRI FAMILY VINEYARD,2275 SODA CANYON RD,NAPA,CA,94558,NAPA
CA-W-22018,"SHADOWBOX CELLARS, INC.",SHADOWBOX CELLARS,"45 ENTERPRISE CT STE 1-4, 7",NAPA,CA,94558,NAPA
CA-W-22304,"SHADYBROOK ESTATE, LLC",SHADYBROOK ESTATE WINERY,100 RAPP LN,NAPA,CA,94558,NAPA
CA-W-1044,SHAFER VINEYARDS,,6154 SILVERADO TRL,NAPA,CA,94558,NAPA
CA-W-22736,SHANTI WINES LLC,SHANTI WINES,"45 ENTERPRISE CT UNIT 1,2,3,4,7",NAPA,CA,94558,NAPA
CA-W-22833,SHED CREEK CELLARS LLC,,45 ENTERPRISE CT STE 1-4 & 7,NAPA,CA,94558,NAPA
CA-W-3069,"SHED-TEAU WINES, LLC",SHED-TEAU WINES,1081 ROUND HILL CIR,NAPA,CA,94558,NAPA
CA-W-17510,"SHIISA CELLARS, LLC",SHIISA CELLARS,3055 OLD SONOMA RD,NAPA,CA,94558,NAPA
CA-W-20440,"SIERRA WINE COMPANY, LLC",FOUR WINDS CELLARS,5225 SOLANO AVE,NAPA,CA,94558,NAPA
CA-W-17426,SILENUS INTERNATIONAL GROUP INC.,SILENUS WINERY,5225 SOLANO AVE,NAPA,CA,94558,NAPA
CA-W-22807,SILVA FAMILY VINEYARDS LLC,,45 ENTERPRISE CT STE 1-4 & 7,NAPA,CA,94558,NAPA
CA-W-20586,"SILVER TRIDENT WINERY, LLC",SILVER TRIDENT WINERY,5055 SOLANO AVE,NAPA,CA,94558,NAPA
CA-W-15954,SIN E. WINE COMPANY,HAVENS WINE CELLARS,2055 HOFFMAN LN,NAPA,CA,94558,NAPA
CA-W-1617,"SINSKEY VINEYARDS, INC.",ROBERT SINSKEY VINEYARDS,6320 SILVERADO TRL,NAPA,CA,94558,NAPA
CA-W-22407,"SIRE ESTATE, LLC",SIRE ESTATE,15 CHATEAU LN,NAPA,CA,94558,NAPA
CA-W-16952,"SIX CELLARS, LLC",TROUBADOUR CELLARS,"45 ENTERPRISES CT UNITS 1, 3",NAPA,CA,94558,NAPA
CA-W-23542,"SKY DEVIL GROUP, LLC",SKY DEVIL GROUP,703 OAKVILLE CROSS RD,NAPA,CA,94558,NAPA
CA-W-23556,SKYHARP CELLARS,SKYHARP CELLARS,4326 BIG RANCH RD,NAPA,CA,94558,NAPA
CA-W-2210,"SMITH-ANDERSON ENTERPRISES, INC.",,2747 NAPA VALLEY CORPORATE DR,NAPA,CA,94558,NAPA
CA-W-23379,"SODA CANYON CRUSH & HOSPITALITY, LLC",THE CAVES AT SODA CANYON,2275 SODA CANYON RD,NAPA,CA,94558,NAPA
CA-W-16909,"SODA CANYON, LLC",RIVERA VINEYARDS,1285 DEALY LN,NAPA,CA,94559,NAPA
CA-W-2852,"SODARO WINES, LLC",SODARO WINES,24 BLUE OAK LN,NAPA,CA,94558,NAPA
CA-W-2155,"SPELLETICH FAMILY, INC.",SPELLETICH CELLARS,2545 NAPA VALLEY CORPORATE DR STE C,NAPA,CA,94558,NAPA
CA-W-15367,SPENCE VINEYARDS LLC,SPENCE VINEYARDS,110 CAMINO ORUGA,NAPA,CA,94558,NAPA
CA-W-16832,SPOTTED OWL VINEYARDS AND CELLARS L.L.C.,,1986 WALDEN LN,NAPA,CA,94558,NAPA
CA-W-23048,"SR TONELLA CELLARS, LLC",,4326 BIG RANCH RD,NAPA,CA,94558,NAPA
CA-W-21087,"ST CLAIR & BROWN WINERY, LLC",,1605 ACTION AVE,NAPA,CA,94558,NAPA
CA-W-23216,ST. ROMEDIUS LLC,ST. ROMEDIUS WINE,2511 NAPA VALLEY CORPORATE DR STE 115,NAPA,CA,94558,NAPA
CA-W-16171,"STAG'S LEAP WINE CELLARS, LLC",STAG'S LEAP WINE CELLARS,5766 SILVERADO TRL,NAPA,CA,94558,NAPA
CA-W-16199,"STAG'S LEAP WINE CELLARS, LLC",STAG'S LEAP WINE CELLARS,904 ENTERPRISE WAY,NAPA,CA,94558,NAPA
CA-W-20306,STEPHEN T. LAGIER AND CAROLE P. MEREDITH,LAGIER MEREDITH VINEYARD,2747 NAPA VALLEY CORPORATE DR,NAPA,CA,94558,NAPA
CA-W-21601,STEPHEN TAYLOR JENNINGS,AVEO WINES,"520 CALIFORNIA ST STE 18,19,20",NAPA,CA,94559,NAPA
CA-W-23823,STOUT FAMILY WINES LLC,,1 EXECUTIVE WAY,NAPA,CA,94558,NAPA
CA-W-22533,"STRALA VINEYARDS, LLC",STRALA VINEYARDS,3106 SILVERADO TRL,NAPA,CA,94558,NAPA
CA-W-23615,"SUMMIT VINEYARDS ESTATE, LLC",SEVEN APART,4057 SILVERADO TRL,NAPA,CA,94558,NAPA
CA-W-23126,"SUMMIT VINEYARDS ESTATE, LLC",BEAU VIGNE WINES,110 CAMINO ORUGA,NAPA,CA,94558,NAPA
CA-W-15875,"SUNFISH PROPERTIES, LLC",PUNK DOG WINES,"918 & 912 ENTERPRISE WAY STE G,I,A,D",NAPA,CA,94558,NAPA
CA-W-16636,"SUNSET ARRANGERS, INC.",LION'S RUN WINERY,1721 PARTRICK RD,NAPA,CA,94558,NAPA
CA-W-15251,"SURH CELLARS, INC.",SURH CELLARS,1221 DUHIG RD,NAPA,CA,94559,NAPA
CA-W-17331,"SUTTER HOME WINERY, INC.",,2055 HOFFMAN LN,NAPA,CA,94558,NAPA
CA-W-21465,"TAPLIN CELLARS, LLC",TAPLIN CELLARS,"190 CAMINO ORUGA STE 5, 9, & 12",NAPA,CA,94558,NAPA
CA-W-16140,"TAYLOR FAMILY VINEYARDS, LLC",TAYLOR FAMILY VINEYARDS,902 ENTERPRISE WAY SUITE P,NAPA,CA,94558,NAPA
CA-W-16878,"TAYSON PIERCE ESTATE WINES, LLC",TAYSON PIERCE,5055 SOLANO AVE,NAPA,CA,94558,NAPA
CA-W-15375,TC VINEYARDS INC.,,2232 BIG RANCH RD,NAPA,CA,94558,NAPA
CA-W-22597,"TENCH WINERY, LLC",TENCH WINES,7633 SILVERADO TRL,NAPA,CA,94558,NAPA
CA-W-3035,TERRA SPRINGS LLC,TERRA VALENTINE,620 TRANCAS ST,NAPA,CA,94558,NAPA
CA-W-21051,"TESTANEY, INC.",MICHAEL CAITLIN WINES,425 GATEWAY DR,NAPA,CA,94558,NAPA
CA-W-2167,THE BIALE ESTATE,ROBERT BIALE VINEYARDS,4038 BIG RANCH ROAD,NAPA,CA,94558,NAPA
CA-W-17415,THE GIRLS IN THE VINEYARD,ART+FARM WINE,110 CAMINO ORUGA,NAPA,CA,94558,NAPA
CA-W-21431,"THE HALCYON SYNDICATE LTD., LLC",MARITIME WINE TRADING COLLECTIVE,45 ENTERPRISE CT UNIT 1-4 & 7,NAPA,CA,94558,NAPA
CA-W-16012,THE HARDER GROUP,JAMES COLE WINERY,5014 SILVERADO TRL,NAPA,CA,94558,NAPA
CA-W-23888,THE HARDER GROUP,JAMES COLE WINERY,394 /396 DEVLIN RD,NAPA,CA,94558,NAPA
CA-W-1397,THE HESS COLLECTION WINERY,HESS WINE COMPANY,4411 REDWOOD RD,NAPA,CA,94558,NAPA
CA-W-21901,THE MCNERNEY FAMILY TRUST,LE CHANCEUX,5225 SOLANO AVE,NAPA,CA,94558,NAPA
CA-W-21257,"THE MORLET SELECTION, INCORPORATED",,"425 GATEWAY RD, W",NAPA,CA,94558,NAPA
CA-W-23034,"THE RED STITCH WINE GROUP, LLC",,910 ENTERPRISE WAY STE M,NAPA,CA,94558,NAPA
CA-W-1085,THE SILVERADO VINEYARDS,SILVERADO VINEYARDS,6121 SILVERADO TRL,NAPA,CA,94558,NAPA
CA-W-23672,THE UNFOUNDED COLLECTIVE LLC,CATCH AND RELEASE WINES,589 TROUT WAY,NAPA,CA,94558,NAPA
CA-W-22906,THE WOODMAR GROUP LLC,,2747 NAPA VALLEY CORPORATE DRIVE,NAPA,CA,94558,NAPA
CA-W-22824,THIRTY-ONE PRODUCTION LLC,THIRTY-ONE PRODUCTION,620 TRANCAS ST,NAPA,CA,94558,NAPA
CA-W-3305,THIS REALM LLC,REALM CELLARS,5795 SILVERADO TRL,NAPA,CA,94558,NAPA
CA-W-22171,THOMAS MICHAEL BARDESSONO,BARDESSONO YOUNTVILLE VINEYARDS,2545 NAPA VALLEY CORPORATE DR STE C,NAPA,CA,94558,NAPA
CA-W-17258,"THORN HILL VINEYARDS, INC.",THORN HILL VINEYARDS,5225 SOLANO AVE,NAPA,CA,94558,NAPA
CA-W-16196,"TI BEVERAGE GROUP, LTD.",TRANSYLVANIA IMPORTS,110 CAMINA ORUGA,NAPA,CA,94558,NAPA
CA-W-16027,TITUS VINEYARDS,TITUS FAMILY WINES,5055 SOLANO AVE,NAPA,CA,94558,NAPA
CA-W-22793,"TMR CELLARS, LLC",,2545 NAPA VALLEY CORPORATE DR STE C,NAPA,CA,94558,NAPA
CA-W-21317,"TOBACCO ROAD VINEYARDS, LLC.",TOBACCO ROAD VINEYARDS,45 ENTERPRISE CT,NAPA,CA,94558,NAPA
CA-W-21554,TOD M. RATFIELD AND KRISTINE M. GROMACKI PARTNERSHIP,RATFIELD WINE VENTURES,3108 SILVERADO TRL,NAPA,CA,94558,NAPA
CA-W-21549,TOGNETTI FAMILY WINERY LLC,,5225 SOLANO AVE,NAPA,CA,94558,NAPA
CA-W-17430,TOM & DIANA FOSTER,THOMAS MICHAEL,3311 DAVID DR,NAPA,CA,94558,NAPA
CA-W-17047,TOOLBOX WINE CO. LLC,TOOLBOX,902 ENTERPRISE WAY SUITE P,NAPA,CA,94558,NAPA
CA-W-21475,TOP IT OFF BOTTLING LLC,TOP IT OFF BOTTLING,2731 & 2747 NAPA VALLEY CORPORATE DR,NAPA,CA,94558,NAPA
CA-W-15971,"TORTUGA VINEYARDS, LLC",TORTUGA VINEYARDS,15 HAHNERMANN LN,NAPA,CA,94558,NAPA
CA-W-21450,TOULON WINE COMPANY LLC,AVINODOS WINES,901 ENTERPRISE WAY STE B,NAPA,CA,94558,NAPA
CA-W-15473,TOWER WINE CO. LLC,TOWER WINES,1160 OAK KNOLL AVE,NAPA,CA,94558,NAPA
CA-W-24021,"TOYON FARM (2), LLC",TOYON FARM,1221 DUHIG RD,NAPA,CA,94559,NAPA
CA-W-674,"TPWC, INC.",MT. VEEDER WINERY,1999 MOUNT VEEDER RD,NAPA,CA,94558,NAPA
CA-W-3565,"TRAHAN WINERY, LLC",TRAHAN WINERY,2511 NAPPA VALLEY CORPORATE DR STE 115,NAPA,CA,94558,NAPA
CA-W-23762,TRAILSIDE VINEYARD LLC,,4047 E THIRD AVE,NAPA,CA,94558,NAPA
CA-W-867,TREASURY WINE ESTATES AMERICAS COMPANY,,6150 SILVERADO TRL,NAPA,CA,94558,NAPA
CA-W-3077,TREASURY WINE ESTATES AMERICAS COMPANY,,1250 CUTTINGS WHARF RD,NAPA,CA,94559,NAPA
CA-W-17789,"TREFETHEN FAMILY WINERY, LLC",TREFETHEN VINEYARDS,1160 OAK KNOLL AVE,NAPA,CA,94558,NAPA
CA-W-16006,"TRINITAS CELLARS, LLC",TRINITAS CELLARS,2747 & 2731 NAPA VALLEY CORPORATE DR,NAPA,CA,94558,NAPA
CA-W-22026,"TRIUMPH BEVERAGE COMPANY, LLC",TRIUMPH BEVERAGE COMPANY,3148 SODA CANYON RD,NAPA,CA,94558,NAPA
CA-W-21523,"TRUJILLO WINES, LLC",TRUJILLO WINES,4326 BIG RANCH RD,NAPA,CA,94558,NAPA
CA-W-21619,"TSG, LLC",,"45 ENTERPRISE CT UNIT 1,2,3,4,7",NAPA,CA,94558,NAPA
CA-W-22338,"TWO 4 STU, LLC",LERNER PROJECT,7633 SILVERADO TRL,NAPA,CA,94558,NAPA
CA-W-22434,TYLER ELWELL,HALCYON WINES,2511 NAPA VALLEY CORPORATE DR. BLDG 115,NAPA,CA,94558,NAPA
CA-W-23658,"ULTIMATE NAPA WINE DESIGNS, LLC",CHIRON WINES,"45 ENTERPRISE CT UNIT 1-4, 7",NAPA,CA,94558,NAPA
CA-W-23025,"ULTIMATE NAPA WINE DESIGNS, LLC",CHIRON WINES,4326 BIG RANCH RD,NAPA,CA,94558,NAPA
CA-W-17703,"UNUM WINE CELLARS, LLC",,7850 SILVERADO TRL,NAPA,CA,94558,NAPA
CA-W-24050,UPCYCLED BEVERAGES LLC,,45 ENTERPRISE CT STE 1-4 & 7,NAPA,CA,94558,NAPA
CA-W-20204,"VAN BRUNT LEWIS, LLC",,2222 N THIRD AVE,NAPA,CA,94558,NAPA
CA-W-23853,VAN ZYL FAMILY LLC DBA BELONG WINE CO.,BELONG WINE CO.,1 EXECUTIVE WAY,NAPA,CA,94558,NAPA
CA-W-17535,VEEDERCREST ESTATES LLC,VEEDERCREST ESTATES,55 ENTERPRISE CT SUITE 5,NAPA,CA,94558,NAPA
CA-W-23229,VIGNA DEI GATTI PARTNERS LLC,VIGNA DEI GATTI,4266 E THIRD AVE,NAPA,CA,94558,NAPA
CA-W-21174,"VIGNETTE WINERY, LLC",WINE FOUNDRY,"45 ENTERPRISE CT UNIT 1,2,3,4,7",NAPA,CA,94558,NAPA
CA-W-17636,"VILLA ENCINAL PARTNERS, L.P.",,5998 SILVERADO TRL,NAPA,CA,94558,NAPA
CA-W-2030,"VINE CLIFF WINERY, INC.",,7400 SILVERADO TRL,NAPA,CA,94558,NAPA
CA-W-22544,VINEBOX INC.,,5055 SOLANO AVE,NAPA,CA,94558,NAPA
CA-W-17576,"VINEYARD 511, LLC",VINEYARD 511,25 ENTERPRISES CT STE 4-8,NAPA,CA,94558,NAPA
CA-W-22005,"VINO CAPITAL PARTNERS, LLC",VINO CAPITAL PARTNERS,2731 & 2747 NAPA VALLEY CORPORATE DR,NAPA,CA,94558,NAPA
CA-W-21833,"VINO FAVOLOSO IMPORTING AND DISTRIBUTING, LLC",LA CHERTOSA WINES,2747 NAPA VALLEY CORPORATE DR,NAPA,CA,94558,NAPA
CA-W-23166,"VINTNERS CHOICE CELLARS, LLC",VINTNER'S CHOICE CELLARS,2545 NAPA VALLEY CORPORATE DR STE C,NAPA,CA,94558,NAPA
CA-W-22335,"VINTNERS CHOICE CELLARS, LLC",,5225 SOLANO AVE,NAPA,CA,94558,NAPA
CA-W-23223,WALDELE FAMILY WINES LLC,WALDELE FAMILY WINES LLC,1075 BUCHLI STATION RD,NAPA,CA,94559,NAPA
CA-W-3071,"WAUGH CELLARS, LLC",WAUGH CELLARS,2468 PACIFC ST,NAPA,CA,94558,NAPA
CA-W-21044,"WESMARC WINE, LLC.",,5055 SOLANO AVE,NAPA,CA,94558,NAPA
CA-W-24089,"WGG ENTERPRISES, LLC",NOTTINGHAM CELLARS,2654 NAPA VALLEY CORPORATE DR,NAPA,CA,94558,NAPA
CA-W-16966,"WHETSTONE WINE CELLARS, LLC",WHETSTONE WINE CELLARS,5055 SOLANO AVE,NAPA,CA,94558,NAPA
CA-W-21734,"WHITE ROCK VINEYARDS, INC.",,1115 LOMA VISTA DR,NAPA,CA,94558,NAPA
CA-W-23197,"WILLAMETTE VALLEY VINEYARDS, INC.",NATOMA,7554 ST. HELENA HWY,NAPA,CA,94558,NAPA
CA-W-626,WILLIAM C. CADMAN,TULOCAY WINERY,1426 COOMBSVILLE RD,NAPA,CA,94558,NAPA
CA-W-1629,WILLIAM F. BRYANT,KATE'S VINEYARD,5211 BIG RANCH RD,NAPA,CA,94558,NAPA
CA-W-23052,"WINE COUNTRY CONNECTION, LLC",,201 DEVLIN RD,NAPA,CA,94558,NAPA
CA-W-22886,WINEPLAYGROUND.COM,FIFTYROW VINYARDS,5225 SOLANO AVE,NAPA,CA,94558,NAPA
CA-W-23360,"WINERY EXCHANGE, INC.",,2515 NAPA VALLEY CORPORATE DR,NAPA,CA,94558,NAPA
CA-W-21910,WINEXYZ LLC,,45 ENTERPRISE CT UNIT 1-4 & 7,NAPA,CA,94558,NAPA
CA-W-2360,"WOLF FAMILY VINEYARDS, INC.",,1285 DEALY LN,NAPA,CA,94559,NAPA
CA-W-16839,"WOLF INVESTMENTS, LLC",NICHOLAS ALLEN WINES,1221 DUHIG RD,NAPA,CA,94559,NAPA
CA-W-21247,"WONDERMENT WINES, LLC",WONDERMENT WINES,5055 SOLANO AVE,NAPA,CA,94558,NAPA
CA-W-23389,WORLD OF WINE LIMITED,"WORLD OF WINE, LTD.",55 ENTERPRISE CT STE 5,NAPA,CA,94558,NAPA
CA-W-21769,"XVCH, LLC",COVERT ESTATE,15 CHATEAU LN,NAPA,CA,94558,NAPA
CA-W-22004,YELLOW CLAY FARM CO.,MCKENZIE-MUELLER VINEYARDS & WINERY,2530 LAS AMIGAS RD,NAPA,CA,94559,NAPA
CA-W-23236,YORK CREEK WINERY LLC,YORK CREEK WINERY,"45 ENTERPRISE CT UNIT 1-4, 7",NAPA,CA,94558,NAPA
CA-W-21752,"YOUNT RIDGE CELLARS, LLC",,5055 SOLANO AVE,NAPA,CA,94558,NAPA
CA-W-23916,ZACHARY JAMES LUMAN,HENRY JAMES WINE,5225 SOLANO AVE,NAPA,CA,94558,NAPA
CA-W-2956,"ZD WINES, LLC",ZD WINES,8383 SILVERADO TRL,NAPA,CA,94558,NAPA
CA-W-22722,"ZEITGEIST CELLARS, LLC",ZEITGEIST CELLARS,1221 DUHIG RD,NAPA,CA,94559,NAPA
CA-W-22241,"APRIORI CELLAR, LLC",,7830-40 ST. HELENA HWY,OAKVILLE,CA,94562,NAPA
CA-W-2607,"ARCANA, LLC",,7830 ST. HELENA HWY,OAKVILLE,CA,94562,NAPA
CA-W-23602,ARRON JOHNSON,THE LODGE WINERY & OLIVE OIL CO,783040 ST HELENA HWY,OAKVILLE,CA,94562,NAPA
CA-W-2138,BETTER BRANDS INTERNATIONAL,MICHAEL POZZAN WINERY,7830 SAINT HELENA HWY SUITE 22,OAKVILLE,CA,94562,NAPA
CA-W-15808,"BEVAN CELLARS, LLC",BEVAN CELLARS,7633 SILVERADO TRL,OAKVILLE,CA,94558,NAPA
CA-W-17405,"BLACKBIRD VINEYARDS, LLC",BLACKBIRD VINEYARDS,7830 SAINT HELENA HWY SUITE 2,OAKVILLE,CA,94562,NAPA
CA-W-17502,"CONSTELLATION BRANDS U.S. OPERATIONS, INC.",ROBERT MONDAVI WINERY,7801 ST. HELENA HIGHWAY,OAKVILLE,CA,94562,NAPA
CA-W-23947,"DANA'S ORGANIC WINES, INC.",WANDER + IVY,7830 - 40 ST HELENA HWY,OAKVILLE,CA,94558,NAPA
CA-W-17267,"DEAN & DELUCA MARKETS, LLC",,500 OAKVILLE XRD,OAKVILLE,CA,94562,NAPA
CA-W-16790,DIVOT ENTERPRISES LLC,,7830-40 ST. HELENA HIGHWAY,OAKVILLE,CA,94562,NAPA
CA-W-2926,"DOLCE, LLC",DOLCE,1350 ACACIA DR,OAKVILLE,CA,94562,NAPA
CA-W-16535,"EPONYMOUS WINERY, LLC",,7830 ST. HELENA HWY,OAKVILLE,CA,94562,NAPA
CA-W-22445,"ERBA ESTATE VINEYARDS, L.L.C.",ERBA MOUNTAINSIDE VINEYARDS,7830 -40 ST. HELENA HWY STE 13,OAKVILLE,CA,94562,NAPA
CA-W-1940,"FAR NIENTE WINERY, INC.",FAR NIENTE,1350 ACACIA DR,OAKVILLE,CA,94562,NAPA
CA-W-23412,"FN CELLARS, LLC",,7600 ST HELENA HWY,OAKVILLE,CA,94562,NAPA
CA-W-21254,"GAMBLE FAMILY VINEYARDS, LLC",,7554 SAINT HELENA HWY,OAKVILLE,CA,94562,NAPA
CA-W-21607,GENE AND PAULA KELLY,KELLY FAMILY VINEYARDS,7830-40 ST. HELENA HWY,OAKVILLE,CA,94562,NAPA
CA-W-2688,"GROTH VINEYARDS AND WINERY, LLC",,750 OAKVILLE CROSS RD,OAKVILLE,CA,94562,NAPA
CA-W-2422,"HARLAN ESTATE WINERY, INC.",HARLAN ESTATE WINERY,1551 OAKVILLE GRADE,OAKVILLE,CA,94562,NAPA
CA-W-2691,"HARLAN FAMILY DOMAIN, LLC",HARLAN FAMILY DOMAIN,1551 OAKVILLE GRADE,OAKVILLE,CA,94562,NAPA
CA-W-15170,"HERON WINES, INC.",HERON WINES,7830 ST. HELENA HWY,OAKVILLE,CA,94562,NAPA
CA-W-20401,"INVESTORS WINE COMPANY, INC.",LIPARITA CELLARS,783040 ST. HELENA HWY,OAKVILLE,CA,94562,NAPA
CA-W-16489,"JACKSON FAMILY WINES, INC.",CARDINALE WINERY,7600 ST HELENA HWY,OAKVILLE,CA,94562,NAPA
CA-W-23555,"JACOB FRANKLIN WINES, LLC",JACOB FRANKLIN WINES,7850 SILVERADO TRL,OAKVILLE,CA,94562,NAPA
CA-W-21878,JAMES E. COLLINS & DOROTHEA MCFARLAND,MILLIKEN CREEK VINEYARDS,7554 ST. HELENA HWY,OAKVILLE,CA,94562,NAPA
CA-W-17054,"JOHNDROW VINEYARDS, LLC",,NOT PROVIDED,OAKVILLE,CA,94562,NAPA
CA-W-16100,KT WINECO L.L.C.,FUTO ESTATE,1575 OAKVILLE GRADE RD,OAKVILLE,CA,94562,NAPA
CA-W-15457,"LEVENDI, LLC",,7830 ST. HELENA HWY,OAKVILLE,CA,94562,NAPA
CA-W-17335,"MAGNUS, LLC",FLYING HORSE WINERY,7830 ST HELENA HWY STE 8,OAKVILLE,CA,94562,NAPA
CA-W-2603,"MINER FAMILY WINERY, L.L.C.",MINER FAMILY WINERY,7850 SILVERADO TRL,OAKVILLE,CA,94562,NAPA
CA-W-21749,MORGAN WRIGHT WINE CELLARS LTD.,MORGAN WRIGHT WINE CELLARS,7830 - 40 SAINT HELENA HWY,OAKVILLE,CA,94562,NAPA
CA-W-15197,"NAPA WINE COMPANY, LLC",,7830-40 ST. HELENA HIGHWAY SUITE 10,OAKVILLE,CA,94562,NAPA
CA-W-16403,NEGOCIANTS U.S.A. INC.,VOSS VINEYARDS,7830 ST. HELENA HWY,OAKVILLE,CA,94562,NAPA
CA-W-21273,"NEMEREVER VINEYARDS, LLC",NEMEREVER VINEYARDS,711 OAKVILLE CROSS RD,OAKVILLE,CA,94562,NAPA
CA-W-3131,"NICKEL & NICKEL VINEYARDS, L.L.C.",,8164 ST HELENA HWY,OAKVILLE,CA,94562,NAPA
CA-W-1239,NILS & DIANNA L. VENGE & THE KIRK P. & ERIKA L. VENGE TRUST,VENGE VINEYARDS/SADDLEBACK CELLARS,7802 MONEY RD,OAKVILLE,CA,94562,NAPA
CA-W-16684,"NORTH WINERY, LLC",,1601 OAKVILLE GRADE,OAKVILLE,CA,94562,NAPA
CA-W-2168,"NOVA WINES, INC.",,7838 -40 ST. HELENA HWY STE 14,OAKVILLE,CA,94562,NAPA
CA-W-1729,"OAKVILLE HILLS CELLAR, INC.",DALLA VALLE VINEYARDS,7776 SILVERADO TRL,OAKVILLE,CA,94562,NAPA
CA-W-1919,OAKVILLE WINERY ACQUISITION GROUP,NAPA WINE COMPANY,7830 -7840 ST. HELENA HWY,OAKVILLE,CA,94562,NAPA
CA-W-22949,"OLD LODGE, LLC",ACRE WINES,7830 40 ST. HELENA HWY,OAKVILLE,CA,94562,NAPA
CA-W-15667,OPUS ONE WINERY LLC,OPUS ONE WINERY,7900 ST. HELENA HWY,OAKVILLE,CA,94562,NAPA
CA-W-22139,"PALAZZO PRODUCTIONS, INC.",,8210 ST. HELENA HWY,OAKVILLE,CA,94562,NAPA
CA-W-2790,"PAVI WINES, LLC",,"7830-40 ST. HELENA HIGHWAY, SUITE 11",OAKVILLE,CA,94562,NAPA
CA-W-21992,"PROMONTORY, LLC",,1601 OAKVILLE GRADE RD,OAKVILLE,CA,94562,NAPA
CA-W-17063,"RED MARE WINES, LLC",RED MARE WINES,7830 ST HELENA HWY,OAKVILLE,CA,94562,NAPA
CA-W-1821,REN HARRIS AND MARILYN HARRIS,PARADIGM WINERY,1277 DWYER RD,OAKVILLE,CA,94562,NAPA
CA-W-1226,RICHARD M. STELTZNER,STELTZNER,7830 ST. HELENA HWY,OAKVILLE,CA,94562,NAPA
CA-W-1262,"RUDD WINES, INC.",RUDD,500 OAKVILLE XRD,OAKVILLE,CA,94562,NAPA
CA-W-15602,"SCREAMING EAGLE, LLC",SCREAMING EAGLE WINERY,7557 SILVERADO TRL,OAKVILLE,CA,94562,NAPA
CA-W-22723,"SILVER OAK WINE CELLARS, LLC",SILVER OAK WINE CELLARS,915 OAKVILLE CROSSROAD,OAKVILLE,CA,94562,NAPA
CA-W-20292,SPENCER W. HOOPES,HOOPES VINEYARDS AND WINERY,7830 -40 ST. HELENA HWY STE 4,OAKVILLE,CA,94562,NAPA
CA-W-15799,"SUTTER HOME WINERY, INC.",NAPA CELLARS,7481 ST HELENA HWY,OAKVILLE,CA,94562,NAPA
CA-W-22674,"THE MASCOT WINE, LLC",THE MASCOT,1551 OAKVILLE GRADE,OAKVILLE,CA,94562,NAPA
CA-W-1923,TURNBULL WINE CELLARS,,8210 ST HELENA HWY,OAKVILLE,CA,94562,NAPA
CA-W-16000,"TWO ANGELS, LLC",TWO ANGELS,7830 ST. HELENA HWY,OAKVILLE,CA,94562,NAPA
CA-W-16213,"VILLA ENCINAL PARTNERS, L.P.",PLUMPJACK WINERY,620 OAKVILLE CROSS RD,OAKVILLE,CA,94562,NAPA
CA-W-16992,"VINUM CELLARS, INC.",VINUM CELLARS,7830 ST. HELENA HWY STE 21,OAKVILLE,CA,94562,NAPA
CA-W-21108,"VOLKER EISELE FAMILY ESTATE, LLC",VOLKER EISELE FAMILY ESTATE WINERY,7830-40 SAINT HELENA HWY STE 25,OAKVILLE,CA,94562,NAPA
CA-W-24090,WINDSWEPT WINES LLC,,7830 -7840 ST. HELENA HWY,OAKVILLE,CA,94562,NAPA
CA-W-22920,"WINE SOCIETY, LLC",,,OAKVILLE,CA,94562,NAPA
CA-W-21469,CALLA LILY ESTATE & WINERY LLC,CALLA LILY ESTATE & WINERY,6307 POPE VALLEY RD,POPE VALLEY,CA,94567,NAPA
CA-W-23670,PARADY FAMILY WINES LLC,PARADY,6307 POPE VALLEY RD,POPE VALLEY,CA,94567,NAPA
CA-W-1710,PAUL BRUCE KIMSEY & SALLY P. KIMSEY (GENERAL PARTNERS),AETNA SPRINGS WINE RANCH,7227 POPE VALLEY RD,POPE VALLEY,CA,94567,NAPA
CA-W-3334,"POPE VALLEY WINERY, LLC",POPE VALLEY WINERY,6613 POPE VALLEY RD,POPE VALLEY,CA,94567,NAPA
CA-W-15584,"ALPHA & OMEGA WINERY, LLC",ALPHA & OMEGA WINERY,1155 MEE LN,RUTHERFORD,CA,94574,NAPA
CA-W-22206,ANTHONY TUNG JU SHEN,SUNSHINE VALLEY VINEYARDS,1155 MEE LN,RUTHERFORD,CA,94574,NAPA
CA-W-20305,"ARMANINO FAMILY CELLARS, LLC",,1155 MEE LN,RUTHERFORD,CA,94573,NAPA
CA-W-946,CAKEBREAD CELLARS,,8300 ST. HELENA HWY,RUTHERFORD,CA,94573,NAPA
CA-W-465,CAYMUS VINEYARDS,,8700 CONN CREEK RD,RUTHERFORD,CA,94573,NAPA
CA-W-22207,"CHRIS PHELPS WINES, LLC",AD VIVUM,1155 MEE LN,RUTHERFORD,CA,94573,NAPA
CA-W-21449,COPPER CANE LLC,COPPER CANE,1960 SAINT HELENA HWY,RUTHERFORD,CA,94573,NAPA
CA-W-21230,"FOLEY FAMILY WINES, INC.",FOLEY JOHNSON,8350 ST HELENA HWY,RUTHERFORD,CA,94573,NAPA
CA-W-2010,FROG'S LEAP WINERY,,8815 CONN CREEK RD,RUTHERFORD,CA,94573,NAPA
CA-W-20392,"GOLDIN INVESTMENT II, INC.",SLOAN WINERY,88 AUBERGE RD,RUTHERFORD,CA,94573,NAPA
CA-W-761,GRGICH HILLS CELLAR,GRGICH HILLS ESTATE,1829 ST HELENA HWY,RUTHERFORD,CA,94573,NAPA
CA-W-3466,"HALL WINES, LLC",RUTHERFORD WINERY,60 AUBERGE RD,RUTHERFORD,CA,94573,NAPA
CA-W-21666,"HERENCIA WINE COMPANY, INC.",HERENCIA WINE COMPANY,1443 SILVERADO TRL,RUTHERFORD,CA,94573,NAPA
CA-W-2517,"HONIG VINEYARD AND WINERY, LLC",HONIG VINEYARD & WINERY,850 RUTHERFORD RD,RUTHERFORD,CA,94573,NAPA
CA-W-23592,HUNEEUS WINES LLC,QUINTESSA WINERY,1601 SILVERADO TRL,RUTHERFORD,CA,94573,NAPA
CA-W-1918,"NIEBAUM-COPPOLA ESTATE WINERY, L.P.",,1460 NIEBAUM LN,RUTHERFORD,CA,94573,NAPA
CA-W-16126,NUAGE LLC,BELLE GLOS,8700 CONN CREEK RD,RUTHERFORD,CA,94573,NAPA
CA-W-21335,"PEJU FAMILY OPERATING PARTNERSHIP, LP",PEJU FAMILY WINERY,8466 SAINT HELENA HWY,RUTHERFORD,CA,94573,NAPA
CA-W-17793,"PESTONI BROTHERS, LLC",PESTONI FAMILY,1673 ST HELENA HWY,RUTHERFORD,CA,94573,NAPA
CA-W-17058,PINA CELLARS LP,PINA CELLARS,8060 SILVERADO TRL,RUTHERFORD,CA,94573,NAPA
CA-W-2798,"PUERTA DORADA, LLC",MARTIN ESTATE,8780 CONN CREEK RD,RUTHERFORD,CA,94573,NAPA
CA-W-15974,"R.A. HARRISON FAMILY CELLARS, LLC",R.A. HARRISON FAMILY CELLARS,1155 MEE LN,RUTHERFORD,CA,94573,NAPA
CA-W-22115,"RAMSEY WINE CELLARS, INC.",RAMSEY WINE CELLARS,1155 MEE LN,RUTHERFORD,CA,94573,NAPA
CA-W-15246,"ROUND POND ESTATE, LLC",,875 RUTHERFORD RD,RUTHERFORD,CA,94573,NAPA
CA-W-2253,RUTHERFORD HILL WINERY,,200 RUTHERFORD HILL RD,RUTHERFORD,CA,94573,NAPA
CA-W-15720,"SEQUOIA GROVE VINEYARDS LP, SQV LLC GENERAL PARTNER",SEQUOIA GROVE VINEYARDS,8338 ST. HELENA HWY,RUTHERFORD,CA,94573,NAPA
CA-W-1583,"ST. SUPERY, INC.",ST. SUPERY VINEYARDS & WINERY,8440 ST. HELENA HWY,RUTHERFORD,CA,94573,NAPA
CA-W-3618,STAGLIN FAMILY VINEYARD LLC,STAGLIN FAMILY VINEYARD,1570 BELLA OAKS LN,RUTHERFORD,CA,94573,NAPA
CA-W-21711,THE CHARTHIA GROUP LLC,CHARTHIA CELLARS,1443 SILVERADO TRAIL S.,RUTHERFORD,CA,94573,NAPA
CA-W-1420,"TPWC, INC.",THE PRISONER WINE COMPANY,1178 GALLERON RD,RUTHERFORD,CA,94573,NAPA
CA-W-22117,"VINTAGE WINE ESTATES, INC.",SWANSON VINEYARDS AND WINERY,1271 MANLEY LN,RUTHERFORD,CA,94573,NAPA
CA-W-22932,VITE GALLERON WINERY LLC,SULLIVAN VINEYARDS,1090 GALLERON RD,RUTHERFORD,CA,94574,NAPA
CA-W-22887,"PEACOCK FAMILY VINEYARDS, LLC",PEACOCK FAMILY VINEYARDS,3450 SAGE CANYON RD,SAIN HELENA,CA,94574,NAPA
CA-W-2908,"AL DI LA VINEYARDS, INC. & ARGER CELLARS, INC",VILLA HELENA VINEYARDS,1455 INGLEWOOD AVE,SAINT HELENA,CA,94574,NAPA
CA-W-23859,ALAIN P. LEONNET,LION IMPORTS,849 ZINFANDEL LN,SAINT HELENA,CA,94574,NAPA
CA-W-21841,"ALKO RANCH, LLC",ALKO RANCH,1784 POPE CANYON RD,SAINT HELENA,CA,94574,NAPA
CA-W-3332,AMIZETTA VINEYARDS WINERY LLC,AMIZETTA VINEYARDS WINERY,1099 GREENFIELD RD,SAINT HELENA,CA,94574,NAPA
CA-W-17131,AMULET ESTATE LLC,TUCK BECKSTOFFER WINES,105 ZINFANDEL LN,SAINT HELENA,CA,94574,NAPA
CA-W-17774,AMULET ESTATE LLC,TUCK BECKSTOFFER WINES,230 N CRYSTAL SPRINGS RD,SAINT HELENA,CA,94574,NAPA
CA-W-15301,AMUSE BOUCHE LLC,AMUSE BOUCHE,2920 SPRING MOUNTAIN RD,SAINT HELENA,CA,94574,NAPA
CA-W-2186,"ANDERSON'S CONN VALLEY WINERY, INC.",,680 ROSSI RD,SAINT HELENA,CA,94574,NAPA
CA-W-23790,"ANNADEL VINEYARD PARTNERS (DE), LLC",WESTWOOD WINERY,3125 SAINT HELENA HIGHWAY NORTH,SAINT HELENA,CA,94574,NAPA
CA-W-2944,"ANOMALY VINEYARDS, LLC",ANOMALY,455 BELLA VISTA CT,SAINT HELENA,CA,94574,NAPA
CA-W-16072,ATHAIR WINES INC.,ATHAIR WINES,1443 SILVERADO TRL,SAINT HELENA,CA,94574,NAPA
CA-W-17628,AU SOMMET LLC,AU SOMMET WINERY,2920 SPRING MOUNTAIN RD,SAINT HELENA,CA,94574,NAPA
CA-W-2278,"BALLENTINE VINEYARDS, INC.",,2820 SAINT HELENA HWY N,SAINT HELENA,CA,94574,NAPA
CA-W-17068,"BAZAN CELLARS, LLC",MARIO BAZAN CELLARS,3524 SILVERADO TRL,SAINT HELENA,CA,94574,NAPA
CA-W-2100,"BENESSERE VINEYARDS, LTD.",BENESSERE VINEYARDS,1010 BIG TREE RD,SAINT HELENA,CA,94574,NAPA
CA-W-23017,BERGMAN FAMILY VINEYARDS LLC,BERGMAN FAMILY VINEYARDS,3730 SILVERADO TRL N,SAINT HELENA,CA,94574,NAPA
CA-W-23075,"BIAGI FAMILY WINES, LLC",,601 MUND RD,SAINT HELENA,CA,94574,NAPA
CA-W-15069,"BLACKTHORN ENTERPRISES, INC.",STOVER OAKS VINEYARD & WINERY,401 SAINT HELENA HWY,SAINT HELENA,CA,94574,NAPA
CA-W-15663,"BOESCHEN VINEYARDS, LLC",BOESCHEN VINEYARDS,3242 SILVERADO TRL,SAINT HELENA,CA,94574,NAPA
CA-W-23304,BRAND NV LLC,BRAND NAPA VALLEY,90 LONG RANCH RD,SAINT HELENA,CA,94574,NAPA
CA-W-22666,"BRETON WINE COMPANY, INC.",VICE VERSA WINE,588 ZINFANDEL LN,SAINT HELENA,CA,94574,NAPA
CA-W-3198,"BROWN ESTATE VINEYARDS, LLC",BROWN ESTATE VINEYARDS,3233 SAGE CANYON RD,SAINT HELENA,CA,94574,NAPA
CA-W-3284,"BRYANT VINEYARDS, LTD.",BRYANT FAMILY VINEYARD,1567 SAGE CANYON RD,SAINT HELENA,CA,94574,NAPA
CA-W-799,"BUEHLER VINEYARDS, INC.",BUEHLER VINEYARDS,820 GREENFIELD RD,SAINT HELENA,CA,94574,NAPA
CA-W-23895,BURGESS CELLAR LLC,,1108 DEER PARK RD,SAINT HELENA,CA,94574,NAPA
CA-W-790,C. MONDAVI & FAMILY,CHARLES KRUG WINERY,2800 MAIN ST,SAINT HELENA,CA,94574,NAPA
CA-W-15327,"CAB4TEN, LLC",PARALLEL WINES,3125 ST. HELENA HWY,SAINT HELENA,CA,94574,NAPA
CA-W-21173,"CABAUD WINES, LLC",,3125 ST. HELENA HIGHWAY N,SAINT HELENA,CA,94574,NAPA
CA-W-1862,"CAIN CELLARS, INC.",CAIN VINEYARD & WINERY,3800 LANGTRY RD,SAINT HELENA,CA,94574,NAPA
CA-W-17544,"CAIRDEAN VINEYARDS, LLC",BRASSWOOD CELLARS,3125 ST. HELENA HWY N,SAINT HELENA,CA,94574,NAPA
CA-W-15244,"CASA NUESTRA, LLC",CASA NUESTRA,3473 SILVERADO TER,SAINT HELENA,CA,94574,NAPA
CA-W-997,CHAPPELLET WINERY INC,,1581 SAGE CANYON RD,SAINT HELENA,CA,94574,NAPA
CA-W-15378,"CLARK-CLAUDON VINEYARDS, LLC",CLARK-CLAUDON,4105 CHILES POPE VALLEY RD,SAINT HELENA,CA,94574,NAPA
CA-W-15569,"CLIF BAR FAMILY WINERY AND FARM, LLC",CLIF FAMILY WINERY,1000 MAIN ST,SAINT HELENA,CA,94574,NAPA
CA-W-3183,COLGIN CELLARS LLC,,220 LONG RANCH RD,SAINT HELENA,CA,94574,NAPA
CA-W-2939,COOK FAMILY WINERY (GLENN E. & GAYLE S. COOK),STONEY SPRINGS WINERY,264 CRYSTAL SPRINGS RD,SAINT HELENA,CA,94574,NAPA
CA-W-774,"COOK'S FLAT ASSOCIATES, LP STUART SMITH, GP",SMITH-MADRONE VINEYARDS,4022 SPRING MOUNTAIN RD,SAINT HELENA,CA,94574,NAPA
CA-W-2672,"CORISON WINERY, INC.",,987 ST HELENA HWY,SAINT HELENA,CA,94574,NAPA
CA-W-17564,COUP DE FOUDRE LLC,COUP DE FOUDRE,3450 SAGE CANYON RD,SAINT HELENA,CA,94574,NAPA
CA-W-15418,"CREATIVE WINE CONCEPTS, INC.",SCOTT HARVEY WINES,105 ZINFANDEL LN,SAINT HELENA,CA,94574,NAPA
CA-W-3252,CROCKER AND STARR WINE COMPANY LLC,CROCKER AND STARR WINERY,700 DOWDELL LN,SAINT HELENA,CA,94574,NAPA
CA-W-17523,CULTIVATE WINES LLC,CULTIVATE WINES,105 ZINFANDEL LN,SAINT HELENA,CA,94574,NAPA
CA-W-16404,"D.R. STEPHENS ESTATE WINES, LLC",D.R. STEPHENS ESTATE WINES,3524 SILVERADO TRL,SAINT HELENA,CA,94574,NAPA
CA-W-15699,"DANA ESTATES, INC.",DANA ESTATES,1895 CABERNET LN,SAINT HELENA,CA,94574,NAPA
CA-W-15101,DAVID ARTHUR VINEYARDS LLC,DAVID ARTHUR VINEYARDS,210 LONG RANCH RD,SAINT HELENA,CA,94574,NAPA
CA-W-23596,"DAVID L. WIGHT,DOUGLAS A. WIGHT,ALAN N. WIGHT",LEWELLING WINE CO.,2820 SAINT HELENA HWY N,SAINT HELENA,CA,94574,NAPA
CA-W-15929,DEL DOTTO VINEYARDS,DEL DOTTO WINERY & CAVES,1445 ST. HELENA HWY,SAINT HELENA,CA,94574,NAPA
CA-W-16300,DENDINORA LLC,KIND CELLARS,647 GREENFIELD RD,SAINT HELENA,CA,94574,NAPA
CA-W-15424,"DETERT FAMILY VINEYARDS, LLC",DETERT FAMILY,771 SAGE CANYON RD,SAINT HELENA,CA,94574,NAPA
CA-W-16543,DUCKHORN WINE COMPANY,DUCKHORN VINEYARDS,1000 LODI LN,SAINT HELENA,CA,94574,NAPA
CA-W-22960,"DUKE H, LLC",,2820 SAINT HELENA HWY N,SAINT HELENA,CA,94574,NAPA
CA-W-17776,E. & J. GALLO WINERY,THE RANCH WINERY,105 ZINFANDEL LN,SAINT HELENA,CA,94574,NAPA
CA-W-3326,E. & J. GALLO WINERY,LOUIS M. MARTINI WINERY,254 SAINT HELENA HWY,SAINT HELENA,CA,94574,NAPA
CA-W-3475,"EAGLE'S TRACE, LLC",EAGLE'S TRACE,680 ROSSI RD,SAINT HELENA,CA,94574,NAPA
CA-W-17583,"EHREN JORDAN WINE CELLARS, LLC",EHREN JORDAN WINE CELLARS,3358 SAINT HELENA HWY,SAINT HELENA,CA,94574,NAPA
CA-W-17581,"EHREN JORDAN WINE CELLARS, LLC",EHREN JORDAN WINE CELLARS,3530 SILVERADO TRL,SAINT HELENA,CA,94574,NAPA
CA-W-15880,"EL MOLINO WINERY, LLC",EL MOLINO,3315 SAINT HELENA HWY,SAINT HELENA,CA,94574,NAPA
CA-W-15194,FANTESCA LLC,FANTESCA,2920 SPRING MOUNTAIN RD,SAINT HELENA,CA,94574,NAPA
CA-W-16041,"FIVE VINES, LLC",CASA PIENA,3730 SILVERADO TRL,SAINT HELENA,CA,94574,NAPA
CA-W-1246,FLORA SPRINGS WINE COMPANY,,1885 W ZINFANDEL LN,SAINT HELENA,CA,94574,NAPA
CA-W-23681,FLUENT WINE COMPANY LLC,FLUENT WINE CO.,3730 SILVERADO TRAIL N,SAINT HELENA,CA,94574,NAPA
CA-W-17021,"FOLEY FAMILY WINES, INC.",MERUS,424 CRYSTAL SPRINGS RD,SAINT HELENA,CA,94574,NAPA
CA-W-17225,"GANDONA, INC.",,1533 SAGE CANYON RD,SAINT HELENA,CA,94574,NAPA
CA-W-17352,"GEMSTONE VINEYARDS, LLC",,3730 SILVERADO TRL,SAINT HELENA,CA,94574,NAPA
CA-W-15980,"GHOST HORSE VINEYARDS, LLC",,680 ROSSI RD,SAINT HELENA,CA,94574,NAPA
CA-W-23260,GLENWOOD CELLARS WINES LLC,GLENWOOD CELLARS,2820 SAINT HELENA HWY N,SAINT HELENA,CA,94574,NAPA
CA-W-21351,"GOLD COAST VINEYARDS, LLC",,1455 INGLEWOOD AVE,SAINT HELENA,CA,94574,NAPA
CA-W-21574,"GOLDEN-AMERICA, INC.",VILLA HELENA WINERY,1455 INGLEWOOD AVE,SAINT HELENA,CA,94574,NAPA
CA-W-2684,"GRACE FAMILY VINEYARDS, LLC",GRACE FAMILY VINEYARDS,1210 ROCKLAND DR,SAINT HELENA,CA,94574,NAPA
CA-W-16803,"GRAPEVINE HOLDINGS L1, LLC",SKIPSTONE RANCH,2929 ST HELENA HWY,SAINT HELENA,CA,94574,NAPA
CA-W-15091,GREEN AND RED VINEYARD LLC,GREEN & RED VINEYARD,3208 CHILES POPE VALLEY RD,SAINT HELENA,CA,94574,NAPA
CA-W-22238,"HAILSTONE VINEYARDS, LLC",,,SAINT HELENA,CA,94574,NAPA
CA-W-15141,"HALL WINES, LLC",HALL WINERY,401 SAINT HELENA HWY,SAINT HELENA,CA,94574,NAPA
CA-W-279,HEITZ WINE CELLARS,,500 TAPLIN RD,SAINT HELENA,CA,94574,NAPA
CA-W-21710,"HERITAGE SCHOOL VINEYARDS, LLC",HERITAGE SCHOOL VINEYARDS,3730 SILVERADO TRL,SAINT HELENA,CA,94574,NAPA
CA-W-23896,HISTORIC VINES LLC,,3730 SILVERADO TRL,SAINT HELENA,CA,94574,NAPA
CA-W-23736,HOLLSTED THOMAS COX,CASTLEVALE,3125 N ST HELENA HWY,SAINT HELENA,CA,94574,NAPA
CA-W-22796,"HV PARTNERS, LLC",RIVERAIN VINEYARDS,3730 SILVERADO TRL N,SAINT HELENA,CA,94574,NAPA
CA-W-23857,INK GRADE ESTATE VINEYARD LLC,,500 TAPLIN RD,SAINT HELENA,CA,94574,NAPA
CA-W-16109,"JACKSON FAMILY WINES, INC.",FREEMARK ABBEY,3022 SAINT HELENA HWY,SAINT HELENA,CA,94574,NAPA
CA-W-16568,"JOEL GOTT WINES, LLC",JOEL GOTT WINES,105 ZINFANDEL LN,SAINT HELENA,CA,94574,NAPA
CA-W-2845,JOSEPH PHELPS VINEYARDS LLC,,200 TAPLIN RD,SAINT HELENA,CA,94574,NAPA
CA-W-3049,JULIE JOHNSON,TRES SABORES,1620 S WHITEHALL LN,SAINT HELENA,CA,94574,NAPA
CA-W-16778,KAUCIC FAMILY WINES L.L.C.,,105 ZINFANDEL LN,SAINT HELENA,CA,94574,NAPA
CA-W-2942,"KELHAM VINEYARDS & WINERY, LLC",KELHAM VINEYARDS & WINERY,360 ZINFANDEL LN,SAINT HELENA,CA,94574,NAPA
CA-W-22700,KELLEHER FAMILY VINEYARD LLC,KELLEHER FAMILY VINEYARD,3450 SAGE CANYON RD,SAINT HELENA,CA,94574,NAPA
CA-W-16030,"KENWARD FAMILY VINEYARDS, LLC",TOR KENWARD FAMILY WINES,3524 SILVERADO TRAIL,SAINT HELENA,CA,94574,NAPA
CA-W-2647,"KULETO VILLA, LLC",KULETO ESTATE,2470 SAGE CANYON RD,SAINT HELENA,CA,94574,NAPA
CA-W-23855,L. BRENDEL VINEYARD LLC,,500 TAPLIN RD,SAINT HELENA,CA,94574,NAPA
CA-W-16023,"LAIL VINEYARDS, LLC",LAIL VINEYARDS,2920 SPRING MOUNTAIN RD,SAINT HELENA,CA,94574,NAPA
CA-W-1930,"LEONARDINI FAMILY WINERY, LLC",WHITEHALL LANE WINERY,1563 SAINT HELENA HWY,SAINT HELENA,CA,94574,NAPA
CA-W-15754,LESLIE BEHRENS AND LISA DRINKWARD,ERNA SCHEIN,4078 SPRING MOUNTAIN RD,SAINT HELENA,CA,94574,NAPA
CA-W-23571,LMR WINE ESTATES LLC,LONG MEADOW RANCH WINERY,1775 WHITEHALL LN,SAINT HELENA,CA,94574,NAPA
CA-W-22502,"M & J MONDAVI FAMILY, LLC",,3125 ST. HELENA HWY NORTH,SAINT HELENA,CA,94574,NAPA
CA-W-777,MARKHAM VINEYARDS,,2812 SAINT HELENA HWY,SAINT HELENA,CA,94574,NAPA
CA-W-15889,"MARSTON FAMILY VINEYARD, LLC",MARSTON FAMILY VINEYARD,3600 WHITE SULPHUR SPRINGS RD,SAINT HELENA,CA,94574,NAPA
CA-W-24092,"MARTIN WINES, LLC",MARTIN WINES,2820 SAINT HELENA HWY N,SAINT HELENA,CA,94574,NAPA
CA-W-3547,"MEADOWOOD ASSOCIATES, LP",MEADOWOOD ASSOCIATES,1030 SILVERADO TRL,SAINT HELENA,CA,94574,NAPA
CA-W-15623,"MEADOWOOD LANE WINERY, LLC",PALLADIAN ESTATE WINERY,690 MEADOWOOD LN,SAINT HELENA,CA,94574,NAPA
CA-W-15279,"MELKA ESTATES, LLC",MELKA WINES,2900 SILVERADO TRL,SAINT HELENA,CA,94574,NAPA
CA-W-2297,MERRYVALE VINEYARDS LLC,MERRYVALE VINEYARDS,1000 MAIN ST,SAINT HELENA,CA,94574,NAPA
CA-W-3462,"METROPOLITAN WINES, LLC",FLEURY FAMILY WINES,950 GALLERON RD,SAINT HELENA,CA,94574,NAPA
CA-W-21508,MICHAEL DESANTIS & SCOTTI STARK,HARUMPH WINES,3125 SAINT HELENA HWY N,SAINT HELENA,CA,94574,NAPA
CA-W-15621,MIDSUMMER CELLARS LLC,MIDSUMMER CELLARS,771 SAGE CANYON RD,SAINT HELENA,CA,94574,NAPA
CA-W-16542,MJA VINEYARDS LLC,MJA WINE,647 GREENFIELD RD,SAINT HELENA,CA,94574,NAPA
CA-W-15827,"MODUS OPERANDI CELLARS, LLC",MODUS OPERANDI CELLARS,3125 ST. HELENA HWY,SAINT HELENA,CA,94574,NAPA
CA-W-22551,MONDAVI SISTERS COLLECTION LLC,,3125 ST. HELENA HWY N,SAINT HELENA,CA,94574,NAPA
CA-W-17560,"MOUNT VEEDER SPRINGS, LLC",PULIDO WALKER CELLARS,3730 SILVERADO TRL,SAINT HELENA,CA,94574,NAPA
CA-W-3033,"NEW VAVIN, INC.",EHLERS ESTATE,3222 EHLERS LN,SAINT HELENA,CA,94574,NAPA
CA-W-17338,"NEW WEST, LLC",FREESTONE VINEYARDS,200 TAPLIN RD,SAINT HELENA,CA,94574,NAPA
CA-W-17816,NEWTON VINEYARD LLC,,2555 MADRONA AVE,SAINT HELENA,CA,94574,NAPA
CA-W-17170,"NICHELINI FAMILY WINERY, INC.",NICHELINI FAMILY WINERY,2950 SAGE CANYON RD,SAINT HELENA,CA,94574,NAPA
CA-W-15449,"ONE TRUE VINE, LLC",ONE TRUE VINE,565 CRYSTAL SPRINGS RD,SAINT HELENA,CA,94574,NAPA
CA-W-2724,"PALOMA VINEYARD, LLC",,4013 SPRING MOUNTAIN RD,SAINT HELENA,CA,94574,NAPA
CA-W-2625,PAUL SMITH,SMITH FAMILY WINERY,3747 LANGTRY RD,SAINT HELENA,CA,94574,NAPA
CA-W-23284,"PEIRSON MEYER, LLC",PEIRSON MEYER,3125 SAINT HELENA HWY N,SAINT HELENA,CA,94574,NAPA
CA-W-3102,"PHILIP TOGNI VINEYARD, LP",,3780 SPRING MOUNTAIN RD,SAINT HELENA,CA,94574,NAPA
CA-W-23528,"PLINTH, LLC",PLINTH,200 LONG RANCH RD,SAINT HELENA,CA,94574,NAPA
CA-W-2244,"PRAGER WINERY & PORT WORKS, INC.",,1281 LEWELLING LN,SAINT HELENA,CA,94574,NAPA
CA-W-2857,"PRIDE MOUNTAIN VINEYARDS, LLC",PRIDE MOUNTAIN VINEYARDS AT HISTORIC SUMMIT RANCH,4026 SPRING MOUNTAIN RD,SAINT HELENA,CA,94574,NAPA
CA-W-15931,"PROMISE WINE, LLC",PROMISE WINE,3524 N SILVERADO TRL,SAINT HELENA,CA,94574,NAPA
CA-W-22485,"PUAMANA, LLC",ACCENDO CELLARS,588 ZINFANDEL LN,SAINT HELENA,CA,94574,NAPA
CA-W-1364,R.H. KEENAN COMPANY,ROBERT KEENAN WINERY,3660 SPRINGS MOUNTAIN RD,SAINT HELENA,CA,94574,NAPA
CA-W-1016,"RAYMOND VINEYARD & CELLAR, INC.",RAYMOND VINEYARD & CELLAR,849 ZINFANDEL LN,SAINT HELENA,CA,94574,NAPA
CA-W-3552,"REVANA FAMILY PARTNERS, L.P.",REVANA WINERY,2930 SAINT HELENA HWY,SAINT HELENA,CA,94574,NAPA
CA-W-17390,REVIVAL FARMS LLC,REVIVAL VINEYARDS,1885 W ZINFANDEL LN,SAINT HELENA,CA,94574,NAPA
CA-W-1295,RICHARD WALLACE FORMAN,FORMAN VINEYARD,1501 BIG ROCK RD,SAINT HELENA,CA,94574,NAPA
CA-W-23755,RISE 200 LLC,,200 LONG RANCH RD,SAINT HELENA,CA,94574,NAPA
CA-W-21871,ROBERT BOLAN,BOB BOLAN WINES,975 DEER PARK RD,SAINT HELENA,CA,94574,NAPA
CA-W-20332,ROBERT WILLIAMS,CALDER WINE COMPANY,1620 S WHITEHALL LN,SAINT HELENA,CA,94574,NAPA
CA-W-1142,"ROMBAUER VINEYARDS, INC.",ROMBAUER VINEYARDS,3522 SILVERADO TRL STE N,SAINT HELENA,CA,94574,NAPA
CA-W-800,ROUND HILL CELLARS INC,RUTHERFORD WINE COMPANY,1680 SILVERADO TRL,SAINT HELENA,CA,94574,NAPA
CA-W-17227,"RTB MANAGEMENT, LLC",CHATEAU BOSWELL WINES,3468 SILVERADO TRL,SAINT HELENA,CA,94574,NAPA
CA-W-17107,"RUSTRIDGE WINERY, INC.",RUSTRIDGE WINERY,2910 LOWER CHILES VALLEY RD,SAINT HELENA,CA,94574,NAPA
CA-W-3415,SABINA VINEYARD LLC,SABINA VINEYARD,3291 SAINT HELENA HWY,SAINT HELENA,CA,94574,NAPA
CA-W-3076,"SALVESTRIN WINE COMPANY, LLC",SALVESTRIN WINE COMPANY,397 MAIN ST,SAINT HELENA,CA,94574,NAPA
CA-W-17615,SANDRA K. DICKSON,DICKSON FAMILY WINES,742 SUNNYSIDE RD,SAINT HELENA,CA,94574,NAPA
CA-W-15714,"SCHLATTER FAMILY ESTATE, LLC",,1000 MAIN ST,SAINT HELENA,CA,94574,NAPA
CA-W-16623,SCHRAMSBERG VINEYARDS COMPANY,JDAVIES,555 MAIN ST,SAINT HELENA,CA,94574,NAPA
CA-W-17089,"SCHWEIGER VINEYARDS, INC.",SCHWEIGER VINEYARDS,4015 SPRING MOUNTAIN RD,SAINT HELENA,CA,94574,NAPA
CA-W-15396,"SEVEN STONES WINERY, LLC",SEVEN STONES WINERY,840 MEADOWOOD LN,SAINT HELENA,CA,94574,NAPA
CA-W-2846,SJOEBLOM WINERY,SJOEBLOM WINERY,264 CRYSTAL SPRINGS RD,SAINT HELENA,CA,94574,NAPA
CA-W-23335,"SKIPSTONE WINES, LLC",SKIPSTONE RANCH,1000 MAIN ST,SAINT HELENA,CA,94574,NAPA
CA-W-16440,"SOMERSTON WINE COMPANY, LLC",,3450 SAGE CANYON RD,SAINT HELENA,CA,94574,NAPA
CA-W-1188,"SPOTTSWOODE WINERY, INC.",,1902 MADRONA AVE,SAINT HELENA,CA,94574,NAPA
CA-W-15724,SPRING MOUNTAIN LLC,PETRUS BEKKER WINERY,3505 SPRING MOUNTAIN RD,SAINT HELENA,CA,94574,NAPA
CA-W-1962,"SPRING MOUNTAIN VINEYARD, INC.",SPRING MOUNTAIN VINEYARDS,2805 SPRING MOUNTAIN RD,SAINT HELENA,CA,94574,NAPA
CA-W-17108,ST. HELENA ESTATE LLC,,100 PRATT AVE,SAINT HELENA,CA,94574,NAPA
CA-W-2226,STE. MICHELLE WINE ESTATES LTD.,VILLA MT. EDEN WINERY,8711 SILVERADO TRL,SAINT HELENA,CA,94574,NAPA
CA-W-15727,"STEFFENS FAMILY WINES, LLC",VINEYARD 7 & 8,4028 SPRING MOUNTAIN RD,SAINT HELENA,CA,94574,NAPA
CA-W-22481,"STONE THE CROWS, LLC",THE THREE TWINS,3730 SILVERADO TRL,SAINT HELENA,CA,94574,NAPA
CA-W-24035,STONY HILL VINEYARD LLC,STONY HILL VINEYARD,3331 N ST. HELENA HWY,SAINT HELENA,CA,94574,NAPA
CA-W-17165,"SULPHUR SPRINGS WINERY, LLC",S.E. CHASE FAMILY CELLARS,2252 SULPHUR SPRINGS AVE,SAINT HELENA,CA,94574,NAPA
CA-W-15100,"SUTTER HOME WINERY, INC.",,3070 SAINT HELENA HWY,SAINT HELENA,CA,94574,NAPA
CA-W-190,"SUTTER HOME WINERY, INC.",,100 ST HELENA HWY S,SAINT HELENA,CA,94574,NAPA
CA-W-22612,"TEETER-TOTTER, LLC",TEETER-TOTTER,3730 SILVERADO TRL,SAINT HELENA,CA,94574,NAPA
CA-W-3182,TERRY HOWARD KLEIN & NANCY KLEIN,ALLORA VINEYARDS,3244 EHLERS LN,SAINT HELENA,CA,94574,NAPA
CA-W-20571,"THE BLACK BOTTLE, INC.",,2920 SPRING MOUNTAIN RD,SAINT HELENA,CA,94574,NAPA
CA-W-3293,"THE BREMER GROUP, LLC",,975 DEER PARK RD,SAINT HELENA,CA,94574,NAPA
CA-W-22861,"THE KNOLLS, LIMITED LIABILITY COMPANY",AUBURN JAMES WINERY LLC,1001 SILVERADO TRL S,SAINT HELENA,CA,94574,NAPA
CA-W-16081,"THE MORLET SELECTION, INCORPORATED",THE MORLET SELECTION,2825 ST. HELENA HWY,SAINT HELENA,CA,94574,NAPA
CA-W-16796,THE WOODMAR GROUP LLC,THE WOODMAR GROUP,105 ZINFANDEL LN,SAINT HELENA,CA,94574,NAPA
CA-W-16317,TMR WINE COMPANY LLC,,1683 SAGE CANYON RD,SAINT HELENA,CA,94574,NAPA
CA-W-3535,"TOAD HALL CELLARS, LLC",,1885 W ZINFANDEL LN,SAINT HELENA,CA,94574,NAPA
CA-W-716,TREASURY WINE ESTATES AMERICAS COMPANY,,2000 MAIN ST,SAINT HELENA,CA,94574,NAPA
CA-W-2958,"TUDAL WINERY, LLC",TUDAL WINERY,1015 BIG TREE RD,SAINT HELENA,CA,94574,NAPA
CA-W-2027,"TURLEY WINE CELLARS, INC.",,3358 SAINT HELENA HWY,SAINT HELENA,CA,94574,NAPA
CA-W-2377,V. SATTUI WINERY,V. SATTUI WINERY,1111 WHITE LN,SAINT HELENA,CA,94574,NAPA
CA-W-3143,VAROZZA VINEYARDS LLC,,514 PRATT AVE,SAINT HELENA,CA,94574,NAPA
CA-W-16487,VILLA DEL LAGO LLC,VILLA DEL LAGO,1551 SAGE CANYON RD,SAINT HELENA,CA,94574,NAPA
CA-W-16465,"VINAIR, LLC",VINAIR,3242 SILVERADO TRL,SAINT HELENA,CA,94574,NAPA
CA-W-3207,"VINEYARD 29, LLC",VINEYARD 29 CELLARS,2929 SAINT HELENA HWY,SAINT HELENA,CA,94574,NAPA
CA-W-22546,"VINTAGE WINE ESTATES, INC.",DELECTUS WINERY,1091 SAINT HELENA HWY,SAINT HELENA,CA,94574,NAPA
CA-W-15561,WALDORF CONCEPTIONS LLC,THE CRUSH,1001 SILVERADO TRL,SAINT HELENA,CA,94574,NAPA
CA-W-23133,"WHEELER WINERY, INC.",,105 ZINFANDEL LN,SAINT HELENA,CA,94574,NAPA
CA-W-17495,"WHEELER WINERY, INC.",DE LOACH WINERY,849 ZINFANDEL LN,SAINT HELENA,CA,94574,NAPA
CA-W-3629,"WILLIAM COLE VINEYARDS, LLC",WILLIAM COLE VINEYARDS,2849 SAINT HELENA HWY,SAINT HELENA,CA,94574,NAPA
CA-W-3031,WILLIAM HARRISON VINEYARDS & WINERY LLC,WILLIAM HARRISON VINEYARDS & WINERY,1443 SILVERADO TRL,SAINT HELENA,CA,94574,NAPA
CA-W-23709,YH WINES LLC,YOUNG HAGEN,3730 N SILVERADO TRL,SAINT HELENA,CA,94574,NAPA
CA-W-23078,"ZAKIN FAMILY VINEYARD, LLC",,3125 N SAINT HELENA HWY,SAINT HELENA,CA,94574,NAPA
CA-W-21029,BOUGETZ CELLARS LLC,,1455 INGLEWOOD AVE,"SAINT HELENA,",CA,94574,NAPA
CA-W-23668,"70S LOVE, LLC",70S LOVE,4105 CHILES POPE VALLEY RD,ST HELENA,CA,94574,NAPA
CA-W-23141,AILERON RANCH INC,AILERON RANCH,3125 ST HELENA HWY,ST HELENA,CA,94574,NAPA
CA-W-23047,"AMLES WINES, LLC",AMLES WINES,588 ZINFANDEL LN,ST HELENA,CA,94574,NAPA
CA-W-22467,"ATLAS PEAK MOUNTAIN WINERY, LLC",SILL FAMILY VINEYARDS,3524 SILVERADO TRL,ST HELENA,CA,94574,NAPA
CA-W-21887,D & F VINEYARDS LLC,,401 S ST HELENA HWY,ST HELENA,CA,94574,NAPA
CA-W-21778,"DANCING CROW VINEYARDS, LLC",DANCING CROW,105 ZINFANDEL LN,ST HELENA,CA,94574,NAPA
CA-W-23740,"DEFIANCE WINE COMPANY, LLC",DEFIANCE WINE COMPANY,3524 SILVERADO TRL N,ST HELENA,CA,94574,NAPA
CA-W-22724,"EVINCO WINES, LLC",ROAM ESTATES,588 ZINFANDEL LN,ST HELENA,CA,94574,NAPA
CA-W-23400,FLYING LADY LLC,FLYING LADY,3747 LANGTRY RD,ST HELENA,CA,94574,NAPA
CA-W-22989,FLYING LADY LLC,FLYING LADY,3524 SILVERADO TRL N,ST HELENA,CA,94574,NAPA
CA-W-22853,"FOURTH LEAF WINES, LLC",FOURTH LEAF WINES,3125 ST HELENA HWY N,ST HELENA,CA,94574,NAPA
CA-W-23545,GADERIAN LLC,GADERIAN,3524 N SILVERADO TRL,ST HELENA,CA,94574,NAPA
CA-W-15936,"ILSLEY ESTATE WINES, LLC",ILSLEY ESTATE WINES,2920 SPRING MOUNTAIN RD,ST HELENA,CA,94574,NAPA
CA-W-23660,JON NATHANIEL LLC,,1885 W ZINFANDEL LN,ST HELENA,CA,94574,NAPA
CA-W-21942,"KIEU HOANG WINERY, LLC",KIEU HOANG WINERY,3851 SPRING MOUNTAIN RD,ST HELENA,CA,94574,NAPA
CA-W-22925,"KILLER JUICE, LLC",KILLER JUICE,3730 N SILVERADO TRL,ST HELENA,CA,94574,NAPA
CA-W-2843,"LADERA WINERY, LLC",LADERA WINERY,3125 ST. HELENA HWY N.,ST HELENA,CA,94574,NAPA
CA-W-22945,"LINSFIELD WINE CO., LLC",KINSMAN EADES,588 ZINFANDEL LN,ST HELENA,CA,94574,NAPA
CA-W-22536,"LITTLE CREEK VINEYARD, LLC",ARROW & BRANCH,3125 ST HELENA HWY N,ST HELENA,CA,94574,NAPA
CA-W-23212,"LLV WINES, LLC",LOLA WINES,700 DOWDELL LN,ST HELENA,CA,94574,NAPA
CA-W-23376,MARGARET & ANDRE MINOR,RITCHIE CREEK VINEYARD,4024 SPRING MOUNTAIN RD,ST HELENA,CA,94574,NAPA
CA-W-22566,MAYBACH FAMILY VINEYARDS LLC,,3730 SILVERADO TRL,ST HELENA,CA,95474,NAPA
CA-W-23385,MCGEE'S MEAD LLC,MCGEE'S MEAD OR MCGEE'S MEAD CO.,785 CONN VALLEY RD,ST HELENA,CA,94574,NAPA
CA-W-21021,"MLPC HOLDINGS, LLC",,3125 N ST HELENA HWY,ST HELENA,CA,94574,NAPA
CA-W-20317,MORGAN WRIGHT WINE CELLARS LTD.,,105 ZINFANDEL LN,ST HELENA,CA,94574,NAPA
CA-W-21556,NAVONE FAMILY WINES LLC,,789 FULTON LN,ST HELENA,CA,94574,NAPA
CA-W-21545,"QTR, LLC",,3730 SILVERADO TRL,ST HELENA,CA,94574,NAPA
CA-W-23833,"SCULATTI WINE, LP",SCULATTI WINE,588 ZINFANDEL LN,ST HELENA,CA,94574,NAPA
CA-W-22902,TATE WINES LLC,,4070 SPRING MOUNTAIN RD,ST HELENA,CA,94574,NAPA
CA-W-2514,THERESA ANN KUHN & RONALD JAMES KUHN,PILLAR ROCK VINEYARDS,3522 SILVERADO TRL STE B,ST HELENA,CA,94574,NAPA
CA-W-2031,W. HOGUE VINEYARDS,,1450 SILVERADO TRL,ST HELENA,CA,94573,NAPA
CA-W-21104,"WHISKY RIVER RANCH WINERY, LLC",WHISKY RIVER RANCH WINERY,1844 POPE CANYON RD,ST HELENA,CA,94574,NAPA
CA-W-21698,"3730 SILVERADO TRAIL, LLC",MENDING WALL,3730 SILVERADO TRAIL,ST. HELENA,CA,94574,NAPA
CA-W-23179,"ACA CELLARS, LLC",TROIS NOIX,588 ZINFANDEL LN,ST. HELENA,CA,94574,NAPA
CA-W-22771,"ADLER-DEUTSCH VINEYARD, LLC",ADLER-DEUTSCH VINEYARD,3524 SILVERADO TRL,ST. HELENA,CA,94574,NAPA
CA-W-22662,"AEQUITAS VINEYARDS, LLC",AEQUITAS VINEYARDS,3125 ST. HELENA HWY,ST. HELENA,CA,94574,NAPA
CA-W-23730,"AHEB, LLC",DOOR BY AEB,3524 N SILVERADO TRAIL,ST. HELENA,CA,94474,NAPA
CA-W-22065,"ANIMO, L.P.",ANIMO,3125 N SAINT HELENA HWY,ST. HELENA,CA,94574,NAPA
CA-W-21224,"ARCUDI WINES, LLC",ARCUDI WINES,2920 SPRING MOUNTAIN RD,ST. HELENA,CA,94574,NAPA
CA-W-21048,"BARNETT VINEYARDS, L.P.",BARNETT VINEYARDS,4070 SPRING MOUNTAIN RD,ST. HELENA,CA,94574,NAPA
CA-W-21054,"BEVAN CELLARS, LLC",BEVAN CELLARS,3125 ST HELENA HWY N,ST. HELENA,CA,94574,NAPA
CA-W-21284,"BIDWELL CREEK VINEYARD, LLC",BIDWELL CREEK VINEYARD,588 ZINFANDEL LN,ST. HELENA,CA,94574,NAPA
CA-W-20352,"BURE FAMILY WINES, INC.",BURE FAMILY WINES,3730 SILVERADO TRAIL,ST. HELENA,CA,94574,NAPA
CA-W-22648,"DAKOTA-SHY WINE CO, LLC",DAKOTA SHY WINERY,771 SAGE CANYON RD,ST. HELENA,CA,94574,NAPA
CA-W-22719,"DALECIO FAMILY WINES, LLC",,3125 ST. HELENA HWY N,ST. HELENA,CA,94574,NAPA
CA-W-24055,"DANI GOLD WINES, LLC","DANI GOLD WINES, LLC",1001 SILVERADO TRAIL S,ST. HELENA,CA,94574,NAPA
CA-W-21330,"DAVID JAMES, LLC",SINEGAL ESTATE,2125 INGLEWOOD AVE,ST. HELENA,CA,94574,NAPA
CA-W-22522,"DENALI ESTATE, INC.",,3730 SILVERADO TRL N,ST. HELENA,CA,94574,NAPA
CA-W-21384,"DESANTE WINES, LLC",DESANTE WINES,3524 N SILVERADO TRL,ST. HELENA,CA,94574,NAPA
CA-W-22358,"DOMAINE CHARBAY, LLC",,4001 SPRING MOUNTAIN RD,ST. HELENA,CA,94574,NAPA
CA-W-21176,"DOVE HILL VINEYARDS, LLC",DOVE HILL VINEYARDS,3450 SAGE CANYON RD,ST. HELENA,CA,94574,NAPA
CA-W-22194,"ENCANTADO, INC.",ENCANTADO WINES,"3524 SILVERADO TRL, N",ST. HELENA,CA,94574,NAPA
CA-W-21904,"FAIT MAIN, LLC",FAIT MAIN,3730 SILVERADO TRL,ST. HELENA,CA,94574,NAPA
CA-W-21276,FEATHERSTONE 2ND LLC,WILSON & WILSON,3450 SAGE CANYON RD,ST. HELENA,CA,94574,NAPA
CA-W-22705,"GALLICA WINES, LLC",GALLICA WINERY,3125 N ST. HELENA HWY,ST. HELENA,CA,94574,NAPA
CA-W-21096,"GALLICA WINES, LLC",GALLICA WINERY,255 LONG RANCH RD,ST. HELENA,CA,94574,NAPA
CA-W-23458,"GF VINEYARDS, LLC",,1210 ROCKLAND DR,ST. HELENA,CA,94574,NAPA
CA-W-20073,"GLJR WINE, LLC",,647 GREENFIELD RD,ST. HELENA,CA,94574,NAPA
CA-W-21386,"HABER FAMILY VINEYARDS, LLC",HABER FAMILY VINEYARDS,3125 ST. HELENA HWY N,ST. HELENA,CA,94574,NAPA
CA-W-23591,HUNEEUS WINES LLC,FAUST,2867 ST. HELENA HWY,ST. HELENA,CA,94574,NAPA
CA-W-21456,"HUNNICUTT WINE COMPANY, LLC",HUNNICUTT WINE CO.,3524 N SILVERADO TRL,ST. HELENA,CA,94574,NAPA
CA-W-20249,ICOLEBE LLC,,1885 W ZINFANDEL LN,ST. HELENA,CA,94574,NAPA
CA-W-21541,"JACKSON FAMILY WINES, INC.",LOKOYA WINERY,3787 SPRING MOUNTAIN RD,ST. HELENA,CA,94574,NAPA
CA-W-20141,JONATHAN F. LEAHY & JODY A. CASTLE,LEAHY CASTLE WINE,105 ZINFANDEL LN,ST. HELENA,CA,94574,NAPA
CA-W-22657,"KENWARD FAMILY VINEYARDS, LLC",TOR KENWARD FAMILY WINES,588 ZINFANDEL LN,ST. HELENA,CA,94574,NAPA
CA-W-22988,KNIGHTON FAMILY VINEYARDS LLC,,2929 ST. HELENA HWY,ST. HELENA,CA,94574,NAPA
CA-W-21518,"MAXVILLE LAKE WINERY, INC.",MAXVILLE LAKE WINERY,4105 CHILES POPE VALLEY RD,ST. HELENA,CA,94574,NAPA
CA-W-22378,MAYACAMA FARMS LLC,BOICH FAMILY CELLAR,3524 SILVERADO TRL,ST. HELENA,CA,94574,NAPA
CA-W-21134,"METAMORPHOSIS VINEYARDS, LLC",JAFFE ESTATE,401 ST. HELENA HWY S,ST. HELENA,CA,94574,NAPA
CA-W-22620,"METAMORPHOSIS WINES, LLC",OVID VINEYARDS,255 LONG RANCH RD,ST. HELENA,CA,94574,NAPA
CA-W-21187,"MH VENTURES, LLC",THE DEBATE,4105 CHILES POPE VALLEY RD,ST. HELENA,CA,94574,NAPA
CA-W-22435,"MY WELL WINES, LLC",,647 GREENFIELD RD,ST. HELENA,CA,94574,NAPA
CA-W-21056,"NAPA VINELAND WINERY, LLC",,2233 SULPHUR SPRINGS RD,ST. HELENA,CA,94574,NAPA
CA-W-21264,NINE SUNS LLC,,200 LONG RANCH RD,ST. HELENA,CA,94574,NAPA
CA-W-21093,OAKVILLE TRANSFER LLC,OAKVILLE TERRACES,3524 SILVERADO TRL,ST. HELENA,CA,94574,NAPA
CA-W-21121,"PERLISS ESTATE VINEYARDS, LLC",PERLISS ESTATE VINEYARDS,3524 SILVERADO TRL,ST. HELENA,CA,94574,NAPA
CA-W-22714,"PLACEHOLDER RANCH, LLC",MINDEGO RIDGE VINEYARD,3530 N SILVERADO TRL,ST. HELENA,CA,94574,NAPA
CA-W-22267,PRICE WINERY LLC,KENT PRICE WINES,3450 SAGE CANYON RD,ST. HELENA,CA,94574,NAPA
CA-W-21155,RED TAIL HAWK WINERY LLC,RED TAIL HAWK WINERY,1155 MEE LN,ST. HELENA,CA,94574,NAPA
CA-W-21962,"RMC WINES, LLC",III ROWS,3450 SAGE CANYON RD,ST. HELENA,CA,94574,NAPA
CA-W-23383,"ROCKMERE VINEYARDS, LLC",ROCKMERE VINEYARDS,3524 SILVERADO TRAIL NORTH,ST. HELENA,CA,94574,NAPA
CA-W-21366,"RUDIUS WINES, LLC",RUDIUS,3524 N SILVERADO TRL,ST. HELENA,CA,94574,NAPA
CA-W-21033,"SANDPOINT WINES, LLC",YOUNG INGLEWOOD VINEYARDS,1919 INGLEWOOD AVE,ST. HELENA,CA,94574,NAPA
CA-W-20405,SANTA CROCE LLC,BLOODLINES,105 ZINFANDEL LN,ST. HELENA,CA,94574,NAPA
CA-W-21509,"SHERWIN FAMILY VINEYARDS, LLC",SHERWIN FAMILY VINEYARDS,4060 SPRING MOUNTAIN RD,ST. HELENA,CA,94574,NAPA
CA-W-23731,SHL CATHIARD LLC,SHL NAPA/CATHAIRD FAMILY ESTATE,1978 W ZINFANDEL LN,ST. HELENA,CA,94574,NAPA
CA-W-20080,"SNOWDEN VINEYARDS, LLC",SNOWDEN VINEYARDS,2920 SPRING MOUNTAIN RD,ST. HELENA,CA,94574,NAPA
CA-W-23473,"ST. SUPERY, INC.",ST. SUPERY ESTATE VINEYARDS & WINERY,200 LONG RANCH RD,ST. HELENA,CA,94574,NAPA
CA-W-22670,"SUTTER HOME WINERY, INC.",NEYERS VINEYARDS,2153 SAGE CANYON RD,ST. HELENA,CA,94574,NAPA
CA-W-23574,THE VINEYARD HOUSE LLC,THE VINEYARD HOUSE,3125 N ST. HELENA HWY,ST. HELENA,CA,94574,NAPA
CA-W-16418,THVS CORPORATION,AXR WINERY,3199 ST. HELENA HWY N,ST. HELENA,CA,94574,NAPA
CA-W-22196,THVS CORPORATION,AXR WINERY,4105 CHILES POPE VALLEY RD,ST. HELENA,CA,94574,NAPA
CA-W-22013,TITUS VINEYARDS,TITUS VINEYARDS,2971 SILVERADO TRL N,ST. HELENA,CA,94574,NAPA
CA-W-23096,"TUSK ESTATES, LLC",TUSK ESTATES,588 ZINFANDEL LN,ST. HELENA,CA,94574,NAPA
CA-W-22168,"V VINEYARDS, LLC",V. VINEYARDS,4105 CHILES POPE VALLEY RD,ST. HELENA,CA,94574,NAPA
CA-W-23486,"VINFORMANT, LLC",OLET'TE WINES,3450 SAGE CANYON RD,ST. HELENA,CA,94574,NAPA
CA-W-3364,"VINOCE VINEYARDS, LLC",VINOCE VINEYARDS,2820 ST. HELENA HWY N,ST. HELENA,CA,94574,NAPA
CA-W-23174,"W.H.Y. CELLARS, LLC",W.H.Y. CELLARS,3730 SILVERADO TRL N,ST. HELENA,CA,94574,NAPA
CA-W-22275,"WHEELER FARMS PARTNERS, LLC",WHEELER FARMS,588 ZINFANDEL LN,ST. HELENA,CA,94574,NAPA
CA-W-22781,"WITCHERY, LLC",,647 GREENFIELD RD,ST. HELENA,CA,94574,NAPA
CA-W-2835,"ABREU VINEYARDS, INC.",ABREU VINEYARD,1451 YOUNTVILLE CROSSROAD,YOUNTVILLE,CA,94599,NAPA
CA-W-15439,"BLANKIET ESTATE, LLC",BLANKIET ESTATE,2358 CALIFORNIA DR,YOUNTVILLE,CA,94599,NAPA
CA-W-21886,"CELLAR D, LLC",CELLAR D,1119 STATE LN,YOUNTVILLE,CA,94599,NAPA
CA-W-21689,"CHRISTOPHER TYNAN WINES, LLC",CHRISTOPHER TYNAN WINES,1473 YOUNTVILLE CROSS RD,YOUNTVILLE,CA,94599,NAPA
CA-W-17050,CONFIDENTIAL VINTNERS LLC,,6200 WASHINGTON ST,YOUNTVILLE,CA,94599,NAPA
CA-W-685,"DOMAINE CHANDON, INC.",DOMAINE CHANDON,1 CALIFORNIA DR,YOUNTVILLE,CA,94599,NAPA
CA-W-2373,DOMINUS ESTATE CORPORATION,,2570 NAPANOOK RD,YOUNTVILLE,CA,94599,NAPA
CA-W-16659,EDWARDS FISCHL LLC,LINNAEA VINEYARDS,1473 YOUNTVILLE CROSS RD,YOUNTVILLE,CA,94599,NAPA
CA-W-3527,KAPCSANDY FAMILY LLC,KAPCSANDY FAMILY WINERY,1001 STATE LN,YOUNTVILLE,CA,94599,NAPA
CA-W-23322,MIRA WINERY LLC,MIRA WINERY,6170 WASHINGTON ST,YOUNTVILLE,CA,94599,NAPA
CA-W-20230,N2WINES LLC,N2 WINES,7415 SAINT HELENA HWY,YOUNTVILLE,CA,94599,NAPA
CA-W-24083,NICHOLSON RANCH LLC,,4 VINEYARD VIEW DR,YOUNTVILLE,CA,94559,NAPA
CA-W-15771,PERATA VINEYARDS LLC,PERATA VINEYARDS,1278 STATE LN,YOUNTVILLE,CA,94599,NAPA
CA-W-23346,RUBENSTEINS LLC,EROSION WINE CO.,7415 SAINT HELENA HWY,YOUNTVILLE,CA,94599,NAPA
CA-W-3233,"SPANOS-BERBERIAN WINERY, LLC",BELL WINE CELLARS,6200 WASHINGTON ST,YOUNTVILLE,CA,94599,NAPA
CA-W-3148,"TWIN PEAKS WINERY, INC.",SAV WINERY,1473 YOUNTVILLE CROSS RD,YOUNTVILLE,CA,94599,NAPA
CA-W-17459,"VINTAGE WINE ESTATES, INC.",COSENTINO WINERY,7415 ST. HELENA HWY,YOUNTVILLE,CA,94599,NAPA
