PERMIT NUMBER,OWNER NAME,OPERATING NAME,STREET,CITY,STATE,ZIP,COUNTY
CA-W-21623,"HAPPY CANYON VINEYARDS, LLC",HAPPY CANYON VINEYARDS,59 INDUSTRIAL WAY,BEULLTON,CA,93427,SANTA BARBARA
CA-W-17037,MICHAEL JOHN ALTMAN AND WENDY KAY ALTMAN,ALTMAN WINERY,35 INDUSTRIAL WAY,BUELLTON,CA,93427,SANTA BARBARA
CA-W-23595,PADRICK FAMILY WINES LLC.,MAD LAB WINES,65 LOS PADRES WAY UNIT 8,BUELLTON,CA,93427,SANTA BARBARA
CA-W-16132,"ALERE VINEYARDS & WINERY, INC.",ALERE VINEYARDS,35 INDUSTRIAL WAY,BUELLTON,CA,93427,SANTA BARBARA
CA-W-15127,"ARTISTE MANAGEMENT CO., LLC",ARTISTE WINERY,65 LOS PARDRES WAY,BUELLTON,CA,93427,SANTA BARBARA
CA-W-16108,"QUINTA SANTA ROSA, LLC",PRODIGAL WINES,92 SECOND ST SUITES C A,BUELLTON,CA,93427,SANTA BARBARA
CA-W-24043,TYLER REILLY SIMMONS,REUNION WINE,84 INDUSTRIAL WAY UNIT C,BUELLTON,CA,93427,SANTA BARBARA
CA-W-22986,LO-FI WINES LLC,LO-FI WINES,100 LOS PADRES WAY STE 7,BUELLTON,CA,93427,SANTA BARBARA
CA-W-22425,"PENVILLE PROJECTS, LLC",,55 LOS PADRES WAY UNIT 1,BUELLTON,CA,93427,SANTA BARBARA
CA-W-21754,"KELLNER VINEYARDS, LLC",CENT' ANNI,59 INDUSTRIAL WAY,BUELLTON,CA,93427,SANTA BARBARA
CA-W-21641,"MARTELLOTTO, INC.",MARTELLOTTO WINE PRODUCTIONS,100 LOS PADRES WAY STE 7,BUELLTON,CA,93427,SANTA BARBARA
CA-W-22967,MOSBY WINERY & VINEYARD INC,MOSBY WINERY,9496 SANTA ROSA RD,BUELLTON,CA,93427,SANTA BARBARA
CA-W-21480,DAVID M. & JENNIE S. BRADLEY,BRADLEY FAMILY WINERY,92 2ND ST STE C & D,BUELLTON,CA,93427,SANTA BARBARA
CA-W-22678,FIDENCIO FLORES,,140 INDUSTRIAL WAY,BUELLTON,CA,93427,SANTA BARBARA
CA-W-23265,"MCKINNEY FAMILY VINEYARDS, LLC",MCKINNEY FAMILY VINEYARDS,"86 INDUSTRIAL WAY UNIT A, B & C",BUELLTON,CA,93427,SANTA BARBARA
CA-W-21186,LESAFFRE WINE COMPANY LLC,LESAFFRE WINE COMPANY,35 INDUSTRIAL WAY,BUELLTON,CA,93427,SANTA BARBARA
CA-W-22883,"WILLIAMSON FAMILY WINERY, LLC",WILLIAMSON FAMILY WINES,90 EASY ST,BUELLTON,CA,93427,SANTA BARBARA
CA-W-16324,"TERRAVANT WINE COMPANY, LLC",SUMMERLAND WINE BRANDS,35 INDUSTRIAL WAY,BUELLTON,CA,93427,SANTA BARBARA
CA-W-15359,H AND H WINES,CARIVINTAS WINES,35 INDUSTRIAL WAY,BUELLTON,CA,93427,SANTA BARBARA
CA-W-16576,"PARAMOUNT PANELS, INC.",,35 INDUSTRIAL WAY,BUELLTON,CA,93427,SANTA BARBARA
CA-W-16988,CHARLES OTTO SCHETTER & KAREN RENEE SCHETTER,,35 INDUSTRIAL WAY,BUELLTON,CA,93427,SANTA BARBARA
CA-W-22825,"FINAL BLEND WINE COMPANY, LLC",DANA V WINES,57 & 59 INDUSTRIAL WAY,BUELLTON,CA,93427,SANTA BARBARA
CA-W-16022,SORT THIS OUT CELLARS LLC,SORT THIS OUT CELLARS,35 INDUSTRIAL WAY,BUELLTON,CA,93427,SANTA BARBARA
CA-W-22890,"LIEFF WINES, LLC",LIEFF WINES,65 LOS PADRES WAY,BUELLTON,CA,93427,SANTA BARBARA
CA-W-22283,"BRIGANTE PRIVATE LABEL, LLC",,35 INDUSTRIAL WAY,BUELLTON,CA,93427,SANTA BARBARA
CA-W-21610,"CHOLAME VINEYARD, LLC",CHOLAME VINEYARD,140 INDUSTRIAL WAY,BUELLTON,CA,93427,SANTA BARBARA
CA-W-22313,"BRICK BARN WINERY, LLC",BRICK BARN WINE ESTATE,795 W HWY 246,BUELLTON,CA,93427,SANTA BARBARA
CA-W-17621,"FRENZI NETWORKS, LLC",FRENZI VINEYARDS,35 INDUSTRIAL WAY,BUELLTON,CA,93427,SANTA BARBARA
CA-W-15001,"LUCAS AND LEWELLEN VINEYARDS, INC.",MANDOLINA VINEYARDS,132 EASY ST UNIT A,BUELLTON,CA,93427,SANTA BARBARA
CA-W-21222,"COOMBER FAMILY RANCH WINES, INC.",,35 INDUSTRIAL WAY,BUELLTON,CA,93427,SANTA BARBARA
CA-W-22534,"GROUND EFFECT WINE CO., LLC",GROUND EFFECT WINE CO,140 INDUSTRIAL WAY,BUELLTON,CA,93427,SANTA BARBARA
CA-W-23016,"RANCHO BOA VISTA FARMS, LLC",RANCHO BOA VISTA,57 & 59 INDUSTRIAL WAY,BUELLTON,CA,93427,SANTA BARBARA
CA-W-23718,COASTAL CRU WINES INC,,65 LOS PADRES WAY UNIT 8,BUELLTON,CA,93427,SANTA BARBARA
CA-W-23617,ROBERT LIEFF WINES LLC,ROBERT LIEFF WINES,,BUELLTON,CA,93427,SANTA BARBARA
CA-W-16482,"IMAGINE WINE, LLC",IMAGINE WINE,140 INDUSTRIAL WAY,BUELLTON,CA,93427,SANTA BARBARA
CA-W-23852,DE TROP LLC,KNIFE & BARREL,100 LOS PADRES WAY STE 3,BUELLTON,CA,93427,SANTA BARBARA
CA-W-17572,ETIENNE TERLINDEN,ETIENNE TERLINDEN,90 EASY ST,BUELLTON,CA,93427,SANTA BARBARA
CA-W-16768,"TOMMY TOWN THOROUGHBREDS & VINEYARDS, LLC",,35 INDUSTRIAL WAY,BUELLTON,CA,93427,SANTA BARBARA
CA-W-22777,PAUL TOUSSAINT AND GINA TOUSSAINT,TOUSSAINT CELLARS,92 2ND ST STE C & D,BUELLTON,CA,93427,SANTA BARBARA
CA-W-3312,"DANIEL GEHRS WINES, LLC",DANIEL GEHRS WINES,35 INDUSTRIAL WAY,BUELLTON,CA,93427,SANTA BARBARA
CA-W-21304,"LAVENDER OAK RANCH, LLC",LAVENDER OAK VINEYARD,9450 SANTA ROSA RD. RD,BUELLTON,CA,93427,SANTA BARBARA
CA-W-16345,"CONWAY VINEYARDS, INC.",,35 INDUSTRIAL WAY,BUELLTON,CA,93427,SANTA BARBARA
CA-W-23230,TREVOR THOMAS BETHKE,SAPIEN WINES,90 EASY ST,BUELLTON,CA,93427,SANTA BARBARA
CA-W-22944,"WINE DOWN BOX, LLC",,35 INDUSTRIAL WAY,BUELLTON,CA,93427,SANTA BARBARA
CA-W-23092,NANI WINE COMPANY LLC,FINAL GIRL,84 INDUSTRIAL WAY UNIT C,BUELLTON,CA,93427,SANTA BARBARA
CA-W-21772,"PALMERPIAZZA, LLC",MAIL ROAD WINES,75 LOS PADRES WAY,BUELLTON,CA,93427,SANTA BARBARA
CA-W-22675,"TIERRA Y VINO, LLC",TIERRA Y VINO,140 INDUSTRIAL WAY,BUELLTON,CA,93427,SANTA BARBARA
CA-W-22146,BULGARINI GELATO ARTIGIANALE,,92 2ND ST STE C & D,BUELLTON,CA,93427,SANTA BARBARA
CA-W-23093,"ROARK WINE COMPANY, LLC",ROARK WINE COMPANY,84 INDUSTRIAL WAY UNIT C,BUELLTON,CA,93427,SANTA BARBARA
CA-W-21628,KIMSEY VINEYARD LLC,,75 LOS PADRES WAY,BUELLTON,CA,93427,SANTA BARBARA
CA-W-21097,"ITO WINES, LLC",TRAVELING VINEYARD,35 & 70 INDUSTRIAL WAY,BUELLTON,CA,93427,SANTA BARBARA
CA-W-21308,CALIFORNIA LOVE WINES LLC,CALI LOVE WINE,"92 SECOND ST UNIT C, D & E",BUELLTON,CA,93427,SANTA BARBARA
CA-W-15638,"MARGERUM WINE COMPANY, INC.",MARGERUM WINE COMPANY,57 & 59 INDUSTRIAL WAY,BUELLTON,CA,93427,SANTA BARBARA
CA-W-22202,"MARSHAK WINE COMPANY, LLC",MARSHAK WINE COMPANY,75 LOS PADRES WAY,BUELLTON,CA,93427,SANTA BARBARA
CA-W-23938,NICOLE N. PALLESEN,STARS & DUST,100 LOS PADRES WAY STE 3,BUELLTON,CA,93427,SANTA BARBARA
CA-W-21144,INCEPTION WINES LLC,,35 INDUSTRIAL WAY,BUELLTON,CA,93427,SANTA BARBARA
CA-W-21045,"CRAWFORD FAMILY WINES, LLC",CRAWFORD FAMILY WINES,"92 2ND ST UNIT G,H",BUELLTON,CA,93427,SANTA BARBARA
CA-W-22035,"MELVINO, LLC",LUCKY DOGG WINERY,90 EASY ST,BUELLTON,CA,93427,SANTA BARBARA
CA-W-17074,"BELLA CAVALLI, LLC",BELLA CAVALLI FARMS & WINERY,90 EASY ST,BUELLTON,CA,93427,SANTA BARBARA
CA-W-22482,"DELANDA, LLC",SOLMINER,92 2ND ST STE A,BUELLTON,CA,93427,SANTA BARBARA
CA-W-20413,MICHAEL R. BROWN,KALYRA WINERY,140 INDUSTRIAL WAY,BUELLTON,CA,93427,SANTA BARBARA
CA-W-16788,STANDING SUN WINES INC,STANDING SUN CELLARS,"92 SECOND ST UNIT C, D,",BUELLTON,CA,93427,SANTA BARBARA
CA-W-23679,FREQUENCY WINE COMPANY,FREQUENCY WINE COMPANY,100 LOS PADRES WAY STE 3,BUELLTON,CA,93427,SANTA BARBARA
CA-W-16953,"STATE STREET VENTURES, LLC",STATE STREET WINERY,35 INDUSTRIAL WAY,BUELLTON,CA,93427,SANTA BARBARA
CA-W-15064,"OVENE WINERY, INC.",,35 INDUSTRIAL WAY,BUELLTON,CA,93427,SANTA BARBARA
CA-W-22514,"SQUIX, LLC",VINE OH!,35 INDUSTRIAL WAY,BUELLTON,CA,93427,SANTA BARBARA
CA-W-16521,ALAN RICHARD PHILLIPS,KERR E. NATION WINE COMPANY,35 INDUSTRIAL WAY,BUELLTON,CA,93427,SANTA BARBARA
CA-W-23862,BRAVO WEST WINES LLC,M?S ALL? WINES,84 INDUSTRIAL WAY UNIT C,BUELLTON,CA,93427,SANTA BARBARA
CA-W-15196,"COOL HAND VINEYARDS, LLC",,63 THOMAS RD,BUELLTON,CA,93427,SANTA BARBARA
CA-W-16485,"KELLY FAMILY WINES, INC.",PACIFIC RIDGE VINEYARDS,35 INDUSTRIAL WAY,BUELLTON,CA,93427,SANTA BARBARA
CA-W-21525,"THE GROUP PROJECT, LLC",THE CENTRAL COAST GROUP PROJECT,53 INDUSTRIAL WAY,BUELLTON,CA,93427,SANTA BARBARA
CA-W-22419,"KEN BROWN WINES, LLC",,140 INDUSTRIAL WAY,BUELLTON,CA,93427,SANTA BARBARA
CA-W-21415,"MUNICIPAL WINEMAKERS, LLC",MUNICIPAL WINEMAKERS,75 LOS PADRES WAY,BUELLTON,CA,93427,SANTA BARBARA
CA-W-15603,"TENSLEY WINE, INC.",TENSLEY WINE,100 LOS PADRES WAY STE 3,BUELLTON,CA,93427,SANTA BARBARA
CA-W-16421,DRAGONETTE CELLARS LLC,DRAGONETTE CELLARS,55 LOS PADRES WAY #1,BUELLTON,CA,93427,SANTA BARBARA
CA-W-21512,"PRISON BREAK VINTNERS, LLC",DREAMCOTE WINE CO.,35 INDUSTRIAL WAY,BUELLTON,CA,93427,SANTA BARBARA
CA-W-17803,CLAYTON BRUCE GARLAND,CALIFORNIA BEER AND WINE DISTRIBUTORS,90 EASY ST,BUELLTON,CA,93427,SANTA BARBARA
CA-W-20298,CARIVINTAS WINERY LLC,,65 LOS PADRES WAY UNIT 1,BUELLTON,CA,93427,SANTA BARBARA
CA-W-23760,GOOD BOY WINE LLC,GOOD BOY WINE,84 INDUSTRIAL WAY UNIT C,BUELLTON,CA,93427,SANTA BARBARA
CA-W-21800,"QUANTUM WINES, LLC",PENCE RANCH,1909 W 246 HWY,BUELLTON,CA,93427,SANTA BARBARA
CA-W-21978,SB WINE LLC,,59 INDUSTRIAL WAY,BUELLTON,CA,93427,SANTA BARBARA
CA-W-23145,"MCCLAIN FAMILY CELLARS, INC",,140 INDUSTRIAL WAY,BUELLTON,CA,93427,SANTA BARBARA
CA-W-906,WILLIAM MILLARD MOSBY,MOSBY WINERY,9496 SANTA ROSA RD,BUELLTON,CA,93427,SANTA BARBARA
CA-W-21868,"ALEBRU VINO,LLC",,92 2ND ST STE A,BUELLTON,CA,93427,SANTA BARBARA
CA-W-21729,SECTION WINES LLC,,65 LOS PADRES WAY UNIT 6 C,BUELLTON,CA,93427,SANTA BARBARA
CA-W-22602,"OAKTREE IMPORTS, INC",,35 & 70 INDUSTRIAL WAY,BUELLTON,CA,93401,SANTA BARBARA
CA-W-22888,BUSCADOR WINERY LLC,,140 INDUSTRIAL WAY UNIT D,BUELLTON,CA,93427,SANTA BARBARA
CA-W-22577,L.A. LEPAINE WINES,LEPIANE WINES,75 LOS PADRES WAY,BUELLTON,CA,93427,SANTA BARBARA
CA-W-3621,"SFW, LLC",THE SANGER FAMILY OF WINES,35 & 70 INDUSTRIAL WAY,BUELLTON,CA,93401,SANTA BARBARA
CA-W-17661,"LUDLOW STREET VINEYARDS, LLC",LUDLOW STREET VINEYARDS,90 EASY ST,BUELLTON,CA,93427,SANTA BARBARA
CA-W-22160,DYLAN DOUGHTERTY,DYLAN,65 LOS PADRES WAY UNIT 9B,BUELLTON,CA,93427,SANTA BARBARA
CA-W-21440,PEGASUS ESTATE WINERY LLC,,140 INDUSTRIAL WAY,BUELLTON,CA,93427,SANTA BARBARA
CA-W-23340,"SKYENNA, LLC",SKYENNA WINES,90 EASY ST,BUELLTON,CA,93427,SANTA BARBARA
CA-W-22497,"BOSCOE WINE CO., LLC",BOSCOE WINE CO.,65 LOS PADRES WAY UNIT 6,BUELLTON,CA,93427,SANTA BARBARA
CA-W-2840,"LUCAS AND LEWELLEN VINEYARDS, INC.",LUCAS AND LEWELLEN VINEYARDS,"132 EASY STREET UNITS B, C-2 & C-3",BUELLTON,CA,93427,SANTA BARBARA
CA-W-20575,STEVAN LARNER INC,LARNER WINERY & VINEYARD,65 LOS PADRES WAY,BUELLTON,CA,93427,SANTA BARBARA
CA-W-22057,"HEMISPHERES, LLC",,35 INDUSTRIAL WAY,BUELLTON,CA,93427,SANTA BARBARA
CA-W-16353,"ROSENSON WINE CREATIONS, INC.",,100 LOS PADRES WAY,BUELLTON,CA,93427,SANTA BARBARA
CA-W-16583,"CARINA CELLARS, LLC",CARINA CELLARS,100 LOS PADRES WAY WAY STE 3,BUELLTON,CA,93427,SANTA BARBARA
CA-W-21696,"MALLEA FOOD & WINE, LLC",,84 INDUSTRIAL WAY UNIT C,BUELLTON,CA,93427,SANTA BARBARA
CA-W-17451,KAENA WINE COMPANY,KAENA WINE COMPANY,65 LOS PADRES WAY,BUELLTON,CA,93427,SANTA BARBARA
CA-W-3550,"FAUST AVENUE, LLC",CASA CASSARA WINERY & VINEYARD,65 LOS PADRES WAY,BUELLTON,CA,93427,SANTA BARBARA
CA-W-22511,"GOLD CRUSH WINES, LLC",GOLD CRUSH WINES,35 INDUSTRIAL WAY,BUELLTON,CA,93427,SANTA BARBARA
CA-W-15330,COLD HEAVEN CELLARS LLC,COLD HEAVEN CELLARS,92 SECOND ST UNIT A,BUELLTON,CA,93427,SANTA BARBARA
CA-W-16520,RANDOLPH MITCHELL PACE & KATHRYN ELIZABETH PACE,PASSAGES VINEYARD & WINERY,35 INDUSTRIAL WAY,BUELLTON,CA,93427,SANTA BARBARA
CA-W-17334,COGHLAN VINEYARD LLC,COGHLAN VINEYARD,84 INDUSTRIAL WAY,BUELLTON,CA,93427,SANTA BARBARA
CA-W-2773,SANTA BARBARA WINERY,LAFOND WINERY AND VINEYARDS,6855 SANTA ROSA RD,BUELLTON,CA,93427,SANTA BARBARA
CA-W-23023,"KRH SPECIALTY WINES, LLC",,,BULLETON,CA,93427,SANTA BARBARA
CA-W-22211,"THE APIARY BEVERAGE COMPANY, LLC",THE APIARY MEADERY & CIDERWORKS,4191 CARPINTERIA AVE STE 10,CARPINTERIA,CA,93013,SANTA BARBARA
CA-W-21006,"K & E CONSULTING, LLC",,74 AERO CAMINO ST UNIT B,GOLETA,CA,93117,SANTA BARBARA
CA-W-23446,CENTRALAS WINE LLC,CENTRALAS WINE LLC,6485 CALLE REAL STE E,GOLETA,CA,93117,SANTA BARBARA
CA-W-22596,"SANTA BARBARA CIDER COMPANY, LLC",,325 RUTHERFORD ST STE D,GOLETA,CA,93117,SANTA BARBARA
CA-W-23893,ANACAPA FUND,VENTUCOPA HIGHLANDS VINEYARD,6485 CALLE REAL STE E & F,GOLETA,CA,93117,SANTA BARBARA
CA-W-21496,"JAMIE SLONE WINES, LLC",,417 COMMERCE CT,LOMPOC,CA,93436,SANTA BARBARA
CA-W-2959,SEA SMOKE INC.,SEA SMOKE,1604 N O ST,LOMPOC,CA,93436,SANTA BARBARA
CA-W-24094,"TRICAL WINE, LLC",TRICAL WINES,1251 W LAUREL AVE UNIT 9-13,LOMPOC,CA,93436,SANTA BARBARA
CA-W-21199,"L'AGE D'OR, LLC.",L'AGE D'OR,4457 SANTA ROSA RD STE 2,LOMPOC,CA,93436,SANTA BARBARA
CA-W-3273,"FIDDLEHEAD CELLARS, LP",FIDDLEHEAD CELLARS,1597 E CHESTNUT AVE,LOMPOC,CA,93436,SANTA BARBARA
CA-W-21652,"JALAMA CANON RANCH, LLC",JCR VINEYARD,1500 E CHESTNUT CT UNIT D,LOMPOC,CA,93436,SANTA BARBARA
CA-W-15286,ANGELA MICHELLE LAVIE AND ARIEL LAVIE,LA VIE VINEYARDS,4777 SWEENY RD,LOMPOC,CA,93436,SANTA BARBARA
CA-W-22452,"PRISON BREAK VINTNERS, LLC.",SPOKEN CIDER,417 COMMERCE CT,LOMPOC,CA,93436,SANTA BARBARA
CA-W-22818,"RAILWAY, LLC",STRANGE FAMILY VINEYARDS,300 N 12TH ST UNIT 4A,LOMPOC,CA,93436,SANTA BARBARA
CA-W-22529,KINGS CAREY LLC,,1225 - 1239 W LAUREL AVE UNIT 1-8,LOMPOC,CA,93436,SANTA BARBARA
CA-W-21147,"KESSLER-HAAK WINERY, LLC",KESSLER-HAAK,1034 W AVIATION DR,LOMPOC,CA,93436,SANTA BARBARA
CA-W-23960,"PALYSTRANT HARVESTS, INC.",,321 N D ST,LOMPOC,CA,93436,SANTA BARBARA
CA-W-21789,FOUR BROTHERS WINERY LLC,FOUR BROTHERS WINE CO.,300 NORTH G ST UNIT C,LOMPOC,CA,93436,SANTA BARBARA
CA-W-22703,"SAY WHEN, LLC",SAY WHEN,1034 W AVIATION DR,LOMPOC,CA,93436,SANTA BARBARA
CA-W-20478,"QUANTUM WINES, LLC",PENCE RANCH,1708 INDUSTRIAL WAY UNIT D & E,LOMPOC,CA,93436,SANTA BARBARA
CA-W-21633,"WATER & WOOD, LLC",LIQUID FARM,1225-1239 WEST LAUREL AVE UNIT 1-8,LOMPOC,CA,93436,SANTA BARBARA
CA-W-21047,"ZINKE FAMILY WINES, LLC",,340 N G ST,LOMPOC,CA,93436,SANTA BARBARA
CA-W-16618,"D'ALFONSO-CURRAN WINE GROUP, LLC",D'ALFONSO CURRAN WINE GROUP,"4457 SANTA ROSA RD STE.3, 4 &",LOMPOC,CA,93436,SANTA BARBARA
CA-W-22569,"VIN DE ZO, LLC",ALMA ROSA WINERY & VINEYARDS,313 N 9TH ST,LOMPOC,CA,93436,SANTA BARBARA
CA-W-21282,"METIER, LLC",LIEU DIT,300 N 12TH ST UNIT 4A,LOMPOC,CA,93436,SANTA BARBARA
CA-W-17461,"NEW VINELAND, LLC","NEW VINELAND, LLC",1501 E CHESTNUT CT UNIT E,LOMPOC,CA,93436,SANTA BARBARA
CA-W-22567,"GEOPARTNERS, LLC",,1119 W LAUREL AVE,LOMPOC,CA,93436,SANTA BARBARA
CA-W-17274,"FORBIDDEN FRUIT ORCHARDS,INC.",CEBADA VINEYARD,4003 FORBIDDEN FRUIT LN,LOMPOC,CA,93436,SANTA BARBARA
CA-W-21211,"SB WINE CO., LLC",,300 N 12TH ST UNIT 1C & 2C,LOMPOC,CA,93436,SANTA BARBARA
CA-W-21079,"JORIAN HILL VINEYARDS, LLC",JORIAN HILL VINEYARDS,300 N G ST STE C,LOMPOC,CA,93436,SANTA BARBARA
CA-W-3149,ZARIF COMPANIES,,4457 SANTA ROSA RD STE 2,LOMPOC,CA,93436,SANTA BARBARA
CA-W-22676,"SANDHI VINTNERS, LLC",SANDHI WINES,1700 INDUSTRIAL WAY UNIT A,LOMPOC,CA,93436,SANTA BARBARA
CA-W-17099,"ZOTOVICH WINE ENTERPRISES, LLC",ZOTOVICH VINEYARDS AND WINERY,300 N 12TH ST UNIT 4B &,LOMPOC,CA,93436,SANTA BARBARA
CA-W-21310,"WENZLAU VINEYARD COMPANY, LLC",WENZLAU VINEYARD,300 N 12TH ST UNIT 4A,LOMPOC,CA,93436,SANTA BARBARA
CA-W-17230,"JALAMA WINES, LLC",JALAMA WINES,321 N D ST,LOMPOC,CA,93436,SANTA BARBARA
CA-W-22792,"BOLSHOI FAMILY WINES, LLC",,1501 E CHESTNUT CT STE B,LOMPOC,CA,93436,SANTA BARBARA
CA-W-23488,"COOL HAND VINEYARDS, LLC",THE HILT ESTATE,2240 SANTA ROSA RD,LOMPOC,CA,93436,SANTA BARBARA
CA-W-2134,"BABCOCK ENTERPRISES, INC.",BABCOCK VINEYARDS,5175 E HIGHWAY 246,LOMPOC,CA,93436,SANTA BARBARA
CA-W-23878,"GENERIC WINE COMPANY, INC.",,1251 W LAUREL AVE UNIT 22-26,LOMPOC,CA,93436,SANTA BARBARA
CA-W-20567,"DE SU PROPIA COSECHA, LLC",DE SU PROPIA COSECHA,1501 E CHESTNUT CT STE A,LOMPOC,CA,93436,SANTA BARBARA
CA-W-16101,"POINT CONCEPTION WINES, LLC",POINT CONCEPTION WINES,1601 W CENTRAL AVE UNIT F,LOMPOC,CA,93436,SANTA BARBARA
CA-W-21489,"LABARGE VINEYARD, LLC",,2380 SWEENEY RD,LOMPOC,CA,93436,SANTA BARBARA
CA-W-2754,"STOLPMAN VINEYARDS, LLC",STOLPMAN VINEYARDS,1700 INDUSTRIAL WAY STE B,LOMPOC,CA,93436,SANTA BARBARA
CA-W-23033,"F2 WINES, LLC",,417 COMMERCE CT,LOMPOC,CA,93436,SANTA BARBARA
CA-W-23109,"KALAWASHAQ' WINE CELLARS, INC.",KALAWASHAQ' WINE CELLARS,313 N F ST,LOMPOC,CA,93436,SANTA BARBARA
CA-W-16955,ERTUGRUL SEVTAP,SEVTAP WINERY,308 N 9TH ST STE A,LOMPOC,CA,93436,SANTA BARBARA
CA-W-22817,"JACKSON FAMILY WINES, INC.",BREWER-CLIFTON,329 N F ST,LOMPOC,CA,93436,SANTA BARBARA
CA-W-2563,MELVILLE VINEYARDS/SOUTH LLC,MELVILLE,5185 E HIGHWAY 246,LOMPOC,CA,93436,SANTA BARBARA
CA-W-16239,"AMPELOS CELLARS, INC.",AMPELOS CELLARS,1251 W LAUREL AVE UNIT 22-26,LOMPOC,CA,93436,SANTA BARBARA
CA-W-15790,"SANFORD WINERY COMPANY, LP SWC MANAGEMENT LLC, G.P.",SANFORD WINERY,5010 SANTA ROSA RD,LOMPOC,CA,93436,SANTA BARBARA
CA-W-17035,"PALMINA, LLC",PALMINA,1704 INDUSTRIAL WAY,LOMPOC,CA,93436,SANTA BARBARA
CA-W-22333,ANGELA SOLENO,TURIYA WINES,321 N D ST,LOMPOC,CA,93436,SANTA BARBARA
CA-W-21639,DGGN LLC,CONARIUM WINES,1591 E CHESTNUT AVE,LOMPOC,CA,93436,SANTA BARBARA
CA-W-20477,COOPERATIVE DE GARAGISTES LLC,MONTEMAR,1501 E CHESTNUT CT STE B,LOMPOC,CA,93436,SANTA BARBARA
CA-W-21072,"CHANIN WINE COMPANY, INC.",CHANIN WINE COMPANY,300 N 12TH ST UNIT 1C & 2C,LOMPOC,CA,93436,SANTA BARBARA
CA-W-15775,DAVID MICHAEL AND REBECCA ELLEN COREY,CORE WINE COMPANY,321 N D ST,LOMPOC,CA,93436,SANTA BARBARA
CA-W-17034,"PALMINA, LLC",PALMINA,1520 E CHESTNUT CT,LOMPOC,CA,93436,SANTA BARBARA
CA-W-22297,STEPHEN BRIDGE,LOMPOC WINE FACTORY,321 N D ST,LOMPOC,CA,93436,SANTA BARBARA
CA-W-17528,J. WILLETT COMPANIES,TYLER WINERY,300 N 12TH ST UNIT 4A & 4B,LOMPOC,CA,93436,SANTA BARBARA
CA-W-22439,"FAT NOSE HAMILTON, LLC",,1501 E CHESTNUT CT STE B,LOMPOC,CA,93436,SANTA BARBARA
CA-W-23510,ERTUGRUL SEVTAP,SEVTAP CELLARS,308 N 9TH ST STE B,LOMPOC,CA,93436,SANTA BARBARA
CA-W-23841,"PORCELINA WINERY, INC",,321 N D ST,LOMPOC,CA,93436,SANTA BARBARA
CA-W-17245,"TRANSCEND RESOURCES, INC.",TRANSCENDENCE,300 N G ST STE C,LOMPOC,CA,93436,SANTA BARBARA
CA-W-23321,HARDY FIT LLC,SMARTVINE WINE,417 COMMERCE CT,LOMPOC,CA,93436,SANTA BARBARA
CA-W-22978,"DARK WATER WINERY, INC.",DARK WATER,1591 & 1595 STE B E CHESTNUT CT,LOMPOC,CA,93436,SANTA BARBARA
CA-W-20272,SONJA MAGDEVSKI,CASA DUMETZ,329 N F ST,LOMPOC,CA,93436,SANTA BARBARA
CA-W-23292,"TERRE ET SANG, LLC",,4457 SANTA ROSA RD STE 2,LOMPOC,CA,93436,SANTA BARBARA
CA-W-23712,SWEETZER CELLARS INC.,SWEETZER CELLARS,1637 E LAUREL AVE,LOMPOC,CA,93436,SANTA BARBARA
CA-W-16026,"LORING WINE COMPANY, LLC",LORING WINE COMPANY,1034 W AVIATION DR,LOMPOC,CA,93436,SANTA BARBARA
CA-W-23037,"AGRITETRAD WINE COMPANY, LLC",,300 N 12TH ST UNIT 4A,LOMPOC,CA,93436,SANTA BARBARA
CA-W-20397,"CHUMASH CELLARS, LLC",,300 N 12TH ST UNIT 1A & 2A,LOMPOC,CA,93436,SANTA BARBARA
CA-W-22912,"VELVET BEE, LLC",VELVET BEE WINE,4457 SANTA ROSA RD STE 2,LOMPOC,CA,93436,SANTA BARBARA
CA-W-2301,RICHARD R. LONGORIA AND DIANA L. LONGORIA,RICHARD LONGORIA WINES,415 E CHESTNUT AVE,LOMPOC,CA,93436,SANTA BARBARA
CA-W-23875,SEA CREATURES WINE LLC,SEA CREATURES WINE,340 N G ST,LOMPOC,CA,93436,SANTA BARBARA
CA-W-23693,JVSTITIA WINE LIMITED LIABILITY COMPANY DBA HOLLOW WINES,HOLLOW WINES,321 N D ST,LOMPOC,CA,93436,SANTA BARBARA
CA-W-24002,"MAYFIELD MOORE, INC.",,4457 SANTA ROSA RD STE 2,LOMPOC,CA,93436,SANTA BARBARA
CA-W-21283,ARETE WINES LLC,DOMAINE DE LA COTE,1712 INDUSTRIAL WAY,LOMPOC,CA,93436,SANTA BARBARA
CA-W-16238,"PALI WINE COMPANY, L.P.",PALI WINE COMPANY,1036 W AVIATION DR,LOMPOC,CA,93436,SANTA BARBARA
CA-W-16093,"EAST VALLEY WINES, LLC",EAST VALLEY WINES,1637 E LAUREL AVE,LOMPOC,CA,93436,SANTA BARBARA
CA-W-16284,"THE EVENING LAND & VINEYARDS, LLC",THE EVENING LAND & VINEYARDS,1712 INDUSTRIAL WAY,LOMPOC,CA,93436,SANTA BARBARA
CA-W-17476,"BLACK SHEEP FINDS, LLC",BLACK SHEEP FINDS,1500 E CHESTNUT CT UNIT F & G,LOMPOC,CA,93436,SANTA BARBARA
CA-W-2602,"FOLEY ESTATES VINEYARD AND WINERY, LLC",,6121 E HIGHWAY 246,LOMPOC,CA,93436,SANTA BARBARA
CA-W-22229,LOUBUD WINES L.L.C.,LOUBUD WINES,4003 FORBIDDEN FRUIT LN,LOMPOC,CA,93436,SANTA BARBARA
CA-W-23665,LONG CREEK VINEYARDS LLC,,417 COMMERCE ST,LOMPOC,CA,93436,SANTA BARBARA
CA-W-21441,"GOGI WINES, INC.",,1251 W LAUREL AVE UNIT 22-26,LOMPOC,CA,93436,SANTA BARBARA
CA-W-17272,"HILLIARD BRUCE VINEYARDS, LLC",HILLIARD BRUCE VINEYARDS,2075 VINEYARD VIEW LN,LOMPOC,CA,93436,SANTA BARBARA
CA-W-23138,"CAMPANIA ESTATE, LLC",,300 N 12TH ST UNIT 4A,LOMPOC,CA,93436,SANTA BARBARA
CA-W-21591,PRODIGAL WINES LLC,PRODIGAL WINES,"1251 W LAUREL AVE UNIT 9-10 , 13",LOMPOC,CA,93436,SANTA BARBARA
CA-W-24018,JONATHAN IBARRA,FIN CELLARS,321 N D ST,LOMPOC,CA,93436,SANTA BARBARA
CA-W-17118,VICTOR L GALLEGOS,THE EQWINERIE,300 N 12TH ST UNIT 4B,LOMPOC,CA,93436,SANTA BARBARA
CA-W-22033,"SPEAR WINERY COMPANY, LLC",SPEAR WINERY COMPANY,6700 E HIGHWAY 246,LOMPOC,CA,93436,SANTA BARBARA
CA-W-21737,"TENSLEY WINE, INC.",TENSLEY WINE,9110 ALISOS CANYON RD,LOS ALAMOS,CA,93440,SANTA BARBARA
CA-W-22610,"SHOKRIAN WINERY, LLC",LE CRUSH WINERY,7910 CAT CANYON RD,LOS ALAMOS,CA,93440,SANTA BARBARA
CA-W-17699,MARTIAN RANCH & VINEYARD,MARTIAN VINEYARD,9110 ALISOS CANYON RD,LOS ALAMOS,CA,93440,SANTA BARBARA
CA-W-23554,FREQUENCY WINE COMPANY,FREQUENCY WINE COMPANY,9110 ALISOS CANYON RD,LOS ALAMOS,CA,93440,SANTA BARBARA
CA-W-22741,DOVECOTE LLC,DOVECOTE,9229 ALISOS CANYON RD,LOS ALAMOS,CA,93440,SANTA BARBARA
CA-W-23202,"PETROS WINERY, LLC",,3360 FOXEN CANYON RD,LOS OLIVOS,CA,93441,SANTA BARBARA
CA-W-810,CUSHMAN WINERY CORPORATION,ZACA MESA WINERY,6905 FOXEN CANYON RD,LOS OLIVOS,CA,93441,SANTA BARBARA
CA-W-17057,"FOLEY FAMILY WINES, INC.",FIRESTONE VINEYARD,5017 ZACA STATION RD,LOS OLIVOS,CA,93441,SANTA BARBARA
CA-W-15788,"ANDREW MURRAY, LLC",ANDREW MURRAY VINEYARDS,5249 FOXEN CANYON RD,LOS OLIVOS,CA,93441,SANTA BARBARA
CA-W-22915,"MIRALAGUNA, LLC",,5249 FOXEN CANYON RD,LOS OLIVOS,CA,93441,SANTA BARBARA
CA-W-21934,SPENCER LANDON DALEY,SLYD WINES,5249 FOXEN CANYON RD,LOS OLIVOS,CA,93441,SANTA BARBARA
CA-W-15596,"DEMETRIA VINEYARDS AND WINERY, LLC",DEMETRIA VINEYARDS AND WINERY,6701 FOXEN CANYON RD,LOS OLIVOS,CA,93441,SANTA BARBARA
CA-W-21424,"FELIZ NOCHE CELLARS, LLC",FELIZ NOCHE,5249 FOXEN CANYON RD,LOS OLIVOS,CA,93441,SANTA BARBARA
CA-W-22618,"B&G WINE CO, LLC",WAYLAN WINE CO.,5249 FOXEN CANYON RD,LOS OLIVOS,CA,93441,SANTA BARBARA
CA-W-2682,"CASTLE CREEK PROPERTIES, INC.",MALIBU HILLS VINEYARDS,5249 FOXEN CANYON RD,LOS OLIVOS,CA,93441,SANTA BARBARA
CA-W-2076,THOMAS L. & JUDITH F. BECKMEN,BECKMEN VINEYARDS,2670 ONTIVEROS RD,LOS OLIVOS,CA,93441,SANTA BARBARA
CA-W-2628,GRUNDOON LLC,CURTIS WINERY,5249 FOXEN CANYON RD,LOS OLIVOS,CA,93441,SANTA BARBARA
CA-W-21719,"SAARLOOS ESTATE VINEYARDS, LLC",SAARLOOS AND SONS AREA 51,5249 FOXEN CANYON RD,LOS OLIVOS,CA,93441,SANTA BARBARA
CA-W-3202,"KOEHLER WINERY, LLC",,5360 FOXEN CANYON RD,LOS OLIVOS,CA,93441,SANTA BARBARA
CA-W-23203,"RANCHO LOS OLIVOS, LLC",,3360 FOXEN CANYON RD,LOS OLIVOS,CA,93441,SANTA BARBARA
CA-W-1764,"PARKER STATION, INC.",PARKER STATION,6200 FOXEN CANYON RD,LOS OLIVOS,CA,93441,SANTA BARBARA
CA-W-2605,SAMUEL MARMORSTEIN,BERNAT WINERY,2650 SANTA YNEZ ST,LOS OLIVOS,CA,93441,SANTA BARBARA
CA-W-17655,"C2 CELLARS, INC.",C2 CELLARS,9050 SAN ANTONIO RD,ORCUTT,CA,93455,SANTA BARBARA
CA-W-21665,"AUTONOM, LLC",,9050 SAN ANTONIO RD,ORCUTT,CA,93455,SANTA BARBARA
CA-W-16890,"SEMLER MALIBU ESTATE VINEYARDS, INC.",MALIBU FAMILY WINES,9050 SAN ANTONIO RD,ORCUTT,CA,93455,SANTA BARBARA
CA-W-17585,"MONTE CRISTO BLOCK IV, LLC",CINQUE STELLE WINERY,9050 SAN ANTONIO RD,ORCUTT,CA,93455,SANTA BARBARA
CA-W-22256,"A TRIBUTE TO GRACE WINE COMPANY, LLC",,9050 SAN ANTONIO RD,ORCUTT,CA,93455,SANTA BARBARA
CA-W-21891,BIANCHETTI & FINK LLC,AETHER WINE COMPANY,9050 SAN ANTONIO RD,ORCUTT,CA,93455,SANTA BARBARA
CA-W-21329,"BLAIR FOX CELLARS, INC.",BLAIR FOX CELLARS,120 SANTA BARBARA ST STE D,SANTA BARBARA,CA,93101,SANTA BARBARA
CA-W-23386,ORLAIGH WINES LLC,,406 E HALEY ST STE 1,SANTA BARBARA,CA,93101,SANTA BARBARA
CA-W-22841,"DRAKE MAKES WINE, INC.",WHITCRAFT WINERY,36 S CALLE CESAR CHAVEZ STE A,SANTA BARBARA,CA,93103,SANTA BARBARA
CA-W-22684,"WOOD FIRED, INC.",CROSSHATCH WINERY,414 N SALSIPUEDES ST,SANTA BARBARA,CA,93103,SANTA BARBARA
CA-W-22436,"EASTMAN-MARIE, LLC",JAFFURS WINE CELLARS,819 E MONTECITO ST,SANTA BARBARA,CA,93103,SANTA BARBARA
CA-W-21959,"MUNICIPAL WINEMAKERS, LLC",POTEK,406 E HALEY ST STE 1,SANTA BARBARA,CA,93101,SANTA BARBARA
CA-W-21346,AVELINA WINE COMPANY LLC,,131 ANACAPA ST STE B,SANTA BARBARA,CA,93101,SANTA BARBARA
CA-W-488,SANTA BARBARA WINERY,,202 ANACAPA ST,SANTA BARBARA,CA,93101,SANTA BARBARA
CA-W-15255,OREANA WINE COMPANY LLC,OREANA WINERY,205 ANACAPA ST,SANTA BARBARA,CA,93101,SANTA BARBARA
CA-W-21906,SILVER WINES LLC,,724 REDDICK ST,SANTA BARBARA,CA,93103,SANTA BARBARA
CA-W-23966,WYLDE WORKS LLC,WYLDE WORKS,609 STATE ST,SANTA BARBARA,CA,93101,SANTA BARBARA
CA-W-22311,"WENZLAU VINEYARD COMPANY, LLC",,724 UNION ST,SANTA BARBARA,CA,93103,SANTA BARBARA
CA-W-15868,"CARR WINERY, INC.",CARR WINERY,414 N SALSIPUEDES ST,SANTA BARBARA,CA,93103,SANTA BARBARA
CA-W-15845,MATTHIAS PIPPIG AND JAMIE KINSER,SANGUIS,8 ASHLEY AVE,SANTA BARBARA,CA,93103,SANTA BARBARA
CA-W-16894,"DEBBIE ROAD, LLC",,5330 DEBBIE RD STE 200,SANTA BARBARA,CA,93111,SANTA BARBARA
CA-W-16987,STEPHAN R. BEDFORD,BEDFORD WINERY,2643 INDUSTRAIL PKWY,SANTA MARIA,CA,93455,SANTA BARBARA
CA-W-15523,"COSTA DE ORO, LLC",COSTA DE ORO WINERY,2705 AND 2717 AVIATION WAY,SANTA MARIA,CA,93455,SANTA BARBARA
CA-W-3306,"PARKER STATION, INC.",PARKER STATION,2643 INDUSTRIAL PKWY,SANTA MARIA,CA,93455,SANTA BARBARA
CA-W-21931,ERNST ALWYN STORM,STORM WINES,5069 PRESQUILE DR,SANTA MARIA,CA,93455,SANTA BARBARA
CA-W-17328,MAURICE & SUSAN WEDELL,WEDELL CELLARS,2705 AVIATION WAY,SANTA MARIA,CA,93455,SANTA BARBARA
CA-W-21604,"RUNWAY VINEYARDS, LLC",,2717 AND 2705 AVIATION WAY STE 224,SANTA MARIA,CA,93455,SANTA BARBARA
CA-W-16813,TIMELESS PALATES WINE LLC,TIMELESS PALATES WINES,2717 AVIATION WAY,SANTA MARIA,CA,93455,SANTA BARBARA
CA-W-17513,MILLER FAMILY WINE COMPANY LLC,MILLER FAMILY WINE COMPANY,2705 & 2717 AVIATION WAY,SANTA MARIA,CA,93455,SANTA BARBARA
CA-W-22896,PURPLE DRAGON CELLARS LLC,PURPLE DRAGON CELLARS,2330 WEST GATE RD UNIT 9,SANTA MARIA,CA,93455,SANTA BARBARA
CA-W-23698,PROJECT CABERNET LLC,MANDRAKE WINE,2705 & 2717 AVIATION WAY,SANTA MARIA,CA,93455,SANTA BARBARA
CA-W-21388,"WINE APOTHECARY, LLC",BLENDTIQUE WINE COMPANY,2717 AVIATION WAY,SANTA MARIA,CA,93455,SANTA BARBARA
CA-W-17197,"CAL-WEST WINES, INC.",GOLDEN BEAR WINERY,"2115 S BLOSSER RD UNITS 104,",SANTA MARIA,CA,93458,SANTA BARBARA
CA-W-2355,AU BON CLIMAT LLC,AU BON CLIMAT,4665 SANTA MARIA MESA RD,SANTA MARIA,CA,93454,SANTA BARBARA
CA-W-21905,"ACME WINE LABEL, LLC",,5069 PRESQUILE DR,SANTA MARIA,CA,93455,SANTA BARBARA
CA-W-17720,NAGY WINES,,2705 AVIATION WAY,SANTA MARIA,CA,93455,SANTA BARBARA
CA-W-21677,"COWBOY GHOST, LLC",CHALLEN WINERY,2330 WESTGATE RD STE 6,SANTA MARIA,CA,93454,SANTA BARBARA
CA-W-16044,RIVERBENCH LLC,RIVERBENCH,6020 FOXEN CANYON RD,SANTA MARIA,CA,93454,SANTA BARBARA
CA-W-1040,FLOOD RANCH COMPANY,RANCHO SISQUOC WINERY,6600 FOXEN CANYON RD,SANTA MARIA,CA,93454,SANTA BARBARA
CA-W-21715,"OLIVE HOUSE, INC.",FEELEY WINES,,SANTA MARIA,CA,93455,SANTA BARBARA
CA-W-16968,"ET WINES, LLC",TRIUNE,2643 INDUSTRIAL PKWY,SANTA MARIA,CA,93455,SANTA BARBARA
CA-W-21039,"DRAGON LAKE WINES, LLC",,2310 WESTGATE RD UNIT 7 AND 8,SANTA MARIA,CA,93455,SANTA BARBARA
CA-W-16116,"JACKSON FAMILY WINES, INC.",CAMBRIA WINERY,5475 CHARDONNAY LN,SANTA MARIA,CA,93454,SANTA BARBARA
CA-W-2831,MCKEON-PHILLIPS LLC,MCKEON-PHILLIPS WINERY,"2115 S BLOSSER RD STE 124, 1",SANTA MARIA,CA,93458,SANTA BARBARA
CA-W-21178,JEREMY JAY GRINKEY,SEANCE WINES,2705 AVIATION WAY,SANTA MARIA,CA,93455,SANTA BARBARA
CA-W-17477,"PAUL LATO WINES, LLC",,2717 AVIATION WAY,SANTA MARIA,CA,93455,SANTA BARBARA
CA-W-16113,"JACKSON FAMILY WINES, INC.",BYRON VINEYARD & WINERY,5250 TEPUSQUET CANYON RD,SANTA MARIA,CA,93454,SANTA BARBARA
CA-W-16742,"FORTRESS VINEYARDS, INC.",FORTRESS VINEYARDS,2643 INDUSTRIAL PKWY,SANTA MARIA,CA,93455,SANTA BARBARA
CA-W-1509,"FOXEN VINEYARD, INC.",,7200 FOXEN CANYON RD,SANTA MARIA,CA,93454,SANTA BARBARA
CA-W-22056,SHIRAH WINE LLC,,2705 AVIATION WAY,SANTA MARIA,CA,93455,SANTA BARBARA
CA-W-3290,KAREN L. KANSKY & LAWRENCE E. HOGAN,STONE PINE ESTATE,2717 AVIATION WAY UNIT E-24,SANTA MARIA,CA,93455,SANTA BARBARA
CA-W-21945,HABIT WINE COMPANY,,5069 PRESQUILE DR,SANTA MARIA,CA,93455,SANTA BARBARA
CA-W-20212,"LUCIA'S WINE CO., INC.",,2115 S BLOSSER RD STE 103,SANTA MARIA,CA,93456,SANTA BARBARA
CA-W-16508,"ONCE WINES, LLC",ONCE WINES,2350 WESTGATE RD,SANTA MARIA,CA,93455,SANTA BARBARA
CA-W-17022,"BLAIR FOX CELLARS, INC.",BLAIR FOX CELLARS,2643 INDUSTRAIL PKWY STE D,SANTA MARIA,CA,93455,SANTA BARBARA
CA-W-3400,HARTLEY OSTINI LLC,HARTLEY OSTINI VINTNERS,4665 SANTA MARIA MESA RD UNIT A,SANTA MARIA,CA,93454,SANTA BARBARA
CA-W-16260,"MUNICIPAL WINEMAKERS, LLC",MUNICIPAL WINEMAKERS,2643 INDUSTRIAL PKWY SUITE H,SANTA MARIA,CA,93455,SANTA BARBARA
CA-W-23691,MARY GRACE BRADLEY,GRA WINE,2330 WESTGATE RD STE 9,SANTA MARIA,CA,93455,SANTA BARBARA
CA-W-2398,"NORMAN J. BEKO, STEPHEN T. BEKO, MICHELLE L. BEKO",COTTONWOOD CANYON,3940 DOMINION RD,SANTA MARIA,CA,93454,SANTA BARBARA
CA-W-3625,AQUA PUMPKIN INC.,,5230 TEPUSQUET RD,SANTA MARIA,CA,93454,SANTA BARBARA
CA-W-15579,THE NIPOMO WINE GROUP,THE NIPOMO WINE GROUP,2705 AVIATION WAY E-28,SANTA MARIA,CA,93455,SANTA BARBARA
CA-W-15641,WILLIAM JAMES CELLARS LLC,WILLIAM JAMES CELLARS,2705 AVIATION WAY,SANTA MARIA,CA,93455,SANTA BARBARA
CA-W-21988,"CHARLES E. CARLSON, III",CARLSON WINES,2330 WESTGATE RD,SANTA MARIA,CA,93455,SANTA BARBARA
CA-W-16252,"FERRAGAMO & MIGNECO, LLC",FERRAGAMO & MIGNECO,2115 S BLOSSER 122 & 123,SANTA MARIA,CA,93458,SANTA BARBARA
CA-W-15456,"TRES HERMANAS VINEYARD & WINERY, LLC",TRES HERMANAS VINEYARD & WINERY,9660 FOXEN CANYON RD,SANTA MARIA,CA,93454,SANTA BARBARA
CA-W-15329,"TRUEWINES, INC.",VERDAD,4665 SANTA MARIA MESA RD,SANTA MARIA,CA,93454,SANTA BARBARA
CA-W-16823,PRESQU'ILE WINERY,,5391 PRESQU'ILE DR,SANTA MARIA,CA,93455,SANTA BARBARA
CA-W-17512,"RTV WINERY, LLC",BIEN NACIDO AND SOLOMON HILLS ESTATES,2900 RANCHO TEPUSQUET RD,SANTA MARIA,CA,93454,SANTA BARBARA
CA-W-23339,"COTIERE WINERY, LLC",COTIERE WINERY,2330 WEST GATE RD 9,SANTA MARIA,CA,93455,SANTA BARBARA
CA-W-16903,SANS LIEGE INC.,SANS LIEGE WINES,2717 AVIATION WAY C-7,SANTA MARIA,CA,93455,SANTA BARBARA
CA-W-21874,ALLAN HANCOCK COLLEGE VITICULTURE & ENOLOGY FOUNDATION,,800 S COLLEGE DR BLDG O-211,SANTA MARIA,CA,93454,SANTA BARBARA
CA-W-22127,"BWSC, LLC",WINC,2705 & 2717 AVIATION WAY,SANTA MARIA,CA,93455,SANTA BARBARA
CA-W-21902,"TATOMER, INC.",TATOMER,2717 AVIATION WAY,SANTA MARIA,CA,93455,SANTA BARBARA
CA-W-15920,"KUNIN WINES, LLC",KUNIN WINES,2717 AVIATION BLVD SUITE F-4,SANTA MARIA,CA,93455,SANTA BARBARA
CA-W-15062,SAVANNA FARMS LLC,OAK SAVANNA VINEYARD,2717 AVIATION WAY SUITE E-30,SANTA MARIA,CA,93455,SANTA BARBARA
CA-W-21565,"BWSC, LLC",WINC,850 A E STOWELL RD,SANTA MARIA,CA,93455,SANTA BARBARA
CA-W-21814,CAMERON PORTER AND MARLEN PORTER,AMPLIFY WINES,2320 THOMPSON WAY STE F,SANTA MARIA,CA,93455,SANTA BARBARA
CA-W-22017,"NUCLEAR WINE COMPANY, LLC",,2310 WESTGATE RD UNIT 7 & 8,SANTA MARIA,CA,93455,SANTA BARBARA
CA-W-1903,SANTA YNEZ WINE CORP.,AUSTIN CELLARS,2627 SKYWAY DR SUITE B,SANTA MARIA,CA,93455,SANTA BARBARA
CA-W-16470,"MACDONALD SCHAFFER, LLC",TERCERO WINES,2643 INDUSTRIAL PKWY,SANTA MARIA,CA,93455,SANTA BARBARA
CA-W-2239,SANTA YNEZ WINE CORP.,ARTHUR EARL,2627 SKYWAY DR SUITE B,SANTA MARIA,CA,93455,SANTA BARBARA
CA-W-2366,"CLENDENEN-LINDQUIST VINTNERS, INC.",CLENDENEN-LINDQUIST VINTNERS,4665 SANTA MARIA MESA RD STE 3,SANTA MARIA,CA,93454,SANTA BARBARA
CA-W-21603,"QUPE WINE CELLARS, LLC",QUPE CELLARS,4665 SANTA MARIA MESA RD STE A,SANTA MARIA,CA,93454,SANTA BARBARA
CA-W-22031,"TRUE BELIEVER, LLC","TRUE BELIEVER, IIC",3100 & 3248 RANCHO TEPUSQUET RD,SANTA MARIA,CA,93454,SANTA BARBARA
CA-W-23549,PARKER PARKER LLC,EL GATO,5069 PRESQUILE DR,SANTA MARIA,CA,93455,SANTA BARBARA
CA-W-21881,CHRISTIAN GARVIN,VINO VAN,3130 SKYWAY DR UNIT 103,SANTA MARIA,CA,93455,SANTA BARBARA
CA-W-21004,"TORETTI'S FAMILY VINEYARDS, INC.",TORETTI'S FAMILY VINEYARDS,2717 AVIATION WAY,SANTA MARIA,CA,93455,SANTA BARBARA
CA-W-21246,"NO LIMIT WINES, LLC",NO LIMIT WINES,2705 -2717 AVIATION WAY,SANTA MARIA,CA,93455,SANTA BARBARA
CA-W-3075,"BONACCORSI WINE COMPANY, LLC",BONACCORSI WINE COMPANY,4665 SANTA MARIA MESA RD,SANTA MARIA,CA,93454,SANTA BARBARA
CA-W-15067,GAETANO DAVID ADDAMO,ADDAMO VINEYARDS,3940 DOMINION RD,SANTA MARIA,CA,93454,SANTA BARBARA
CA-W-21127,CA' DEL GREVINO LLC,CA' DEL GREVINO ESTATE VINEYARDS,2115 S BLOSSER RD UNIT 119-124,SANTA MARIA,CA,93458,SANTA BARBARA
CA-W-15552,"ALAPAY CELLARS, INC.",ALAPAY CELLARS,"2115 S BLOSSER RD UNIT 125,126",SANTA MARIA,CA,93458,SANTA BARBARA
CA-W-2094,"CENTRAL COAST WINE WAREHOUSE, LP",CENTRAL COAST WINE SERVICES,2717 AVIATION WAY,SANTA MARIA,CA,93455,SANTA BARBARA
CA-W-23604,"BEAUTIFUL BEVERAGE, LLC",,2311 SKYWAY DR UNIT 11,SANTA MARIA,CA,93455,SANTA BARBARA
CA-W-16819,"KELLNER VINEYARDS, LLC",CENT ANNI,2600 CANADA ESTE,SANTA YNEZ,CA,93460,SANTA BARBARA
CA-W-17177,"GRASSINI FAMILY VINEYARDS, LLC",GRASSINI FAMILY VINEYARDS,5775 GENUINE RISK RD,SANTA YNEZ,CA,93460,SANTA BARBARA
CA-W-16391,"CIMARONE WINES, LLC",CIMARONE WINES,1777 FLETCHER WAY,SANTA YNEZ,CA,93460,SANTA BARBARA
CA-W-20121,"VINCENT VINEYARDS, LLC",VINCENT VINEYARDS,2370 N REFUGIO RD,SANTA YNEZ,CA,93460,SANTA BARBARA
CA-W-1722,BRANDER VINEYARD,,2401 N REFUGIO RD,SANTA YNEZ,CA,93460,SANTA BARBARA
CA-W-23984,"PALMINA, LLC",PALMINA,3555 ROBLAR AVE,SANTA YNEZ,CA,93460,SANTA BARBARA
CA-W-17666,CROWN POINT WINERY LLC,,1777 FLETCHER WAY,SANTA YNEZ,CA,93460,SANTA BARBARA
CA-W-15017,E. & J. GALLO WINERY,BRIDLEWOOD WINERY,3555 ROBLAR AVE,SANTA YNEZ,CA,93460,SANTA BARBARA
CA-W-22552,RUSTIK ELEMENTS LLC,MILLESIME CELLARS,125 N REFUGIO RD,SANTA YNEZ,CA,93460,SANTA BARBARA
CA-W-22054,"TWO WOLVES WINE, LLC",TWO WOLVES WINE,1480 COUNT FLEET ST,SANTA YNEZ,CA,93460,SANTA BARBARA
CA-W-23184,"SANDOVAL MERGENOV WINES, LLC",,125 N REFUGIO RD,SANTA YNEZ,CA,93460,SANTA BARBARA
CA-W-1424,THE GAINEY VINEYARD,,3950 E HIGHWAY 246,SANTA YNEZ,CA,93460,SANTA BARBARA
CA-W-21859,BRAVE & MAIDEN ESTATE LTD.,BRAVE & MAIDEN ESTATE,649 N REFUGIO RD,SANTA YNEZ,CA,93460,SANTA BARBARA
CA-W-23646,CHANNEL ISLANDS MANAGEMENT LLC,SUNSTONE WINERY,125 N REFUGIO RD,SANTA YNEZ,CA,93460,SANTA BARBARA
CA-W-23775,"STAR LANE & DIERBERG VINEYARDS, LLC",STAR LANE & DIERBERG VINEYARDS,2121 ALISOS RD,SANTA YNEZ,CA,93460,SANTA BARBARA
CA-W-23067,KALYRA WINERY LLC,KALYRA,343 N REFUGIO RD,SANTA YNEZ,CA,93460,SANTA BARBARA
CA-W-22693,"BROKEN CLOCK VINEGAR WORKS, LLC",BROKEN CLOCK VINEGAR WORKS,1210 MISSION DR STE 103,SOLVANG,CA,93463,SANTA BARBARA
CA-W-2147,KANGARU ENTERPRISES LLC,RUSACK VINEYARDS,1819 & 1825 BALLARD CANYON RD,SOLVANG,CA,93463,SANTA BARBARA
CA-W-22943,PIAZZA BELLAVISTA VINEYARDS LLC,,2825 TAPADERO RD,SOLVANG,CA,93463,SANTA BARBARA
CA-W-2331,"FOLEY ESTATES VINEYARD AND WINERY, LLC",,1711 ALAMO PINTADO RD,SOLVANG,CA,93463,SANTA BARBARA
CA-W-1644,"BUTTONWOOD FARM WINERY, INC",BUTTONWOOD FARM WINERY,1500 ALAMO PINTADO RD,SOLVANG,CA,93463,SANTA BARBARA
CA-W-15039,"CARHARTT VINEYARD, INC.",CARHARTT VINEYARD,1541 RANCHO SANTA YNEZ RD,SOLVANG,CA,93463,SANTA BARBARA
CA-W-2416,ROGER L. WISTED,BLACKJACK RANCH VINEYARDS & WINERY,2205 ALAMO PINTADO RD,SOLVANG,CA,93463,SANTA BARBARA
CA-W-15225,"SHOESTRING VINEYARD & WINERY, LLC",SHOESTRING VINEYARD & WINERY,800 E HIGHWAY 246,SOLVANG,CA,93463,SANTA BARBARA
CA-W-23509,"LUNA HART WINES, LLC",,2825 TAPADERO RD,SOLVANG,CA,93463,SANTA BARBARA
CA-W-20220,"FERGUSON CREST, INC.",FERGUSON CREST WINERY,100 LOS PADRES WAY STE 3,BUELLTON,CA,93427,SANTA BARBARA COUNTY
CA-W-23356,"J. DIRT, LLC",,55 LOS PADRES WAY UNIT 1,BUELLTON,CA,93427,SANTA BARBARA COUNTY
CA-W-23469,"STORY OF SOIL, LLC",,55 LOS PADRES WAY UNIT 1,BUELLTON,CA,93427,SANTA BARBARA COUNTY
CA-W-22047,"BARBIERI WINE COMPANY, LLC",BARBIERI WINE COMPANY,100 LOS PADRES WAY STE 7,BUELLTON,CA,93427,SANTA BARBARA COUNTY
CA-W-23294,"T.W. HOLLISTER & CO., LLC",,4193 CARPINTERIA AVE STE 7 & 8,CARPINTERIA,CA,93013,SANTA BARBARA COUNTY
CA-W-23234,NOJOQUI RANCH LLC,FOLDED HILLS,2323 OLD COAST HWY,GAVIOTA,CA,93117,SANTA BARBARA COUNTY
CA-W-23447,"VALLEY TO THE SEA WINEY, LLC",,6485 CALLE REAL STE E & F,GOLETA,CA,93117,SANTA BARBARA COUNTY
CA-W-22832,"SZKUTAK WINE VENTURES, LLC",SAMSARA WINE COMPANY,6485 CALLE REAL STE E,GOLETA,CA,93117,SANTA BARBARA COUNTY
CA-W-23750,"DRAUGHTSMEN ALEWORKS, LLC",,53 SANTA FELICIA DR,GOLETA,CA,93117,SANTA BARBARA COUNTY
CA-W-22850,NATIVE9,,300 N 12TH ST UNIT 4A,LOMPOC,CA,93436,SANTA BARBARA COUNTY
CA-W-21018,"BRATCHER WINE GROUP, LLC.",BRATCHER WINE GROUP,4457 N SANTA ROSA RD STE 2,LOMPOC,CA,93436,SANTA BARBARA COUNTY
CA-W-23116,"TWO PAPAS WINE, LLC",ENTOURAGE WINES,1251 W LAUREL AVE UNIT 9-13,LOMPOC,CA,93436,SANTA BARBARA COUNTY
CA-W-23384,TURNER & TWERP LLC,,321 N D ST,LOMPOC,CA,93436,SANTA BARBARA COUNTY
CA-W-24049,"STOLPMAN VINEYARDS, LLC",STOLPMAN VINEYARDS LLC,333 N D ST,LOMPOC,CA,93436,SANTA BARBARA COUNTY
CA-W-22067,KUGLER WINES LLC,KUGLER WINES,321 N D ST,LOMPOC,CA,93436,SANTA BARBARA COUNTY
CA-W-24003,"FUTURE PERFECT WINE, INC.",FUTURE PERFECT,1500 E CHESTNUT CT UNIT F & G,LOMPOC,CA,93436,SANTA BARBARA COUNTY
CA-W-23308,"LOS ALAMOS GROURMAND GROUP, LLC",,346 BELL ST,LOS ALAMOS,CA,93440,SANTA BARBARA COUNTY
CA-W-23035,"LAND OF SAINTS WINE COMPANY, LLC",,9050 SAN ANTONIO RD,ORCUTT,CA,93455,SANTA BARBARA COUNTY
CA-W-23024,"CLUSTERFREAK WINE VINTNERS, LLC",,9050 SAN ANTONIO RD,ORCUTT,CA,93455,SANTA BARBARA COUNTY
CA-W-23348,DYLAN DOUGHTERTY,HONEYCRAFT,523 GARDEN ST,SANTA BARBARA,CA,93101,SANTA BARBARA COUNTY
CA-W-21231,MICHAEL BRUGHELLI,VIGNERONS,4665 SANTA MARIA MESA RD,SANTA MARIA,CA,93454,SANTA BARBARA COUNTY
CA-W-23504,"DONNACHADH FAMILY WINES, LLC",,5069 PRESQU'ILE DR,SANTA MARIA,CA,93455,SANTA BARBARA COUNTY
CA-W-23871,"BACK PORCH INDUSTRIES, INC.",VOYZ'N WINES,"2330 WESTGATE RD UNIT 10,20",SANTA MARIA,CA,93454,SANTA BARBARA COUNTY
CA-W-23274,FERRARI BROTHERS WINE LLC,FERRARI BROS,2717 AVIATION WAY STE 149,SANTA MARIA,CA,93455,SANTA BARBARA COUNTY
CA-W-23246,"VALMUR, LLC",,5428 PRESQU'ILE DR,SANTA MARIA,CA,93455,SANTA BARBARA COUNTY
CA-W-22993,"TESTANEY, INC.",,3940 DOMINION RD,SANTA MARIA,CA,43455,SANTA BARBARA COUNTY
CA-W-23926,TANTARA ENTERPRISE INC.,DOMINION TANTARA,2330 WESTGATE RD UNIT 7 & 17,SANTA MARIA,CA,93455,SANTA BARBARA COUNTY
CA-W-23080,NOJOQUI RANCH LLC,FOLDED HILLS,2121 ALISOS AVE,SANTA YNEZ,CA,93460,SANTA BARBARA COUNTY
CA-W-23367,"GLEASON FAMILY VINEYARDS, LP",GLEASON FAMILY VINEYARDS,3010 ROBLAR AVE,SANTA YNEZ,CA,93460,SANTA BARBARA COUNTY
CA-W-23776,"TEMPERANCE CELLARS, LLC",,1637 E LAUREL AVE,LOMPOC,CA,93436,SANTA BRABARA
CA-W-15014,BIG BASIN VINEYARDS LLC,BIG BASIN VINEYARDS,830 MEMORY LN,BOULDER CREEK,CA,95006,SANTA CLARA
CA-W-15384,"SIEMPRE WINERY, INC.",,165 CRISTICH LN UNIT F,CAMPBELL,CA,95008,SANTA CLARA
CA-W-15221,"TOMAINO, KATHRYN, VIDOVICH, JOHN, MICHAEL & MARY JANE",VIDOVICH VINEYARDS,18101 MONTEBELLO RD,CUPERTINO,CA,95014,SANTA CLARA
CA-W-16389,R AND W PURSUITS LLC,R & W VINEYARDS,15060 MONTEBELLO RD,CUPERTINO,CA,95014,SANTA CLARA
CA-W-2467,PICCHETTI WINERY INC,,13100 MONTEBELLO RD,CUPERTINO,CA,95014,SANTA CLARA
CA-W-16102,DONALD E. NAUMANN,NAUMANN VINEYARDS,16505 MONTEBELLO RD,CUPERTINO,CA,95014,SANTA CLARA
CA-W-1507,ROY S. FELLOM AND ROY E. FELLOM,FELLOM RANCH VINEYARDS,17075 MONTEBELLO RD,CUPERTINO,CA,95014,SANTA CLARA
CA-W-331,"RIDGE VINEYARDS, INC.",,18100 MONTEBELLO RD,CUPERTINO,CA,95014,SANTA CLARA
CA-W-24034,CETANI FAMILY VINEYARDS,CETANI FAMILY VINEYARDS,11450 NEW AVE,GILROY,CA,95020,SANTA CLARA
CA-W-23242,BESSON FAHEY FAMILY LLC,,3575 HECKER PASS RD,GILROY,CA,95020,SANTA CLARA
CA-W-23368,CINNABAR VINEYARDS & WINERY LLC,,6500 BREM LN,GILROY,CA,95020,SANTA CLARA
CA-W-23394,VINE VINEYARDS,VINE VINEYARDS,8485 PHARMER DR,GILROY,CA,95020,SANTA CLARA
CA-W-23455,"RED FOX PRODUCTIONS, LLC",RED FOX LAIR,6500 BREM LN,GILROY,CA,95020,SANTA CLARA
CA-W-22092,"REM VINEYARD INVESTMENTS, LLC",,3200 DRYDEN AVE,GILROY,CA,95020,SANTA CLARA
CA-W-15173,"THE TWO YOUTHS, INC.",RAPAZZINI WINERY,4350 MONTEREY HWY,GILROY,CA,95020,SANTA CLARA
CA-W-22564,ERIC & LORI LOCHTEFELD,,9548 ESTATES DR,GILROY,CA,95020,SANTA CLARA
CA-W-15634,ALICATS LLC,ALICATS WINERY,11775 WATSONVILLE RD,GILROY,CA,95020,SANTA CLARA
CA-W-22370,MICHAEL THORKEL CLARK,DORYS VINEYARD,4295 HECKER PASS RD,GILROY,CA,95020,SANTA CLARA
CA-W-22721,LCGM LLC,,6500 BREM LN,GILROY,CA,95020,SANTA CLARA
CA-W-22991,"ALARA CELLARS, LLC",ALARA,6500 BREM LN BLDG,GILROY,CA,95020,SANTA CLARA
CA-W-480,MARIO FORTINO & FRANCES FORTINO,HECKER PASS WINERY,4605 HECKER PASS RD,GILROY,CA,95020,SANTA CLARA
CA-W-22885,"THE STOMPING GROUND CUSTOM CRUSH, LLC",,6500 BREM LN,GILROY,CA,95020,SANTA CLARA
CA-W-21313,"CHURCH CREEK CELLARS, INC.",,11495 CENTER AVE,GILROY,CA,95020,SANTA CLARA
CA-W-22667,"DORCICH FAMILY VINEYARDS, LLC",DORCICH FAMILY VINEYARDS,11775 WATSONVILLE RD,GILROY,CA,95020,SANTA CLARA
CA-W-15604,SATORI CELLARS LLC,SATORI CELLARS,2100 BUENA VISTA AVE,GILROY,CA,95020,SANTA CLARA
CA-W-22449,VERDE VINEYARDS,VERDE VINEYARDS,2143 BUENA VISTA AVE,GILROY,CA,95020,SANTA CLARA
CA-W-2833,"MIRANDA WINES, LLC",KIRIGIN CELLARS,11550 WATSONVILLE RD,GILROY,CA,95020,SANTA CLARA
CA-W-22082,ROLLIN DEAN KLINGBERG,KLINGBERG FAMILY VINEYARDS,4295 HECKER PASS RD,GILROY,CA,95020,SANTA CLARA
CA-W-2917,"THE WILDCAT VINEYARDS, LLC",SARAH'S VINEYARD,4005 HECKER PASS RD,GILROY,CA,95020,SANTA CLARA
CA-W-3538,"MARTIN RANCH WINERY, INC.",MARTIN RANCH,6675 REDWOOD RETREAT RD,GILROY,CA,95020,SANTA CLARA
CA-W-15844,SILICON VALLEY WINE COMPANY INC.,,6500 BREM LN,GILROY,CA,95020,SANTA CLARA
CA-W-21896,ROBERT E SUMMERS,,3200 DRYDEN AVE,GILROY,CA,95020,SANTA CLARA
CA-W-22085,ZEPHYRUS CELLARS INC.,,1235 DAY RD W,GILROY,CA,95020,SANTA CLARA
CA-W-439,"FORTINO WINERY, INC.",FORTINO WINERY,4525 HECKER PASS HWY,GILROY,CA,95020,SANTA CLARA
CA-W-21973,LA VIE DANSANTE WINES LLC,,3200 DRYDEN AVE,GILROY,CA,95020,SANTA CLARA
CA-W-3262,"FERNWOOD CELLARS, INC.",,7137 REDWOOD RETREAT RD,GILROY,CA,95020,SANTA CLARA
CA-W-23837,IMAS FAMILY VINEYARD LLC,L&M VINEYARD,7602 SUNLIT OAKS CT,GILROY,CA,95020,SANTA CLARA
CA-W-1709,"RANCHO DE SOLIS WINERY, INC.",,3920 HECKER PASS RD,GILROY,CA,95020,SANTA CLARA
CA-W-2201,"CDF TRUST, CHARLES DOGLIONE, TRUSTEE",CASA DE FRUTA,6680 PACHECO PASS HWY,HOLLISTER,CA,95023,SANTA CLARA
CA-W-21170,LOS ALTOS HILLS WINERY - THE ALTOS HILLS VINEYARD LLC,,13651 BURKE RD,LOS ALTOS HILLS,CA,94022,SANTA CLARA
CA-W-21356,"LOKTEFF WINERY & VINEYARDS, LLC",WRIGHTS STATION VINEYARD & WINERY,24250 LOMA PRIETA AVE,LOS GATOS,CA,95033,SANTA CLARA
CA-W-3439,KENNEDY HILL ASSOCIATES LLC,KENNEDY HILL VINEYARDS,15050 KENNEDY RD,LOS GATOS,CA,95032,SANTA CLARA
CA-W-16867,"DORSA MANAGEMENT COMPANY, LLC",LA RUSTICANA D'ORSA,15680 KENNEDY RD,LOS GATOS,CA,95032,SANTA CLARA
CA-W-21229,"LOS ALTOS VINEYARDS, LLC.",,21850 BEAR CREEK RD,LOS GATOS,CA,95030,SANTA CLARA
CA-W-20277,GARAGE WINEMAKER LLC,BACCAROSSA,19620 REDBERRY DR,LOS GATOS,CA,95303,SANTA CLARA
CA-W-22399,"GALI VINEYARDS, INC.",GALI VINEYARDS,369 SILVER MOUNTAIN DR,LOS GATOS,CA,95033,SANTA CLARA
CA-W-15068,"TESTAROSSA VINEYARDS, LLC",TESTAROSSA VINEYARDS,300 COLLEGE AVE,LOS GATOS,CA,95030,SANTA CLARA
CA-W-23664,AEC FARMING INC,,4545 FELTER RD,MILPITAS,CA,95035,SANTA CLARA
CA-W-21860,"MOUNTAIN VIEW VINTNERS, LLC",,1480 E MAIN AVE STE 1,MORGAN HILL,CA,95037,SANTA CLARA
CA-W-22874,"BIG OAK RANCH, LLC",LIGHTPOST WINERY,900 LIGHTPOST WAY UNIT 2,MORGAN HILL,CA,95037,SANTA CLARA
CA-W-23135,A & A WINERY LLC,A & A WINERY,18290 COCHRANE RD,MORGAN HILL,CA,95037,SANTA CLARA
CA-W-22757,"HOLT WINES, INC.",SYCAMORE CREEK,12775 UVAS RD,MORGAN HILL,CA,95037,SANTA CLARA
CA-W-15635,MICHAEL SAMPOGNARO & MARYCLAIRE SAMPOGNARO,MORGAN HILL CELLARS,1645 SAN PEDRO AVE,MORGAN HILL,CA,95037,SANTA CLARA
CA-W-20348,"EMMALILY, INC.",,2105 DAHLBERG DR,MORGAN HILL,CA,95037,SANTA CLARA
CA-W-23165,"MANCINI DI LUCCA WINERY, LLC",MANCINI DI LUCCA WINERY,1480 E MAIN AVE,MORGAN HILL,CA,95037,SANTA CLARA
CA-W-22716,PAUL KERMOYAN,P & V WINERY,10155 DOUGHERTY AVE,MORGAN HILL,CA,95037,SANTA CLARA
CA-W-15234,JERALD G. ROSS & JUDITH D. ROSS,ROSS VINEYARDS,17520 OAK GLEN AVE,MORGAN HILL,CA,95037,SANTA CLARA
CA-W-551,"EMILIO GUGLIELMO WINERY, INC.",EMILIO GUGLIELMO WINERY,1480 E MAIN AVE,MORGAN HILL,CA,95037,SANTA CLARA
CA-W-23882,COTTAGE CREEK VINEYARDS LLC,,12535 WATSONVILLE RD,MORGAN HILL,CA,95037,SANTA CLARA
CA-W-16307,"ANDERS-LANE ARTISAN WINES, L.P.",ANDERS-LANE ARTISAN WINES,1480 E MAIN AVE,MORGAN HILL,CA,95037,SANTA CLARA
CA-W-16648,PARADISE VALLEY VINEYARDS LLC,PARADISE VALLEY VINEYARDS,2129 LOUIS HOLSTROM DR,MORGAN HILL,CA,95037,SANTA CLARA
CA-W-17233,EAGLE ROCK INVESTMENTS INC.,EAGLE ROCK VINEYARDS,1645 SAN PEDRO AVE,MORGAN HILL,CA,95037,SANTA CLARA
CA-W-15421,TODD A. & ALEXIA K. JOHNSON,MONTE VERDE VINEYARDS,13775 SYCAMORE DR,MORGAN HILL,CA,95037,SANTA CLARA
CA-W-1902,"MOUNTAIN VIEW VINTNERS, INC.",MOUNTAIN VIEW VINTNERS,1480 E MAIN AVE STE 1,MORGAN HILL,CA,95037,SANTA CLARA
CA-W-16877,GERALD JAMES PETERSON,AIMEE JUNE WINERY,1645 SAN PEDRO AVE,MORGAN HILL,CA,95037,SANTA CLARA
CA-W-16325,"J. DOWD CELLARS, LLC",,14645 GALLANT FOX WAY,MORGAN HILL,CA,95037,SANTA CLARA
CA-W-21728,MURALI CHIRALA AND ANU CHIRALA,CHIRALA VINEYARDS,15354 SYCAMORE DR,MORGAN HILL,CA,95037,SANTA CLARA
CA-W-23516,"ST. STEPHEN VINEYARDS, LLC",ST STEPHEN VINEYARDS LLC,1480 E MAIN AVE,MORGAN HILL,CA,95037,SANTA CLARA
CA-W-17038,CASTILLO'S HILLSIDE SHIRE WINERY INC.,CASTILLO'S HILLSIDE SHIRE WINERY,2215 LIBERATA DR,MORGAN HILL,CA,95037,SANTA CLARA
CA-W-16746,MICHAEL ALEX MICHAUD AND CAROL JANE HASTINGS,MICHAUD VINEYARD,1480 E MAIN AVE,MORGAN HILL,CA,95037,SANTA CLARA
CA-W-22101,MICHAEL J. MANN AND RUTH C. MANN,MANN CELLARS,1645 SAN PEDRO AVE,MORGAN HILL,CA,95037,SANTA CLARA
CA-W-15681,"APPELLATION EARTH, LLC",SENSORIUM,12775 UVAS RD,MORGAN HILL,CA,95037,SANTA CLARA
CA-W-22508,J WINSTON WINERY LLC,,1480 E MAIN AVE,MORGAN HILL,CA,95037,SANTA CLARA
CA-W-23613,LABARBERA FAMILY WINERY LLC,LABARBERA FAMILY WINERY,6591 WOODCLIFF CT,SAN JOSE,CA,95120,SANTA CLARA
CA-W-21584,GORDON BIERSCH BREWING COMPANY,GORDON BIERSCH BREWING COMPANY,357 E TAYLOR ST,SAN JOSE,CA,95112,SANTA CLARA
CA-W-23144,HERO RANCH LLC,,21670 SHILLINGSBURG AVE,SAN JOSE,CA,95120,SANTA CLARA
CA-W-21640,HERMITAGE BREWING COMPANY LP,HERMITAGE WINERY,1627 S 7TH ST,SAN JOSE,CA,95112,SANTA CLARA
CA-W-16361,"COTERIE CELLARS, INC.",COTERIE CELLARS,885 W JULIAN ST,SAN JOSE,CA,95126,SANTA CLARA
CA-W-15352,ROBERT WARREN PETERSON,TEAM ZIN,830 JURY CT,SAN JOSE,CA,95112,SANTA CLARA
CA-W-2039,J. LOHR WINERY CORPORATION,J. LOHR WINERY,1000 LENZEN AVE,SAN JOSE,CA,95126,SANTA CLARA
CA-W-21690,"BELLA MONTAGNA, LLC",,3786 QUIMBY RD,SAN JOSE,CA,95148,SANTA CLARA
CA-W-21263,ALMADEN VALLEY WINERY LLC,,19951 ALMADEN RD,SAN JOSE,CA,95120,SANTA CLARA
CA-W-23903,BERGIN WINE COMPANY LLC,,255 FITZGERALD AVE,SAN MARTIN,CA,95046,SANTA CLARA
CA-W-21520,"ENGELHARDT VINEYARDS, LLC",LION RANCH VINEYARDS AND WINERY,645 W SAN MARTIN AVE,SAN MARTIN,CA,95046,SANTA CLARA
CA-W-23192,"FITZ PLACE, LLC",FITZ PLACE,455 E FITZGERALD AVE,SAN MARTIN,CA,95046,SANTA CLARA
CA-W-17104,SHELDON HAYNIE & JANE MIKA-HAYNIE,LIGHTHEART CELLARS,305 ROOSEVELT AVE,SAN MARTIN,CA,95046,SANTA CLARA
CA-W-21088,MONTE ROBLE VINEYARDS LLC,LEFT BEND WINERY,12255 NEW AVE,SAN MARTIN,CA,95046,SANTA CLARA
CA-W-17422,"CLOS LACHANCE WINES, LLC",CLOS LACHANCE,13800 HUMMINGBIRD LN,SAN MARTIN,CA,95046,SANTA CLARA
CA-W-15267,"ASV WINES, INC.",ASV WINES,12805 LLAGAS AVE,SAN MARTIN,CA,95046,SANTA CLARA
CA-W-20167,"MIRAMAR VINEYARDS, LLC",MIRAMAR VINEYARDS,12255 NEW AVE,SAN MARTIN,CA,95046,SANTA CLARA
CA-W-15203,GREGORY R. PETERSON & TERESA P. PETERSON,CREEKVIEW VINEYARDS,12467 CREEKVIEW CT,SAN MARTIN,CA,95046,SANTA CLARA
CA-W-17313,TODD HERSCHEL THEDINGA,REAL DOGS WINE,1 HUMMINGBIRD LN,SAN MARTIN,CA,95046,SANTA CLARA
CA-W-22170,WILLIAM DAVID HELLER AND JANET ELAINE HELLER,HELLER VINEYARD & WINES,2009 BRIDLE LN,SAN MARTIN,CA,95046,SANTA CLARA
CA-W-20032,"THE VINE INTERVENTION, LLC",DRAKE WINES,13800 HUMMING BIRD LN,SAN MARTIN,CA,95046,SANTA CLARA
CA-W-16872,RICHARD SCHMIDT,MOOSE MOUNTAIN VINEYARDS,3210 PASEO VISTA AVE,SAN MARTIN,CA,95046,SANTA CLARA
CA-W-21547,WILLIAM RANDALL SEEKER AND KAREN RHINE SEEKER,SEEKER VINEYARD,11755 TURLOCK AVE,SAN MARTIN,CA,95046,SANTA CLARA
CA-W-23653,"HEMISPHERES, LLC",,12805 LLAGAS AVE,SAN MARTIN,CA,95046,SANTA CLARA
CA-W-16415,CAVIGLIA INC.,TANK HOUSE WINERY,12830 HARDING AVE,SAN MARTIN,CA,95046,SANTA CLARA
CA-W-2111,"SAVANNAH-CHANELLE VINEYARDS, INC.",,23600 CONGRESS SPRINGS RD,SARATOGA,CA,95070,SANTA CLARA
CA-W-23662,NAZARIO RANCH VINEYARDS LLC,NAZARIO RANCH VINEYARDS,22484 EDEN VALLEY CT,SARATOGA,CA,95070,SANTA CLARA
CA-W-17112,LOREN B. ZEMENICK,CHARLES USHER,24110 CONGRESS SPRINGS RD,SARATOGA,CA,95070,SANTA CLARA
CA-W-22629,BROSSEAU WINES LLC,FIRST GROWTH WINE COMPANY,22090 MT EDEN ROAD,SARATOGA,CA,95070,SANTA CLARA
CA-W-2542,GARROD TRUST,COOPER-GARROD VINEYARDS,22645 GARROD RD,SARATOGA,CA,95070,SANTA CLARA
CA-W-988,M.E.V. CORPORATION,MOUNT EDEN VINEYARDS,22020 MOUNT EDEN RD,SARATOGA,CA,95070,SANTA CLARA
CA-W-1671,KATHRYN KENNEDY WINERY,,13180 PIERCE RD,SARATOGA,CA,95070,SANTA CLARA
CA-W-21030,THREE ARCHES WINERY LLC,,1122 ASTER AVE STE J,SUNNYVALE,CA,94086,SANTA CLARA
CA-W-3147,MICHAEL J. FAUL,RABBITS FOOT MEADERY,1246 BIRCHWOOD DR,SUNNYVALE,CA,94089,SANTA CLARA
CA-W-20389,"MILAGRO VINEYARDS, LLC",MILAGRO VINEYARDS,13435 CHAPARRAL RD,MORGAN HILL,CA,95037,SANTA CLARA COUNTY
CA-W-23944,"ANTHONY BOZZANO, LLC",,1480 E MAIN AVE,MORGAN HILL,CA,95037,SANTA CLARA COUNTY
CA-W-22647,"MT. HAMILTON MEAD COMPANY, LLC",,14990 GARCAL DR,SAN JOSE,CA,95127,SANTA CLARA COUNTY
CA-W-16562,PETER THIBODEAU,THIBODEAU VINEYARD,431 COYOTE RIDGE RD,APTOS,CA,95003,SANTA CRUZ
CA-W-22987,"STORRS WINERY & VINEYARD, LTD.",,1560 PLEASANT VALLEY RD,APTOS,CA,95003,SANTA CRUZ
CA-W-22933,"LESTER COMPANY, LLC",,1950 PLEASANT VALLEY RD,APTOS,CA,95003,SANTA CRUZ
CA-W-21394,"LA VIDA BELLA VINEYARD, LLC",LA VIDA BELLA VINEYARD,44 OAK TREE LN,APTOS,CA,95003,SANTA CRUZ
CA-W-15146,CRAIG HANDLEY AND CATHY HANDLEY,PLEASANT VALLEY VINEYARDS,600 PLEASANT VALLEY RD,APTOS,CA,95003,SANTA CRUZ
CA-W-1433,SALAMANDRE WINE CELLARS,,108 DON CARLOS DR,APTOS,CA,95003,SANTA CRUZ
CA-W-15191,BRIAN ALEX NICHOLSON,NICHOLSON VINEYARDS,2800 PLEASANT VALLEY RD,APTOS,CA,95003,SANTA CRUZ
CA-W-22909,"ROBERT'S RANCH VINEYARDS, INC.",,875 ROBERT'S RD,BEN LOMOND,CA,95005,SANTA CRUZ
CA-W-545,PAUL C. & MARJORIE STAIGER,P AND M STAIGER,1300 HOPKINS GULCH RD,BOULDER CREEK,CA,95006,SANTA CRUZ
CA-W-3321,RICHARD & MARY KAY ALFARO,ALFARO FAMILY FARM & VINEYARDS,496 HAMES RD,CORRALITOS,CA,95076,SANTA CRUZ
CA-W-23118,"GHOST OAKS WINERY, INC.",EL VAQUERO WINERY,2901 FREEDOM BLVD,CORRALITOS,CA,95076,SANTA CRUZ
CA-W-3063,STRATEGY PARTNERS INTERNATIONAL,WINDY OAKS ESTATE,380 SWEETWOOD WAY,CORRALITOS,CA,95076,SANTA CRUZ
CA-W-23199,"LITTLE RIDGE VINEYARDS, LLC",LITTLE RIDGE VINEYARD,153 LAS COLINAS RD,CORRALITOS,CA,95076,SANTA CRUZ
CA-W-1658,"HALLCREST VINEYARDS, INC.",HALLCREST VINEYARDS,379 FELTON EMPIRE RD,FELTON,CA,95018,SANTA CRUZ
CA-W-2726,"GREGORY J. NOLTEN, KATHLEEN P. STARKEY & MARION E. NOLTEN","ZAYANTE VINEYARDS, LLC",420 OLD MOUNT RD,FELTON,CA,95018,SANTA CRUZ
CA-W-22430,"GRIFFIN HILL VINEYARDS, LLC",,1065 EAGLE TREE LN,FELTON,CA,95018,SANTA CRUZ
CA-W-21560,"KISSED BY AN ANGEL WINES, LLC",,1125 EL SOLYO HEIGHTS DR,FELTON,CA,95018,SANTA CRUZ
CA-W-2032,DAVID LEE MOULTON,BURRELL SCHOOL VINEYARDS,24060 SUMMIT RD,LOS GATOS,CA,95033,SANTA CRUZ
CA-W-3470,PAUL B. KEMP,LOMA PRIETA WINERY,26985 LOMA PRIETA WAY,LOS GATOS,CA,95033,SANTA CRUZ
CA-W-16782,REDWOOD RIDGE ESTATE LLC,REDWOOD RIDGE VINEYARD,21435 SUMMIT RD,LOS GATOS,CA,95033,SANTA CRUZ
CA-W-23457,"SPANISH RANCH WINERY, LLC",SPANISH RANCH WINERY,24000 SPANISH RANCH RD,LOS GATOS,CA,95033,SANTA CRUZ
CA-W-15831,PATRICK JAMES AND MOLLY CLAIRE SURGALSKI,WINDHOVER,16252 NILES RD,LOS GATOS,CA,95033,SANTA CRUZ
CA-W-21059,DEVINCENZI CELLARS LLC,,24572 HUTCHINSON RD,LOS GATOS,CA,95033,SANTA CRUZ
CA-W-20222,"SILVERTIP VINEYARDS, LLC",,16644 E UPPER ZAYANTE RD,LOS GATOS,CA,95033,SANTA CRUZ
CA-W-3241,JEFFREY M. BARRANTI,J.M. BARRANTI VINEYARDS,24842 SKYLAND RD,LOS GATOS,CA,95033,SANTA CRUZ
CA-W-1018,"DAVID BRUCE WINERY, INC.",DAVID BRUCE WINERY,21439 BEAR CREEK RD,LOS GATOS,CA,95033,SANTA CRUZ
CA-W-16066,FORTY STUMP VINEYARDS L.L.C.,,25205 APPLE HILL RD,LOS GATOS,CA,95033,SANTA CRUZ
CA-W-15431,"BLACK RIDGE WINERY, L.L.C.",BLACK RIDGE WINERY,18500 BLACK RD,LOS GATOS,CA,95033,SANTA CRUZ
CA-W-21908,RIDER RANCH LLC,,23415 GLENWOOD DR,LOS GATOS,CA,95033,SANTA CRUZ
CA-W-16947,VILLA VINTNERS LLC,VILLA DEL MONTE WINERY,23076 SUMMIT RD,LOS GATOS,CA,95033,SANTA CRUZ
CA-W-3189,MICHAEL & LYNNE MUCCIGROSSO,MUCCIGROSSO VINEYARDS,21450 BEAR CREEK RD,LOS GATOS,CA,95033,SANTA CRUZ
CA-W-15984,"THE SCHAADT WINE GROUP, LLC",REGALE WINERY AND VINEYARDS,24040 SUMMIT RD,LOS GATOS,CA,95033,SANTA CRUZ
CA-W-15419,"BLACK RIDGE WINERY, L.L.C.",BLACK RIDGE WINERY,18550 BLACK RD,LOS GATOS,CA,95033,SANTA CRUZ
CA-W-17221,"RHYS VINEYARDS, LLC",RHYS VINEYARDS,11715 SKYLINE BLVD,LOS GATOS,CA,95033,SANTA CRUZ
CA-W-23562,A & A LOS GATOS WINERY LLC,,25330 HUTCHINSON RD,LOS GATOS,CA,95033,SANTA CRUZ
CA-W-16957,"COPIOUS WINERY, LLC",COPIOUS WINERY,427 SWIFT ST SUITE A,SANTA CRUZ,CA,95060,SANTA CRUZ
CA-W-21334,"STOCKWELL CELLARS, INC.",STOCKWELL CELLARS,1100 FAIR AVE BLDG A,SANTA CRUZ,CA,95060,SANTA CRUZ
CA-W-23276,SANTE ARCANGELI FAMILY WINES LLC,SANTE ARCANGELI FAMILY WINES,10 PINE FLAT RD,SANTA CRUZ,CA,95060,SANTA CRUZ
CA-W-16405,MICHAEL V. & LOIS E. SONES,SONES CELLARS,334 B INGALLS ST,SANTA CRUZ,CA,95060,SANTA CRUZ
CA-W-17693,JAMES & MARGARET A. ALBERTI,ALBERTI VINEYARD,106 RICHARDSON RD,SANTA CRUZ,CA,95065,SANTA CRUZ
CA-W-16674,CORRALITOS RIDGE VINEYARDS CORPORATION,CORRALITIOS RIDGE WINERY,815 ALMAR AVE UNIT H,SANTA CRUZ,CA,95060,SANTA CRUZ
CA-W-15732,BARRY C. JACKSON,EQUINOX,427 SWIFT ST UNIT C,SANTA CRUZ,CA,95060,SANTA CRUZ
CA-W-16585,HILLCREST WINERY,REXFORD WINERY,429 INGALLS ST,SANTA CRUZ,CA,95060,SANTA CRUZ
CA-W-15082,"SANTA CRUZ VINEYARDS LP, SANTA CRUZ VINEYARDS LLC, GENERAL PARTNER",VINE HILL WINERY,2300 JARVIS RD,SANTA CRUZ,CA,95065,SANTA CRUZ
CA-W-16337,JEFFREY LOGAN EMERY,SANTA CRUZ MOUNTAIN VINEYARD,334 A INGALLS ST,SANTA CRUZ,CA,95060,SANTA CRUZ
CA-W-2370,BRUCE CANTZ,FOUR GATES WINERY,503 HAPPY VALLEY RD,SANTA CRUZ,CA,95065,SANTA CRUZ
CA-W-16302,BEAUREGARD VINEYARDS LLC,BEAUREGARD VINEYARDS,10 PINE FLAT RD,SANTA CRUZ,CA,95060,SANTA CRUZ
CA-W-2359,DR. DAVID STEWART ESTRADA,CLOS TITA WINERY,4 KENDALL LN,SANTA CRUZ,CA,95066,SANTA CRUZ
CA-W-23622,SILVER MOUNTAIN VINEYARDS,SILVER MOUNTAIN VINEYARDS,369 SILVER MOUNTAIN DR,SANTA CRUZ,CA,95060,SANTA CRUZ
CA-W-2488,HENRY M. AND LINDA J. MCHENRY,MCHENRY VINEYARD,6821 BONNY DOON RD,SANTA CRUZ,CA,95060,SANTA CRUZ
CA-W-15995,ROBERT J. GOLDSPINK,GRANITE RIDGE VINEYARD,895 GRANITE RIDGE DR,SANTA CRUZ,CA,95065,SANTA CRUZ
CA-W-2458,"STORRS WINERY & VINEYARD, LTD.",STORRS WINERY,"303 POTRERO ST STE 35, 8",SANTA CRUZ,CA,95060,SANTA CRUZ
CA-W-17475,MJA VINEYARDS LLC,MJA VINEYARD,328 INGALLS ST,SANTA CRUZ,CA,95060,SANTA CRUZ
CA-W-22262,PARTAGE WINE CO. LLC,,10 PINE FLAT RD,SANTA CRUZ,CA,95060,SANTA CRUZ
CA-W-21851,"PRIVATE VINE WINES, LLC",,815 ALMAR AVE UNIT H,SANTA CRUZ,CA,95060,SANTA CRUZ
CA-W-22263,LA MADRONA VINEYARD AND WINERY,,1851 LA MADRONA DR,SANTA CRUZ,CA,95060,SANTA CRUZ
CA-W-16483,"DANCING CREEK WINERY, LLC",DANCING CREEK WINERY,4363 BRANCIFORTE DR,SANTA CRUZ,CA,95065,SANTA CRUZ
CA-W-17465,"SCOTTS VALLEY WINERY, LLC",SCOTTS VALLEY WINERY,2364 BEAN CREEK RD,SCOTTS VALLEY,CA,95066,SANTA CRUZ
CA-W-3344,PHIL & PEGGY CREWS,PELICAN RANCH WINERY,2364 BEAN CREEK RD DR,SCOTTS VALLEY,CA,95066,SANTA CRUZ
CA-W-15219,HEART 'O THE MOUNTAIN LLC,,705 CANHAM RD,SCOTTS VALLEY,CA,95066,SANTA CRUZ
CA-W-16883,GRANITE CREEK LLC,37TH PARALLEL WINES,NOT PROVIDED,SCOTTS VALLEY,CA,95066,SANTA CRUZ
CA-W-15979,"POETIC CELLARS, LLC",POETIC CELLARS,5000 N RODEO GULCH RD,SOQUEL,CA,95073,SANTA CRUZ
CA-W-1820,"JON MORGAN, PETER BARGETTO, AND PAUL BARGETTO",SOQUEL VINEYARDS,8063 GLEN HAVEN RD,SOQUEL,CA,95073,SANTA CRUZ
CA-W-23041,"EVERETT FAMILY FARM, LLC",,2119 OLD SAN JOSE RD,SOQUEL,CA,95073,SANTA CRUZ
CA-W-1181,"BARGETTO'S SANTA CRUZ WINERY, INC.",,3535 N MAIN ST,SOQUEL,CA,95073,SANTA CRUZ
CA-W-2284,"OSOCALIS, INC.",,5579 OLD SAN JOSE RD,SOQUEL,CA,95073,SANTA CRUZ
CA-W-23729,MARGINS WINE LLC,MARGINS WINE,2487 FREEDOM BLVD UNIT 3,WATSONVILLE,CA,95076,SANTA CRUZ
CA-W-17280,LEONARD WOLFF,WOLFF AND FATHER,514 CALABASAS RD,WATSONVILLE,CA,95076,SANTA CRUZ
CA-W-17356,"MIZKAN AMERICA, INC.",,46 WALKER ST,WATSONVILLE,CA,95076,SANTA CRUZ
CA-W-22589,PETER SERVENTI,SERVENTI RANCH,65 LITCHFIELD LN,WATSONVILLE,CA,95076,SANTA CRUZ
CA-W-22505,"REYA CELLARS, LLC",REYA CELLARS,135 AVIATION WAY STE 16,WATSONVILLE,CA,95076,SANTA CRUZ
CA-W-22504,"INTEGRITY WINES, LP, INTEGRITY WINES, LLC, GP",12 HANDS WINERY,135 AVIATION WAY STE 16,WATSONVILLE,CA,95062,SANTA CRUZ
CA-W-22484,"STIRM WINE COMPANY, LLC",,65 ROGGE LN,WATSONVILLE,CA,95076,SANTA CRUZ
CA-W-17799,"ZEMOG LIBATIONS, LLC",MANZANITA CIDER,421 RIVERSIDE DR,WATSONVILLE,CA,95076,SANTA CRUZ
CA-W-20561,WARGIN WINES LLC,WARGIN WINES,18 HANGAR WAY STE C,WATSONVILLE,CA,95076,SANTA CRUZ
CA-W-3597,AMY DILLY PREASEAU AND JACQUES NOEL PREASEAU,VALLEY VISTA VINEYARDS,110 VALLEY VIEW RD,WATSONVILLE,CA,95076,SANTA CRUZ
CA-W-22185,GHOST OAKS WINERY INC.,EL VAQUERO WINERY,18 HANGAR WAY UNIT C,WATSONVILLE,CA,95076,SANTA CRUZ
CA-W-22169,RANDAL LEE WEST AND LARAE WEST,FREEDOM WINEWORKS,2321 FREEDOM BLVD,WATSONVILLE,CA,95076,SANTA CRUZ
CA-W-1153,KRISTINE ARNESON,RIVER RUN VINTNERS,65 ROGGE LN,WATSONVILLE,CA,95076,SANTA CRUZ
CA-W-3370,"FIVE STAR FARMS, LLC",NATAL VINEYARDS,1310 GREEN VALLEY RD,WATSONVILLE,CA,95076,SANTA CRUZ
CA-W-23728,J. G. JELKS WINES L.L.C.,FLOREZ WINES,2487 FREEDOM BLVD UNIT 3,WATSONVILLE,CA,95076,SANTA CRUZ
CA-W-22637,"COASTAL RANGE VINEYARDS, INC.",,420 LOST PEAR WAY,SANTA CRUZ,CA,95065,SANTA CRUZ COUNTY
CA-W-21223,ARMITAGE WINES CORP.,ARMITAGE WINES CORP,705 CANHAM RD,SCOTTS VALLEY,CA,95066,SANTA CRUZ COUNTY
CA-W-23059,COMPANION WINE CO. LLC,,65 ROGGE LN,WATSONVILLE,CA,95076,SANTA CRUZ COUNTY
CA-W-22580,"STEELHEAD ENGINEERING, INC.",,1850 DAY VALLEY RD,APTOS,CA,95003,SANTA CRUZE
CA-W-23159,PEAKE RANCH,PEAKE RANCH,7290 SANTA ROSA RD,BUELLTON,CA,93427,SANTA MARIA
CA-W-21406,LANCE KIRSKE,RISING RIVER CELLARS,21525 KERN RD,CASSEL,CA,96016,SHASTA
CA-W-16151,ERNEST J. & SUSAN R. ODELL,ONO WINES,11379 RAINBOW LAKE RD,IGO,CA,96047,SHASTA
CA-W-17213,CHARLES TUCKER,TUCKER CREEK VINEYARD,11379 RAINBOW LAKE RD,IGO,CA,96047,SHASTA
CA-W-17150,"NELS R. LARSON & CHRISTINE A. O'NEILL, ALBIREO ENDEAVORS, GENERAL",ALBIREO VINEYARDS,31141 ROCKY OAKS RD,MANTON,CA,96059,SHASTA
CA-W-22677,THE WALKER FAMILY FARM ENTERPRISE,COVE CREST FARM & WINERY,21599 HINDS RD,MONTGOMERY CREEK,CA,96065,SHASTA
CA-W-15543,ALLAN R.GRIGGS AND WILLEMINA C. GRIGGS,GRIGGS WINERY,21599 HINDS RD,MONTGOMERY CREEK,CA,96065,SHASTA
CA-W-24077,CASCADE ARC LLC,CASCADE ARC WINERY,19650 COVE RD,MONTGOMERY CREEK,CA,96065,SHASTA
CA-W-21057,"CHURN CREEK CELLARS, INC.",CHURN CREEK CELLARS,6558 QUAIL CREEK DR,REDDING,CA,96002,SHASTA
CA-W-20454,LARRY D. CONLEY,NORTHERN CALIFORNIA SPECIALTY WINES,1623 BELTLINE RD STE 4,REDDING,CA,96003,SHASTA
CA-W-21320,SPRING RIDGE ENTERPRISES LLC,TURKEY RIDGE VINEYARDS,16288 TEXAS SPRINGS RD,REDDING,CA,96001,SHASTA
CA-W-22367,ROBERT J. EARLY,MAJESTIC OAK FAMILY CELLARS,3058 CROSSROADS DR,REDDING,CA,96003,SHASTA
CA-W-20063,"MATSON VINEYARDS, LLC",,10584 ARAPAHO DR,REDDING,CA,96003,SHASTA
CA-W-17640,WHISPERING OAKS VINEYARD,WHISPERING OAKS VINEYARD,21259 BARROW RD,REDDING,CA,96002,SHASTA
CA-W-16004,ROBERT S. HOOPER,INTERMOUNTAIN VINEYARDS & WINERY,12230 INTERMOUNTAIN RD,REDDING,CA,96003,SHASTA
CA-W-17515,MARTIN MOSELEY WINES LLC,MOSELEY FAMILY CELLARS,4712 MOUNTAIN LAKES BLVD SUITE 300,REDDING,CA,96003,SHASTA
CA-W-22698,SANDRA MURRAY,CAVE DE ROCHE VINEYARD,28338 S WHIPPOORWILL CIR,SHINGLETOWN,CA,96088,SHASTA
CA-W-3025,MICHAEL S. & DEANNE K. BOEHLERT,LASSEN PEAK WINERY,7878 OAK LN,SHINGLETOWN,CA,96088,SHASTA
CA-W-16943,"DAKARO CELLARS, INC",DAKARO,29464 BIG SPRING RD,WHITMORE,CA,96096,SHASTA
CA-W-23843,CASTERMAN & SONS LLC,CASTERMAN & SONS,115 BEVERLY LN,SIERRAVILLE,CA,96126,SIERRA
CA-W-16423,"SILVER RIDGE VINEYARDS & WINERY, LLC",NORTHERN NOMAD WINERY,413 E FIRST ST,DORRIS,CA,96023,SISKIYOU
CA-W-23972,METHODE SAUVAGE LLC,METHODE SAUVAGE,1415 EASTSIDE RD,ETNA,CA,96027,SISKIYOU
CA-W-3239,G.J. ROGERS AND DIANE G. ROGERS,SHASTA VIEW VINEYARDS,5100 AGER RD,MONTAGUE,CA,96064,SISKIYOU
CA-W-23319,GARY IRVIN,PRIMITIVE WINES,1227 PASO ROBLES ST,PASO ROBLES,CA,93446,SLO
CA-W-20481,"DESPARADA WINES, LLC",DESPARADA,3060 LIMESTONE WAY,PASO ROBLES,CA,93466,SLO
CA-W-17739,"RST CELLARS, LLC",,6496 JONES LN,DIXON,CA,95620,SOLANO
CA-W-5707,"JESS J. JONES, MARY ELLEN JONES",JESS JONES VINEYARD,6496 JONES LN,DIXON,CA,95620,SOLANO
CA-W-23652,SEA-SUN WINERY LLC,SEA SUN VINEYARD,2650 CORDELIA RD,FAIRFIELD,CA,94534,SOLANO
CA-W-15857,"TENBRINK WINERY, LLC",TENBRINK WINERY,4185 CHADBOURNE RD,FAIRFIELD,CA,94534,SOLANO
CA-W-23332,ROSALYND WINERY LLC,,2212 MORRISON LN,FAIRFIELD,CA,94534,SOLANO
CA-W-21921,"ANSELMO FARMS, LLC",,2275 JULIAN LN,FAIRFIELD,CA,94534,SOLANO
CA-W-22892,WRE LLC,SPARROWHAWK CIDER,2482 CORDELIA RD,FAIRFIELD,CA,94534,SOLANO
CA-W-16024,THOMAS R. WEST AND CAROLYN J. WEST,ROCK CREEK VINEYARD,4610 GREEN VALLEY RD,FAIRFIELD,CA,94534,SOLANO
CA-W-22971,EMMOLO RIVER RANCH LLC,EMMOLO,2650 CORDELIA RD,FAIRFIELD,CA,93454,SOLANO
CA-W-16524,"VEZER FAMILY VINEYARDS, LLC",BLUE VICTORIAN VINEYARDS,5071 SUISUN VALLEY RD,FAIRFIELD,CA,94534,SOLANO
CA-W-2439,"LANZA VINEYARDS, INC.",WOODEN VALLEY WINERY,4756 SUISUN VALLEY RD,FAIRFIELD,CA,94534,SOLANO
CA-W-21873,"ROCK WREN WINERY, LLC",ROCK WREN,499 EDISON CT STE B,FAIRFIELD,CA,94534,SOLANO
CA-W-21925,RENEE BALESTRA,R. BALESTRA WINERY,4250 GREEN VALLEY RD,FAIRFIELD,CA,94532,SOLANO
CA-W-15432,"GREEN VALLEY VINTNERS, LLC",G V CELLARS,1635 MASON RD,FAIRFIELD,CA,94534,SOLANO
CA-W-21832,"SOLANO WINE COLLECTIVE, LLC",,499 EDISON CT STE B,FAIRFIELD,CA,94534,SOLANO
CA-W-15688,"VEZER FAMILY VINEYARDS, LLC",VEZER FAMILY VINEYARDS,5066 CLAYTON RD,FAIRFIELD,CA,94534,SOLANO
CA-W-1566,"FRANK-LIN DISTILLERS PRODUCTS, LTD.",FRANK-LIN VINTNERS,2455 HUNTINGTON DR,FAIRFIELD,CA,94533,SOLANO
CA-W-23117,"ROCKVILLE CELLARS, LLC",ROCKVILLE CELLARS,4351 STONEFIELD LANE,FAIRFIELD,CA,94534,SOLANO
CA-W-21997,"BABCOCK VINEYARDS, INC.",SUISUN CREEK WINERY,2434 MORRISON LN,FAIRFIELD,CA,94534,SOLANO
CA-W-21175,PLOUGH FAMILY VINEYARDS LLC,,100 SIEBE DR,FAIRFIELD,CA,94534,SOLANO
CA-W-22366,"SONOMA HARVEST OLIVE OIL & WINERY, LLC",SONOMA HARVEST WINERY,770 CHADBOURNE RD,FAIRFIELD,CA,94533,SOLANO
CA-W-23611,SUISUN CREEK LLC,,2350 MORRISON LN,FAIRFIELD,CA,94534,SOLANO
CA-W-21297,"ARTISAN FAMILY OF WINES, LLC",,4341 ABERNATHY RD,FAIRFIELD,CA,94534,SOLANO
CA-W-23651,BONANZA WINERY LLC,BONANZA,2650 CORDELIA RD,FAIRFIELD,CA,94534,SOLANO
CA-W-17091,"J. EPPLER WINES, LLC",JOHN ROBERT EPPLER WINES,1635 MASON RD,FAIRFIELD,CA,94534,SOLANO
CA-W-22959,"SHERMAN ISLAND, LLC",BELLE VIE VINEYARD,19900 SHERMAN ISLAND CROSSING RD,RIO VISTA,CA,94571,SOLANO
CA-W-15877,"SUNSET CELLARS, LLC",,4495 SUISUN VALLEY RD,SUISUN CITY,CA,94534,SOLANO
CA-W-16776,"MANGELS VINEYARDS, LLC",,2294 MORRISON LN,SUISUN CITY,CA,94534,SOLANO
CA-W-17264,MICHAEL VIRATOS,GORDON VALLEY WINERY,5050 GORDON VALLEY RD,SUISUN CITY,CA,94534,SOLANO
CA-W-17763,MATTHEW S. SMITH,BLACKSMITH CELLARS,4495 SUISUN VALLEY RD,SUISUN CITY,CA,94534,SOLANO
CA-W-16873,GERARDO DONATO IULIANO,LA BORGATA,7539 PLEASANTS VALLEY RD,VACAVILLE,CA,95688,SOLANO
CA-W-2879,VITO ACCARDI,ACCARDI WINERY,7924 TIMM RD,VACAVILLE,CA,95688,SOLANO
CA-W-23722,"CLASSIC WINE VINEGAR COMPANY, INC.","CLASSIC WINE VINEGAR COMPANY, INC",4140 FARM SUPPLY DR,CERES,CA,95307,STANISLAUS
CA-W-579,BRONCO WINE COMPANY,,6342 BYSTRUM RD,CERES,CA,95307,STANISLAUS
CA-W-16706,"G3 ENTERPRISES, INC.",G3 ENTERPRISES,2612 CROWS LANDING RD,MODESTO,CA,95358,STANISLAUS
CA-W-566,E. & J. GALLO WINERY,,600 YOSEMITE BLVD,MODESTO,CA,95354,STANISLAUS
CA-W-3232,"WEND-TYLER WINERY, INC.",WEND-TYLER WINERY,8737 SHOEMAKER AVE,MODESTO,CA,95358,STANISLAUS
CA-W-2972,"MARSHALL ESTATES, LLC",,3142 DUNN RD,MODESTO,CA,95358,STANISLAUS
CA-W-3194,"SILKWOOD WINES, LLC.",SILKWOOD WINES,3006 YOSEMITE BLVD BLDG G,MODESTO,CA,95354,STANISLAUS
CA-W-16688,BLOSSOM HILL LLC,BLOSSOM HILL,"3006 YOSEMITE BLVD BLDG G, SU",MODESTO,CA,95354,STANISLAUS
CA-W-17684,"DEBLYN WINES, INC.",DEBLYN WINES,5821 STODDARD RD,MODESTO,CA,95356,STANISLAUS
CA-W-24036,JOHN GREGORY MARSELLA,MARSELLA FAMILY VINEYARDS,13480 ORANGE BLOSSOM RD,OAKDALE,CA,95361,STANISLAUS
CA-W-16695,"LOS VINEDOS, LLC",,11604 UPPER OAK FLAT RD,PATTERSON,CA,95363,STANISLAUS
CA-W-22276,TAPPED APPLE LLC,,5648 PIRRONE RD,SALIDA,CA,95368,STANISLAUS
CA-W-16745,ANATOLIY TSYMBAL,TSYMBAL WINERY,4231 IDAHO RD,TURLOCK,CA,95380,STANISLAUS
CA-W-17185,REECE E. CORDI AND TERESA M. CORDI,CORDI WINERY,10401 INGRAM LN,LIVE OAK,CA,95953,SUTTER
CA-W-21596,MUNGER FAMILY VINEYARD LLC,,2144 IRWIN AVE,SUTTER,CA,95982,SUTTER
CA-W-23036,NASH'S OLIVE OIL E-Z DOES IT! FARMS L L C,,4822 HOUGHTON AVE,CORNING,CA,96021,TEHAMA
CA-W-2757,"BURNSINI VINEYARDS, LLC",,19535 HAMMERS LN,COTTONWOOD,CA,96022,TEHAMA
CA-W-17705,ANNE HELEN BIANCHI AND RAY ROBERT BIANCHI,BIANCHI ORCHARDS WINERY,10337 HWY 99E,LOS MOLINOS,CA,96055,TEHAMA
CA-W-16342,KNEDLER FAMILY REVOCABLE TRUST,SHASTA DAISY VINEYARD,32055 FORWARD RD,MANTON,CA,96059,TEHAMA
CA-W-16812,JAMES WESLEY LIVINGSTON,CEDAR CREST VINEYARD & WINERY,32505 FORWARD RD,MANTON,CA,96059,TEHAMA
CA-W-22286,MARTIN SMITH,TERMAR VINEYARDS,21716 GRAHAM RD,MANTON,CA,96059,TEHAMA
CA-W-15021,INDIAN PEAK VINEYARDS LLC,,31559 FORWARD RD,MANTON,CA,96059,TEHAMA
CA-W-15763,ALAIN RENEE TEUTSCHMANN,MOUNT TEHAMA WINERY,32165 FORWARD RD,MANTON,CA,96059,TEHAMA
CA-W-23071,VICTORIAN CITY WINERY LLC,,1023 MAIN ST,RED BLUFF,CA,96080,TEHAMA
CA-W-23785,CHARLES SULLIVAN,RAGING BULL VINEYARDS,18850 NEWVILLE RD,ORLAND,CA,95963,TEHAMA COUNTY
CA-W-21823,"NEW CLAIRVAUX VINEYARD, LLC",,26240 7TH ST,VINA,CA,96092,TEHAMA COUNTY
CA-W-21511,LORI A. SILKEY,TUSCAN RIDGE ESTATE WINERY,19260 RIDGE RD,RED BLUFF,CA,96080,TEHEMA
CA-W-21679,DRAFT WINES LLC,CURVY ROADS KEGGED WINES,100 HORSEWATER LN,HAYFORK,CA,96041,TRINITY
CA-W-21498,"SUMMIT CREEK VINEYARDS, LLC",,510 OLIVA DR,HAYFORK,CA,96041,TRINITY
CA-W-3584,ANDREW JON CARINI,CARINI WINERY,342 PEANUT MILL CAMP,HAYFORK,CA,96041,TRINITY
CA-W-16139,MARNI & HARRY JOHN RAPF,BUTTER CREEK RANCH,211 SYDNEY LN,HYAMPOM,CA,96046,TRINITY
CA-W-3394,RAYMOND & ROBIN MERLO,MERLO VINEYARDS,1/2 MI COUNTY ROAD 2 LOWER SOUTHFORK AND,HYAMPOM,CA,96046,TRINITY
CA-W-3447,RANDALL JOHN MEREDITH,MEREDITH FAMILY VINEYARDS,"1 MILE NORTHEAST OF HYAMPOM P. O., END O",HYAMPOM,CA,96046,TRINITY
CA-W-15253,ERNEST L. BELL JR & KRISTEL J. BELL,ONEMAPLE VINEYARD,4271 LEWISTON RD,LEWISTON,CA,96052,TRINITY
CA-W-23002,CAVALETTO VINEYARD ESTATE LLC,CAVALETTO VINEYARD ESTATE,3995 CAMPBELL RIDGE RD,SALYER,CA,95563,TRINITY
CA-W-1275,G. MARK GROVES & KEITH LEE GROVES,ALPEN CELLARS,"6.5 MI. N.E. OF TRINITY CTR.P.O.,ON E. F",TRINITY CENTER,CA,96091,TRINITY
CA-W-23423,"TRINITY COUNTY BREWING COMPANY, LLC",SENESCENCE CIDERS,301 MAIN ST,WEAVERVILLE,CA,96093,TRINITY
CA-W-615,GOLDEN STATE VINTNERS,,38558 ROAD 128,CUTLER,CA,93615,TULARE
CA-W-1830,"BEV-PACK, INC.",,20147 AVENUE 306,EXETER,CA,93221,TULARE
CA-W-2474,CACCIATORE FINE WINES AND OLIVE OIL CORP.,FLEMING WINE,1875 S ELM ST,PIXLEY,CA,93256,TULARE
CA-W-17637,"AREGSUN FARMING COMPANY 2, LLC",,29119 AVENUE 176,PORTERVILLE,CA,93257,TULARE
CA-W-20278,BATTLE MOUNTAIN RANCH LLC,,43940 BATTLE MOUNTAIN DR,SPRINGVILLE,CA,93265,TULARE
CA-W-16704,"MIRABELLA ENTERPRISES, INC.",LAS FLORES WINERY,8281 ROAD 234,TERRA BELLA,CA,93270,TULARE
CA-W-15807,JOHN & MARTHA WOODMANSEE,LA BELLE WINERY,10056 ROAD 264,TERRA BELLA,CA,93270,TULARE
CA-W-16244,"V&C SALES, INC.",BELLA LA VINA FARMS,23294 AVENUE 80,TERRA BELLA,CA,93270,TULARE
CA-W-23163,"MORALES FAMILY EVENT'S, LLC",AGAPE WINERY,8281 ROAD 234,TERRA BELLA,CA,93270,TULARE
CA-W-2500,THE WINE GROUP LLC,FRANZIA/TULARE,1887 N MOONEY BLVD,TULARE,CA,93274,TULARE
CA-W-743,RONALD LEIF ERICKSON,YANKEE HILL WINERY,11755 COARSEGOLD LN,COLUMBIA,CA,95310,TUOLUMNE
CA-W-21377,"YOSEMITE CELLARS, LLC",,12282 PUNCHBOWL RD,GROVELAND,CA,95321,TUOLUMNE
CA-W-22927,KIRK CARROLL,ARTHUR MICHAEL VINEYARDS & WINERY,14670 108 HWY,JAMESTOWN,CA,95327,TUOLUMNE
CA-W-23162,JAMESTOWN VINES LLC,GIANELLI VINEYARDS,12581 ALGERINE RD,JAMESTOWN,CA,95327,TUOLUMNE
CA-W-17286,"SONORA WINERY AND PORT WORKS, LLC",,NOT PROVIDED,SONORA,CA,95370,TUOLUMNE
CA-W-21150,"INNER SANCTUM CELLARS, INC.",,22004 PARROTTS FERRY RD,SONORA,CA,95370,TUOLUMNE
CA-W-22491,JOHN C GRIFFIN,GRIFFIN VINEYARD,14904 POTATO RANCH RD,SONORA,CA,95370,TUOLUMNE
CA-W-17543,"ANGELS FLIGHT WINERY, LLC",ANGELS FLIGHT WINERY,19030 STANDARD RD,SONORA,CA,95370,TUOLUMNE
CA-W-3376,JAMES D. COSTELLO,COSTELLO'S MOUNTAIN BROW WINERY AND VINEYARD,10850 MT BROW RD,SONORA,CA,95370,TUOLUMNE
CA-W-15107,RONALD E. PETERSON,LA BELLA ROSA VINEYARDS,17990 OLD WARDS FERRY RD,SONORA,CA,95370,TUOLUMNE
CA-W-16665,CEDAR RIDGE APPLE RANCH LLC,,14679 SUMMERS LN,SONORA,CA,95370,TUOLUMNE
CA-W-23424,"CALIFORNIA STREET WINERY, LLC",CALIFORNIA STREET WINERY,70211 JOLON RD,BRADLEY,CA,93426,UNITED STATES
CA-W-21937,"JERIKO VINEYARDS, LLC",,12140 HEWLITT & STURTEVANT RD,HOPLAND,CA,95449,UNITED STATES
CA-W-21657,HUDSON BELLAMY WINES LLC,,1633 W CENTRAL AVE STE B,LOMPOC,CA,93436,UNITED STATES
CA-W-22495,VILLA LAURAL FINE WINES,,2620 E FOOTHILL BLVD STE D,PASADENA,CA,91107,UNITED STATES
CA-W-23663,DEFIANCE WINE,DEFIANCE WINE,4230 BUENA VISTA DR,PASO ROBLES,CA,93446,UNITED STATES
CA-W-22584,"OZ FARM, LLC",OZ FARM,41601 MOUNTAIN VIEW RD,POINT ARENA,CA,95468,UNITED STATES
CA-W-20122,ALEXIS VENTURES LLC,RAIL BRIDGE CELLARS,400 N 16TH ST,SACRAMENTO,CA,95811,UNITED STATES
CA-W-21762,"REDWOOD COAST CIDER, LLC",,821 CHERRY LN,SAN CARLOS,CA,94070,UNITED STATES
CA-W-23827,"THE RARE BARREL, LLC",THE RARE BARREL,940 PARKER ST,BERKELEY,CA,94710,USA
CA-W-21014,"ROCKY'S RIDGE VINEYARD,LLC",ROCKY'S RIDGE VINEYARD,22522 STATE HWY 299,BLUE LAKE,CA,95525,USA
CA-W-22143,ALEX J RUSSAN,ALEXANDER JULES,84 INDUSTRIAL WAY UNIT C,BUELLTON,CA,93427,USA
CA-W-23515,NOVA BREWING LLC,NOVA BREWING COMPANY,1580 W SAN BERNARDINO RD UNIT H&I,COVINA,CA,91722,USA
CA-W-23243,"FRENCHTOWN INN, LLC",FRENCHTOWN INN WINERY,9858 FRENCHTOWN DOBBINS RD,DOBBINS,CA,95935,USA
CA-W-22022,BRIAN J WIER,OLD SURVEY WIER VENTURES,16884 OLD SURVEY RD,ESCONDIDO,CA,92025,USA
CA-W-22884,GREEN EARTH LIANG'S INC.,,420 OLD MOUNT RD,FELTON,CA,95018,USA
CA-W-22456,VINOME,,441 HEALDSBURG AVE,HEALDSBURG,CA,95448,USA
CA-W-22385,STELLA HANSEN,RANCHO MARIA FAMILY VINEYARDS,1400 LYTTON SPRINGS RD,HEALDSBURG,CA,95448,USA
CA-W-21417,JAMES WILLEMS,,15958 E ROSE AVE,KINGSBURG,CA,93631,USA
CA-W-22688,WINE RESOURCES LLC,,42257 6TH ST W STE 302,LANCASTER,CA,93534,USA
CA-W-22946,"MOKELUMNE VALLEY PARTNERS, LLC",LSG CELLARS,2 W LOCKEFORD ST,LODI,CA,95240,USA
CA-W-23278,RAMSIN BITMANSOUR,RISING MOON VINEYARDS,14300 ARNERICH RD,LOS GATOS,CA,95032,USA
CA-W-20076,"RADONICH BROS. VINEYARDS, LLC",,25205 APPLE HILL RD,LOS GATOS,CA,95033,USA
CA-W-22549,"MILL CREEK CIDERY, LLC",,1661 CARDINAL DR,MCKINLEYVILLE,CA,95519,USA
CA-W-22532,BOLLINGER CANYON WINERY,,1350 BOLLINGER CANYON RD,MORAGA,CA,94556,USA
CA-W-21500,MAYACAMAS VINEYARDS,,1155 LOKOYA RD,NAPA,CA,94558,USA
CA-W-24004,AVENUE EIGHT LLC,AVENUE 8,1115 LOMA VISTA DR,NAPA,CA,94558,USA
CA-W-21564,"NAPA POINT WINERY, LLC",NAPA POINT WINERY,6155 SOLANO AVE,NAPA,CA,94558,USA
CA-W-22816,"NIGHT WINES, LLC",NIGHT WINES,4326 BIG RANCH RD,NAPA,CA,94558,USA
CA-W-23920,PRIMITIVE WINE LLC,PRIMITIVE WINE,1500 LOS CARNEROS AVE,NAPA,CA,94559,USA
CA-W-22500,"ALPHAWOLF RANCH, LLC",ALPHAWOLF RANCH,3104 E REDWOOD RD E,NAPA,CA,94558,USA
CA-W-22184,"L18 WINES, LLC",TR WINES,2731 & 2747 NAPA VALLEY CORPORATE DR,NAPA,CA,94558,USA
CA-W-22977,ESAYAS EZRA,YENGUSEY WINE,7333 FULTON AVE UNIT 3,NORTH HOLLYWOOD,CA,91605,USA
CA-W-23013,SALAS CELLARS LLC,,1975 N BATAVIA,ORANGE,CA,92865,USA
CA-W-21146,RAFAEL HERNANDEZ,ROLLING HILLS WINERY,4386 WOODROSE DR,OROVILLE,CA,95965,USA
CA-W-22361,MICHAEL RADAKOVICK,ABSENTEE WINES,1227 PASO ROBLES ST,PASO ROBLES,CA,93446,USA
CA-W-20035,"HERMAN STORY WINES, INC",,1227 PASO ROBLES ST,PASO ROBLES,CA,93446,USA
CA-W-21661,"KEOLA, LLC",AARON WINES,3050 LIMESTONE WAY,PASO ROBLES,CA,93446,USA
CA-W-24061,"CAPPELLI FAMILY WINES, LLC","CAPPELLI FAMILY WINES, LLC",484 MAIN ST BLDG,PLACERVILLE,CA,95667,USA
CA-W-21914,"FARQUAR FAMILY WINERY, INC.",FARQUAR FAMILY WINERY,2839 SOUTHERN OAK RD,RAMONA,CA,92065,USA
CA-W-22032,CRYSTAL HILL VINEYARD LLC,CRYSTAL HILL VINEYARD,24067 E OLD JULIAN HWY,RAMONA,CA,92065,USA
CA-W-22357,BACKBONE VINEYARD & WINERY LLC,,1482 INEZ WAY,REDWOOD VALLEY,CA,95470,USA
CA-W-20110,PAUL ROGERVILLE,,1001 WASHINGTON ST,SAN CARLOS,CA,94070,USA
CA-W-22080,"SILVIA CELLARS, LLC",SILVIA CELLARS WINERY,1697 INDUSTRIAL RD,SAN CARLOS,CA,94070,USA
CA-W-21066,"THE SAN FRANCISCO MEAD COMPANY, LLC",THE SAN FRANCISCO MEADERY,1180 SHAFTER AVE,SAN FRANCISCO,CA,94124,USA
CA-W-21364,FRANSON FAMILY WINERY LLC,RANCHO CAPISTRANO WINERY,26755 VERDUGO ST STE 100,SAN JUAN CAPISTRANO,CA,92675,USA
CA-W-23468,BOOZE HOUND MEADERY LLC,,1235 PHOENIX WAY,SAN LEANDRO,CA,94577,USA
CA-W-22574,KALA LIBATIONS LLC,KALA WINES,6705 SONOMA HWY,SANTA ROSA,CA,95409,USA
CA-W-22130,PHILLIP EMERY DUBE,WHIPSMART WINE COMPANY,1160 HOPPER AVE,SANTA ROSA,CA,95403,USA
CA-W-20028,"OLD OAK VINEYARD, INC.",HOUSE FAMILY WINERY,13330 OLD OAK WAY,SARATOGA,CA,95070,USA
CA-W-21770,TWISTED DAISY LLC,TWISTED ROSE,15040 N NORTHSIGHT BLVD STE 104A&B,SCOTTSDALE,CA,85050,USA
CA-W-23700,ROSALIND REYNOLDS WINES LLC,EMME WINES,6780 MCKINLEY ST STE 170,SEBASTOPOL,CA,95472,USA
CA-W-22236,"REICHWAGE WINERY, INC.",,1689 PLEASANT HILL RD,SEBASTOPOL,CA,95472,USA
CA-W-21987,PONDEROSA WINERY LLC,CIELO ESTATE,3046 PONDEROSA RD,SHINGLE SPRINGS,CA,95682,USA
CA-W-23353,"ICON WINES, INC.",HESPERIAN,4105 CHILES POPE VALLEY RD,ST. HELENA,CA,94574,USA
CA-W-21331,PAUL SMITH RAMIRES,,26300 N MOONEY BLVD,TULARE,CA,93274,USA
CA-W-22958,WINSLOWS INC,WINSLOWS FAMILY VINEYARD AND WINERY,1672 E LOS ANGELES AVE,SOMIS,CA,93066,VENTUR
CA-W-17617,RUSTIK ELEMENTS LLC,RUSTIK ELEMENTS,425 CONSTITUTION AVE STE #E & #,CAMARILLO,CA,93012,VENTURA
CA-W-23634,DAMILY LLC,DAMILY,3201 CORTE MALPASO STE 310,CAMARILLO,CA,93012,VENTURA
CA-W-22594,NABOR WINES LLC,DUSTY NABOR WINES,1330 FLYNN RD STE E,CAMARILLO,CA,93012,VENTURA
CA-W-17181,"DESIGNS ON WINE, LLC",SAN VICENTE CELLARS,537 CONSTITUTION AVE SUITE D,CAMARILLO,CA,93012,VENTURA
CA-W-17811,"SANTA MONICA MOUNTAINS FARMSTEAD, LLC",SANTA MONICA MOUNTAINS FARMSTEAD,853 VIA ALONDRA,CAMARILLO,CA,93012,VENTURA
CA-W-15898,"MCB ENTERPRISES, INC.",CANTARA CELLARS,126 N WOOD RD 104,CAMARILLO,CA,93011,VENTURA
CA-W-1210,"THE DAUME WINERY, INC.",THE DAUME WINERY,300 S LEWIS ST UNIT C,CAMARILLO,CA,93012,VENTURA
CA-W-16107,JERRY & KIMBERLY MONAHAN,BELLA VICTORIAN VINEYARD,1735 PANCHO RD,CAMARILLO,CA,93012,VENTURA
CA-W-21900,"BACK PATIO CELLARS, LLC",,930 FLYNN RD UNIT F,CAMARILLO,CA,93012,VENTURA
CA-W-22427,"SSG DIGITAL CONCEPTS, LLC",VIBE WINES,300 S LEWIS RD UNIT C,CAMARILLO,CA,93012,VENTURA
CA-W-2213,"SOLITON, INC.",GIESSINGER WINERY,365 SANTA CLARA ST,FILLMORE,CA,93015,VENTURA
CA-W-23466,"CAVALETTI VINEYARDS, LLC",,165 POINDEXTER AVE UNIT D,MOORPARK,CA,93021,VENTURA
CA-W-15633,GEORGE COLLINS GILPATRICK,RANCHO VENTAVO CELLARS,3046 VENTAVO DR,MOORPARK,CA,93021,VENTURA
CA-W-22556,LUIGI LUCAS & KIMBERLEY LUCAS,LUCAS SELLERS WINE,330 ZACHARY ST UNIT 107/108,MOORPARK,CA,93021,VENTURA
CA-W-23979,ANTHONY STEARNS,HOLDEN ROSE,19 LA CAM RD,NEWBURY PARK,CA,91320,VENTURA
CA-W-22554,THE OJAI VINEYARD INC.,,10540 ENCINO DR,OAK VIEW,CA,93022,VENTURA
CA-W-23655,PACIFIC VIEW VINEYARD & WINERY INC,,10700 SULPHUR MOUNTAIN RD,OJAI,CA,93023,VENTURA
CA-W-21391,SEQUOIA RANCH WINES LLC,TOPA MOUNTAIN WINERY,10065 OJAI SANTA PAULA RD,OJAI,CA,93023,VENTURA
CA-W-21042,"END OF THE ROAD VENTURES, LLC",,300 FAIRVIEW RD,OJAI,CA,93023,VENTURA
CA-W-23018,WALSON HOLLAND LLC,,408 BRYANT CIR STE E,OJAI,CA,93023,VENTURA
CA-W-3534,CASA BARRANCA WINES INC.,,1350 FOOTHILL RD,OJAI,CA,93023,VENTURA
CA-W-21948,MAJESTIC OAK VINEYARD LLC,MAJESTIC OAK,1351 S RICE RD,OJAI,CA,93023,VENTURA
CA-W-21898,SEQUOIA RANCH WINES LLC,TOPA MOUNTAIN WINERY,821 W OJAI AVE,OJAI,CA,93023,VENTURA
CA-W-3440,JOHN M. & MARY S. CUTHBERT,NOBLE OAKS VINEYARD & WINERY,76 OAK ST,OJAI,CA,93023,VENTURA
CA-W-15993,DEWAYNE L. & MARIO J. BOCCALI,BOCCALI VINEYARDS AND WINERY,11675 SANTA PAULA OJAI RD,OJAI,CA,93023,VENTURA
CA-W-16917,"55 DEGREES, INC.",MAGNAVINO CELLARS,961 N RICE AVE SUITE 5,OXNARD,CA,93030,VENTURA
CA-W-21416,"STREY CELLARS, INC.",,951 N RICE AVE,OXNARD,CA,93030,VENTURA
CA-W-15024,ROYAL WINE CORPORATION,HERZOG WINE CELLARS CO.,3201 CAMINO DEL SOL,OXNARD,CA,93030,VENTURA
CA-W-21650,BRUCE NED FREEMAN,SOUTH MOUNTAIN WINERY,20262 S MOUNTAIN RD,SANTA PAULA,CA,93060,VENTURA
CA-W-15012,"KAUTZ VINEYARDS, INC.",KVI-SCRRW,2191 LAGUNA RD STE D,SANTA ROSA,CA,95401,VENTURA
CA-W-16169,EDOUARD ROCCO GIESSINGER,GIESSINGER CELLARS,3059 WILLOW LN,THOUSAND OAKS,CA,91361,VENTURA
CA-W-22270,"DELIESE CELLARS, INC.",DELIESE CELLARS,1850 E THOUSAND OAKS BLVD,THOUSAND OAKS,CA,91362,VENTURA
CA-W-17086,"PANARO BROTHERS WINERY, LLC",PANARO BROTHERS WINERY,4517 MARKET ST UNIT 7,VENTURA,CA,93003,VENTURA
CA-W-23481,TROIS LE FOU LLC,,4522 MARKET ST,VENTURA,CA,93003,VENTURA
CA-W-2286,"SINE QUA NON, INC.",,1750 N VENTURA AVE # 5,VENTURA,CA,93001,VENTURA
CA-W-23225,"BLASON LOUIS USA, INC.",THE GRAND VERRE,2220 EASTMAN AVE UNIT 105,VENTURA,CA,93003,VENTURA
CA-W-21712,"ANDREMILY, INC.",,2476 PALMA DR UNIT G,VENTURA,CA,93003,VENTURA
CA-W-16981,"SQUASHED GRAPES, INC.",,4746 MARKET ST,VENTURA,CA,93003,VENTURA
CA-W-15592,RANDOLPH E. & SUSAN D. SIPLE,THE PIPER'S WINERY,6500 CASITAS PASS RD,VENTURA,CA,93001,VENTURA
CA-W-24065,BALCOM CIDER LLC,BALCOM CANYON CIDER,4464 MCGRATH ST UNIT 110,VENTURA,CA,93003,VENTURA
CA-W-17622,MARLOW D. BARGER & JANIS L. BARGER,PLAN B WINE CELLARS,3520 ARUNDELL CIR UNIT 107-1,VENTURA,CA,93003,VENTURA
CA-W-23066,"LESTER FAMILY CELLARS, LLC",MAXIMUM EFFORT ENTERPRISES,6650 CRESCENT ST UNIT 8,VENTURA,CA,93003,VENTURA
CA-W-17244,MICHAEL MEAGHER & ANITA MEAGHER,VINO V WINES,10024 OLD CREEK RD,VENTURA,CA,93001,VENTURA
CA-W-17488,"SINE QUA NON, INC.",SINE QUA NON,10801 SANTA ANA RD,VENTURA,CA,93001,VENTURA
CA-W-22209,MOLLY AIDA,THE THIRD TWIN,10801 SANTA ANA RD,VENTURA,CA,93001,VENTURA
CA-W-21939,"RINCON MOUNTAIN WINERY, INC.",,6520 CASITAS PASS RD,VENTURA,CA,93001,VENTURA
CA-W-24081,"FERMENTED SCIENCES II, INC.",,3200 GOLF COURSE DR,VENTURA,CA,93003,VENTURA
CA-W-16924,"FOUR BRIX, LLC",FOUR BRIX WINERY,"2290 EASTMAN AVE SUITE 109,",VENTURA,CA,93003,VENTURA
CA-W-17219,"OBLOQUY, INC.",NEXT OF KYN,10801 SANTA ANA RD,VENTURA,CA,93001,VENTURA
CA-W-23807,"VAMPIRE FAMILY BRANDS, LLC",,5757 OLIVAS PARK DR UNIT K,VENTURA,CA,93003,VENTURA
CA-W-17508,GRAPE EXPECTATIONS LLC,THE VILLAGE WINERY,766 LAKEFIELD RD STE G,WESTLAKE VILLAGE,CA,91361,VENTURA
CA-W-15606,"PAMELA S. WELCH, THOMAS FREDERICK",CAPAY VALLEY VINEYARDS,19558 RANCH RD,BROOKS,CA,95606,YOLO
CA-W-21845,SEKA HILLS,,19326 COUNTY ROAD 78,BROOKS,CA,95606,YOLO
CA-W-17697,"MARTIN ARMSTRONG, INC.",TABER RANCH EVENT CENTER,NOT PROVIDED,CAPAY,CA,95607,YOLO
CA-W-17460,"CARVALHO FAMILY WINERY, LLC",CARVALHO FAMILY WINERY,35265 WILLOW AVE 603,CLARKSBURG,CA,95612,YOLO
CA-W-21492,QUINTUM CELLARS LLC,CEDAR SPRINGS,35265 WILLOW AVE,CLARKSBURG,CA,95612,YOLO
CA-W-3591,"CLARKSBURG WINE COMPANY, LLC",CLARKSBURG WINE COMPANY,35265 WILLOW AVE,CLARKSBURG,CA,95612,YOLO
CA-W-22490,"BATIA VINEYARDS, LLC",BATIA VINEYARDS,35265 WILLOW AVE,CLARKSBURG,CA,95612,YOLO
CA-W-21515,JULIETTA WINERY INC,,51221 CLARKSBURG RD,CLARKSBURG,CA,95612,YOLO
CA-W-22685,"OGILVIE MERWIN VENTURES, LLC",OGILVIE MERWIN VINTNERS,35265 WILLOW AVE,CLARKSBURG,CA,95612,YOLO
CA-W-23211,DREADNOUGHT CELLARS LLC,,35265 WILLOW AVE STE 201 & 202,CLARKSBURG,CA,95612,YOLO
CA-W-15769,"HERINGER ESTATES WINERY, LLC",HERINGER ESTATES,37375 NETHERLANDS RD,CLARKSBURG,CA,95612,YOLO
CA-W-908,"BOGLE VINEYARDS, INC.",BOGLE VINEYARDS,49762 HAMILTON RD,CLARKSBURG,CA,95612,YOLO
CA-W-17807,GEORGE NATSIS,S.N.G. WINE WORKS,54250 S RIVER RD,CLARKSBURG,CA,95612,YOLO
CA-W-22560,CLASSY PANTS WINES LLC,KIRCHHOFF FAMILY WINES,40770 WAUKEENA RD,CLARKSBURG,CA,95612,YOLO
CA-W-16757,"M.A.C. WINES, LLC",THREE WINE COMPANY,35265 WILLOW AVE STE 201 & 202,CLARKSBURG,CA,95612,YOLO
CA-W-17539,"SACRAMENTO WINE WORKS, LLC",MINER'S LEAP WINERY,54250 S RIVER RD,CLARKSBURG,CA,95612,YOLO
CA-W-17533,"CLARKSBURG WINERY, INC.",ELEVATION TEN,35265 WILLOW AVE SUITE 104,CLARKSBURG,CA,95612,YOLO
CA-W-20322,LA JOYA INVESTMENTS LLC,RENDEZ-VOUS WINERY,35265 WILLOW AVE,CLARKSBURG,CA,95612,YOLO
CA-W-16741,"DUE VIGNE DI FAMIGLIA, LLC",DUE VIGNE DI FAMIGLIA,35265 WILLOW AVE,CLARKSBURG,CA,95612,YOLO
CA-W-21838,YOCHA DEHE VINEYARDS,,35265 WILLOW AVE,CLARKSBURG,CA,95612,YOLO
CA-W-2786,"RIVER GROVE WINERY, INC.",RIVER GROVE WINERY,52183 CLARKSBURG RD,CLARKSBURG,CA,95612,YOLO
CA-W-15833,TODD TAYLOR WINE GROUP INC.,TODD TAYLOR WINES,35265 WILLOW AVE # 204,CLARKSBURG,CA,95612,YOLO
CA-W-22687,ARENI ONE LLC,SUNDSTROM HILL WINERY,2744 DEL RIO PLACE STE 130,DAVIS,CA,95618,YOLO
CA-W-21220,SENDERS WINES LLC,SENDERS WINES,26891 CADDY CT,DAVIS,CA,95618,YOLO
CA-W-15631,ROMINGER WEST LLC,ROMINGER WEST WINERY,4602 2ND ST STE. 4,DAVIS,CA,95616,YOLO
CA-W-22218,"GILMER CASAZZA FAMILY WINERY, LLC",,34325 CORCORAN HILLS LN,DAVIS,CA,95616,YOLO
CA-W-21510,"GARBA WINE COMPANY, LLC",PUTAH CREEK WINERY,9518 DRUMMOND LN,DAVIS,CA,95618,YOLO
CA-W-23879,UNIVERSITY OF CALIFORNIA,,631 HILGARD LN,DAVIS,CA,95616,YOLO
CA-W-22325,HAARMEYER WINE CELLARS LLC,,610 HARBOR BLVD,WEST SACRAMENTO,CA,95691,YOLO
CA-W-21808,"B AND B WINE COMPANY, LLC.",BAKER FAMILY WINES,2568 INDUSTRIAL BLVD STE 120,WEST SACRAMENTO,CA,95691,YOLO
CA-W-16916,"TURKOVICH FAMILY WINES, LLC",PEEKABOO HILLS WINERY,30471 BUCKEYE RD,WINTERS,CA,95694,YOLO
CA-W-15086,REIKES FARMS LLC,,9420 STEVENSON BRIDGE RD,WINTERS,CA,95694,YOLO
CA-W-1023,WINTERS WINERY,BERRYESSA GAP VINEYARDS,27260 STATE HIGHWAY 128,WINTERS,CA,95694,YOLO
CA-W-15500,JOHN H. ALGER AND LINDA L. ALGER,ALGER VINEYARDS & WINERY,2070 E MAIN ST STE B,WOODLAND,CA,95776,YOLO
CA-W-1037,STERLING CHAYKIN & ELAINE CHAYKIN,SATIETY,40101 COUNTY ROAD 25A,WOODLAND,CA,95776,YOLO
CA-W-23291,JAMES RONALD CAMPBELL,CORKWOOD CELLARS,1524 CORKWOOD PL,WOODLAND,CA,95695,YOLO
CA-W-20563,"QUEEN SHEBA WINERY, LLC",QUEEN SHEBA WINERY,1243 E BEAMER ST,WOODLAND,CA,95776,YOLO
CA-W-2394,ROBERT P. MARR,MARR CELLARS,2070 E MAIN ST STE B,WOODLAND,CA,95776,YOLO
CA-W-16478,"CREW WINE COMPANY, LLC",CREW WINE COMPANY,12300 COUNTY ROAD 92B AVE,ZAMORA,CA,95698,YOLO
CA-W-16540,"RODENBORN ENTERPRISES, LLC",TRYPHON VINEYARDS,15768 MOUNTAIN HOUSE RD,CAMPTONVILLE,CA,95922,YUBA
CA-W-22310,ELIAS HENRY WINES LLC,ELIAS HENRY WINES,15768 MOUNTAIN HOUSE RD,CAMPTONVILLE,CA,95922,YUBA
CA-W-3377,DANIEL ROBERT LUCERO & MARIAN P. LUCERO,OAKS RANCH ENTERPRISES,10654 TEXAS HILL RD,DOBBINS,CA,95935,YUBA
CA-W-23104,AARON AND CARA MOCKRISH,FRENCHTOWN FARMS,12345 RICE'S CROSSING RD,OREGON HOUSE,CA,95962,YUBA
CA-W-15102,"RAMEY SCHULTEN, LLC",RAMEY SCHULTEN,12585 RICES CROSSING ROAD,OREGON HOUSE,CA,95962,YUBA
CA-W-2998,GIDEON BEINSTOCK & SARON RICE,CLOS SARON,9269 COLLIN HOUSE DR,OREGON HOUSE,CA,95962,YUBA
CA-W-832,"RENAISSANCE VINEYARD & WINERY, INCORPORATED",,12585 RICES CROSSING RD,OREGON HOUSE,CA,95962,YUBA
CA-W-22371,MEADE HILL WINERY LLC,,8659 SMARTSVILLE RD,SMARTSVILLE,CA,95977,YUBA
CA-W-22849,"DOUBLE BUCK WINERY , LLC",,3973 SPENCEVILLE RD,WHEATLAND,CA,95692,YUBA
CA-W-16866,FARINHA FAMILY WINERY LLC,CANTE AO VINHO,3065 WINTUN WAY,WHEATLAND,CA,95692,YUBA
CA-W-23205,"LORENZA WINE CO., LLC",LORENZA ROSE',3750 E WOODBRIDGE RD,ACAMPO,CA,95220,
CA-W-22768,"VERTICAL PALATE WINE CO., LLC",,3750 E WOODBRIDGE RD,ACAMPO,CA,95220,
CA-W-22513,"BWSC, LLC",WINC,1525 E JAHANT RD,ACAMPO,CA,95220,
CA-W-22240,"NAKEDWINES.COM, INC.",NAKEDWINES.COM,1525 E JAHANT RD,ACAMPO,CA,95220,
CA-W-21076,CHRISTOPHER MCHUGH,WINEHOUSE VINEYARDS,11929 THELEN RD,AGUA DULCE,CA,91390,
CA-W-22785,REILLY FAMILY VINEYARDS LLC,VEEDER HOUSE,100 NAPA JUNCTION RD,AMERICAN CANYON,CA,94503,
CA-W-23390,"WINERY EXCHANGE, INC.",,205 JIM OSWALT WAY STE A,AMERICAN CANYON,CA,94503,
CA-W-23928,CULLING LLC,CULLING,2901 E MIRALOMA AVE STE 12,ANAHEIM,CA,92806,
CA-W-22457,"PALI WINE COMPANY, L.P.",,500 S ANAHEIM BLVD UNIT C,ANAHEIM,CA,92805,
CA-W-23142,EUGENE E. THERON & JULIETTE THERON,CHARMANT VINEYARDS,800 LARSEN RD,APTOS,CA,95003,
CA-W-21796,"SEPTENTRIO, LLC",SEPTENTRIO WINERY,937 I ST,ARCATA,CA,95521,
CA-W-21894,SANTE ARCANGELI FAMILY WINES LLC,,238 CARPENTERIA RD,AROMAS,CA,95004,
CA-W-21238,"TOLLIVER RANCH BRANDS, LLC",TOOTH AND NAIL WINERY,2195 CORBETT CANYON RD,ARROYO GRANDE,CA,93420,
CA-W-23572,"SMALL BARN WINERY, LLC",SMALL BARN WINERY,3220 EL CAMINO REAL,ATASCADERO,CA,93422,
CA-W-23934,"KLEINLERER WINES, LLC",,1102 6TH ST,BERKELEY,CA,94710,
CA-W-20462,BROC CELLARS LLC,,1300-1310 5TH ST,BERKELEY,CA,94710,
CA-W-23074,OPEN SKY RANCH AND VINEYARDS LLC,,30010 HIGHWAY 299,BLUE LAKE,CA,95525,
CA-W-21439,"JINTA VINEYARDS AND WINERY, LLC",HANNAH NICOLE VINEYARDS,6700 BALFOUR RD,BRENTWOOD,CA,94513,
CA-W-22586,JALOPY WINE COMPANY,,65 LOS PADRES WAY,BUELLTON,CA,93427,
CA-W-22608,ROBERT AND EMILY DAFOE,DOMAINE DAFOE,90 EASY ST,BUELLTON,CA,93460,
CA-W-22064,"BAW, INC.",BLUE APRON WINE,35 & 70 INDUSTRIAL WAY,BUELLTON,CA,93427,
CA-W-21287,"BWSC, LLC",WINC,35 INDUSTRIAL WAY,BUELLTON,CA,93427,
CA-W-21188,CALISTOGA ORTHODOX WINES INC.,,1421 CEDAR ST,CALISTOGA,CA,94515,
CA-W-23258,"LIBELLE WINES, LLC",LIBELLE WINES,255 PETRIFIED FOREST RD,CALISTOGA,CA,94515,
CA-W-22633,TAYLOR BERKLEY BOYDSTUN,T. BERKLEY WINES,4451 ST. HELENA HWY,CALISTOGA,CA,94515,
CA-W-22751,"RIDGETOP PARTNERS, LLC",ASTON ESTATE,1251 TUBBS LN,CALISTOGA,CA,94515,
CA-W-21272,MADRIGAL FAMILY WINERY LLC,MADRIGAL FAMILY WINERY,3718 N SAINT HELENA HWY,CALISTOGA,CA,94515,
CA-W-23152,"KROHAM, LLC",SANT WINES,300 S LEWIS RD,CAMARILLO,CA,93012,
CA-W-20126,"DAVID'S ALE WORKS, INC.",JACK RUSSELL FARM WINERY,2380 LARSEN DR,CAMINO,CA,95709,
CA-W-21975,RICHARD WESTFALL AND DONNA WESTFALL,WESTFALL WINERY,1910 BUCKMAN SPRINGS RD,CAMPO,CA,91906,
CA-W-21160,"GEORIS WINERY, A CALIFORNIA CORPORATION",GEORIS WINERY,18201 CACHAGUA RD,CARMEL VALLEY,CA,93924,
CA-W-22477,"PARSONAGE CELLARS, INC.",,74 E CARMEL VALLEY RD,CARMEL VALLEY,CA,93924,
CA-W-22646,NIKOLAY GONTARYUK,SIRET VINEYARD,8 TRAMPA CYN,CARMEL VALLEY,CA,93924,
CA-W-22899,THE ENDLESS SUMMER WINERY,,18201 CACHAGUA RD,CARMEL VALLEY,CA,93924,
CA-WS-21016,QUETICO LLC,,5610 DANIELS ST,CHINO,CA,91710,
CA-W-22904,"RIVER ROAD CIDER WORKS, LLC",RIVER ROAD CIDER WORKS,53653 S RIVER RD,CLARKSBURG,CA,95612,
CA-W-22622,"HSV, LLC",HIDDEN SPRING VINEYARD,25094 ASTI RD,CLOVERDALE,CA,95425,
CA-W-23792,CU DONA VINEYARD AND WINERY LLC,CU DONA VINEYARD AND WINERY LLC,35100 HWY 128 HWY,CLOVERDALE,CA,95425,
CA-W-23427,MADSON WINES LLC,MADSON WINES,153 LAS COLINAS DR,CORRALITOS,CA,95076,
CA-W-23858,ARDELL HARRISON,DELTA BREEZE WINERY,12749 RIVER RD,COURTLAND,CA,95615,
CA-W-22951,BLACK BICYCLE FARM LLC,BLACK BICYCLE FARM,24800 COUNTY ROAD 101A,DAVIS,CA,95616,
CA-W-23835,S&K BEVERAGE LLC,SOLID GROUND WINERY,552 PLEASANT VALLEY RD,DIAMOND SPRINGS,CA,95619,
CA-W-22699,"BOYLE MACDONALD, LLC",BOYLE MACDONALD WINES,1690 MONGE RANCH RD,DOUGLAS FLAT,CA,95251,
CA-W-22036,ALMENDRA WINERY & DISTILLERY INC.,ALMENDRA WINERY & DISTILLERY,9275 MIDWAY RD,DURHAM,CA,95938,
CA-W-23901,CANTINA ZERILLI LLC,CANTINA ZERILLI,2535 ROYAL SAINT JAMES DR,EL CAJON,CA,92019,
CA-W-22935,JOHN MARTIN ANDERSEN III,ANDERSEN VALLEY,10237 QUAIL CANYON RD,EL CAJON,CA,92021,
CA-W-21647,"EB WINERY, LLC",,934 N COAST HIGHWAY 101,ENCINITAS,CA,92024,
CA-W-23532,"ENGINEERED PORTENTS, LLC",GOOD OMEN MEAD,141 E GRAND AVE,ESCONDIDO,CA,92025,
CA-W-22748,"CHEVAL WINERY, LLC",,2919 HILL VALLEY DR,ESCONDIDO,CA,92029,
CA-W-21340,ZINFANDEL CONCEPTS INC,BK CELLARS,2225 BARHAM DR UNIT D,ESCONDIDO,CA,92029,
CA-W-21126,"BAIOCCHI FAMILY VINEYARDS, LLC",BAIOCCHI,8054 FAIRPLAY RD,FAIR PLAY,CA,95684,
CA-W-23015,CAYMUS VINEYARDS,,2650 CORDELIA RD,FAIRFIELD,CA,94534,
CA-W-23086,"MPL BRANDS, INC.",,2455 HUNTINGTON DR,FAIRFIELD,CA,94533,
CA-W-23058,MER ET SOLEIL LLC,,2650 CORDELIA RD,FAIRFIELD,CA,94534,
CA-W-23105,"TREANA WINERY, LLC",,2650 CORDELIA RD,FAIRFIELD,CA,94534,
CA-W-23007,"CONUNDRUM WINERY, LLC",,2650 CORDELIA RD,FAIRFIELD,CA,94534,
CA-W-22558,CORDELIA WINERY LLC,,2650 CORDELIA RD,FAIRFIELD,CA,94534,
CA-W-23124,HARVEST DUHIG,HSJ DUHIG FAMILY VINEYARD,2650 CORDELIA RD,FAIRFIELD,CA,94534,
CA-W-23437,MONSERATE WINERY INC.,MONSERATE WINERY,2757 GIRD RD,FALLBROOK,CA,92028,
CA-W-21602,2M3YS LLC,LE MULET ROUGE VINEYARD & WINERY,16915 RED MULE RD,FIDDLETOWN,CA,95629,
CA-W-22438,"PITSNOGLED CIDERY, LLC",,501 OAKDALE ST,FOLSOM,CA,95630,
CA-W-21162,"WILDE FARM WINES, LLC",WILDE FARM WINES,6450 FIRST ST UNIT DFKL,FORESTVILLE,CA,95436,
CA-W-21172,SEAN HALEY THACKREY,THACKREY & CO,6450 FIRST ST UNIT DFKL,FORESTVILLE,CA,95436,
CA-W-20470,"MORAVIA WINES, LLC",,3620 N BISHOP,FRESNO,CA,93723,
CA-W-23009,"HANFORD RANCH WINERY, INC",,13200 LOLL RD,GALT,CA,95632,
CA-W-21745,HONEST ABE CIDERY LLC,,17800 S MAIN ST STE 105,GARDENA,CA,90248,
CA-W-20388,"TWO BARTOLOMEIS, LLC",LOST & FOUND WINE,18850 HASSETT LN,GEYSERVILLE,CA,95441,
CA-W-22963,"TRENTADUE WINERY, LLC",TRENTADUE WINERY,19170 GEYSERVILLE AVE,GEYSERVILLE,CA,95441,
CA-W-22349,"BAW, INC.",BLUE APRON WINE,4001 HIGHWAY 128,GEYSERVILLE,CA,95441,
CA-W-23977,E. & J. GALLO WINERY,CLOS DU BOIS WINERY,19410 GEYSERVILLE AVE,GEYSERVILLE,CA,95441,
CA-W-21840,BENNETT VALLEY VINEYARD & WINERY INC.,SIMPATICO WINE COMPANY,4001 HIGHWAY 128,GEYSERVILLE,CA,95441,
CA-W-21986,KATOA CELLARS LLC,KATOA CELLARS,14556 POWERLINE RD,GRASS VALLEY,CA,95945,
CA-W-22255,"L18 WINES, LLC",TR WINES/LOT18/TASTING ROOM,1972 HOBSON AVE,GREENFIELD,CA,93927,
CA-W-23764,MADONNA CREEK AG CORP,LA NEBBIA WINERY,12341 SAN MATEO RD,HALF MOON BAY,CA,94019,
CA-W-21490,JOHN L. OLIVAS,RANCHO NOTSO GRANDE,5051 12TH AVE,HANFORD,CA,93230,
CA-W-21965,"PENROSE HILL, LIMITED",PENROSE HILL,499 MOORE LN,HEALDSBURG,CA,95448,
CA-W-23392,"RED BARN WINE PARTNERS, LLC",,1430 GROVE ST,HEALDSBURG,CA,95448,
CA-W-22844,"WINESHARK EMPIRE, INC.",CLOUD NO.9,499 MOORE LN,HEALDSBURG,CA,95448,
CA-W-22607,"DAN COHN WINE CELLARS, LLC",,499 MOORE LN,HEALDSBURG,CA,95448,
CA-W-22734,"BYMOFO, LLC",SUSIE BYNUM WINES,101 GRANT AVE UNIT F & G,HEALDSBURG,CA,95448,
CA-W-23175,PARADISE RIDGE WINERY,,435 W DRY CREEK RD,HEALDSBURG,CA,95448,
CA-W-21305,"SWALLOWFORK, LLC",SWALLOWFORK,2859 DRY CREEK RD,HEALDSBURG,CA,95448,
CA-W-20168,"PINE RIDGE WINERY, LLC",SEGHESIO FAMILY VINEYARDS,700 GROVE ST,HEALDSBURG,CA,95448,
CA-W-22600,"LIMERICK LANE CELLARS, INC.",,1023 LIMERICK LN,HEALDSBURG,CA,95448,
CA-W-21810,"LION NATHAN USA, INC.",MACROSTIE WINERY,4605 WESTSIDE RD,HEALDSBURG,CA,95448,
CA-W-21830,"COMSTOCK WINES, LLC",COMSTOCK WINES,1290 DRY CREEK RD,HEALDSBURG,CA,95448,
CA-W-22086,"PAT WINES, LLC",PIED A TERRE WINES,2859 DRY CREEK RD,HEALDSBURG,CA,94558,
CA-W-22376,"BAW, INC.",BLUE APRON WINE,499 MOORE LN,HEALDSBURG,CA,95448,
CA-W-22295,"DRAXTON WINE STORAGE, LLC",DRAXTON WINE STORAGE,1431 GROVE ST UNIT A & B,HEALDSBURG,CA,95448,
CA-W-22368,"BALDASSARI FAMILY WINES, INC.",,1290 DRY CREEK RD,HEALDSBURG,CA,95448,
CA-W-21063,"ECO VINO, INC.",ECO VINO,14100 MOUNTAIN HOUSE RD,HOPLAND,CA,95449,
CA-W-21060,SHOREACRE WINES LLC,SHOREACRE WINES,14100 MOUNTAIN HOUSE RD,HOPLAND,CA,95449,
CA-W-21037,"NAKEDWINES.COM, INC.",NAKEDWINES.COM,8450 SONOMA HWY,KENWOOD,CA,95452,
CA-W-21812,PERNOD RICARD KENWOOD HOLDING LLC,KENWOOD VINEYARDS,9592 SONOMA HWY,KENWOOD,CA,95452,
CA-W-23771,SHIFT WINE LLC,WINE SNOB*,10200 SONOMA HWY,KENWOOD,CA,95452,
CA-W-23937,"WARROOM VENTURES, LLC",WARROOM CELLARS,1010 INDUSTRIAL WAY,KING CITY,CA,93930,
CA-W-23643,FOOLS CRAFT CIDER LLC,FOOLS CRAFT CIDER,1332 DRAPER ST STE H,KINGSBURG,CA,93631,
CA-W-21026,"NEWBERRY ESTATE VINEYARDS, LLC",NEWBERRY ESTATE VINEYARDS,2525 SUNSET RD,KNIGHTSEN,CA,94513,
CA-W-22398,TREVI HILLS WINERY LLC,,13010 MUTH VALLEY RD,LAKESIDE,CA,92040,
CA-W-23027,NICOLE STEPHENS LLC,STEPHEN HEMMERT WINES,44732 YUCCA AVE,LANCASTER,CA,93534,
CA-W-23130,L & B FARMS LLC,VINA SIERRA WINERY,23797 AVE 324,LEMON COVE,CA,93244,
CA-W-22363,"WISE WINE VENTURES, LLC",ARROYO CELLARS,2270 RESEARCH DR,LIVERMORE,CA,94550,
CA-W-21669,"STONUM VINEYARDS, INC.",STONUM VINEYARDS,16388 N ALPINE RD,LODI,CA,95240,
CA-W-23978,E. & J. GALLO WINERY,TURNER ROAD VINTNERS,4614 W TURNER RD,LODI,CA,95242,
CA-W-21609,"TANNER SALIMBENI, LLC",,1376 E TURNER RD,LODI,CA,95240,
CA-W-21442,"D'ART WINES, INC.",D'ART WINES,13299 N CURRY AVE,LODI,CA,95240,
CA-W-21151,TWISTED ROOTS WINE LLC,,2 W LOCKEFORD ST,LODI,CA,95240,
CA-W-23143,"ESSER WINES, LLC",,"25 27, 29, 31 E VINE ST",LODI,CA,95240,
CA-W-23000,"SPECTRA VINO, LLC",SPECTRA VINO,2 W LOCKEFORD ST,LODI,CA,95240,
CA-W-22223,BURCH STEINER BEVERAGE GROUP,,5573 W WOODBRIDGE RD,LODI,CA,95242,
CA-W-23908,"GOLDSTONE LAND COMPANY, LLC",,5573 W WOODBRIDGE RD,LODI,CA,95242,
CA-W-23870,"JAM CELLARS, INC.",JAM CELLARS,6100 E VICTOR RD,LODI,CA,95240,
CA-W-23925,"SHADY CREEK VINEYARD, LLC",SHADY CREEK WINERY,2 W LOCKEFORD AND 9 1/2 A LOCUST ST,LODI,CA,95240,
CA-W-24057,"NAKEDWINES.COM, INC.",NAKEDWINES.COM,5573 W WOODBRIDGE RD,LODI,CA,95242,
CA-W-23768,"AVID, INC.",NEW WORLD WINE GROUP,27 E VINE ST,LODI,CA,95240,
CA-W-23765,TRIPP WINES LLC,TRIPP WINES LLC,321 N D ST,LOMPOC,CA,93436,
CA-W-21083,"ANHEUSER-BUSCH, LLC",,15800 ROSCOE BLVD,LOS ANGELES,CA,91406,
CA-W-22515,"SHELTER DISTILLING, INC.",SHELTER CIDERY,100 CANYON BLVD STE 217,MAMMOTH LAKES,CA,93546,
CA-W-21672,SINECURE WINE LLC,,3344 PAUL DAVIS DR STE 2,MARINA,CA,93933,
CA-W-23520,RED LAB LLC,,4950 JOHN MUIR RD,MARTINEZ,CA,94553,
CA-W-22542,"TENFIVEONE CIDER CO, LLC",,17635 HILL RD,MORGAN HILL,CA,95037,
CA-W-23813,TERAH WINE COMPANY LLC,TERAH WINE CO,17007 HEATHERWOOD WAY,MORGAN HILL,CA,95037,
CA-W-21658,"RORICK WINE COMPANY, LLC",,2690 SAN DOMINGO RD,MURPHYS,CA,95247,
CA-W-21834,"SANTA RAMONA VINEYARDS, LLC",,37925 AVENIDA LA CRESTA,MURRIETA,CA,92562,
CA-W-22259,"REDWOOD COUNTRY WINES, LLC",,16370 DYERVILLE LOOP RD,MYERS FLAT,CA,95554,
CA-W-23799,VSWC LLC,FAR MOUNTAIN,1221 DUHIG RD,NAPA,CA,94559,
CA-W-23490,HOOPES VINEYARD LLC,HOOPES VINEYARD,6204 WASHINGTON ST,NAPA,CA,94558,
CA-W-21552,"PROVIDE COMMERCE, INC.",PROVIDE COMMERCE WINERY,110 CAMINO ORUGA UNIT 110-122,NAPA,CA,94558,
CA-W-20503,"CROSBY ROAMANN, LLC",CROSBY ROAMANN,45 ENTERPRISE CT UNIT 6,NAPA,CA,94558,
CA-W-23919,VSWC LLC,FAR MOUNTAIN WINERY,1500 LOS CARNEROS AVE,NAPA,CA,94559,
CA-W-17566,"BLACK CORDON VINEYARD, LLC",BLACK CORDON VINEYARDS,3148 SODA CANYON RD,NAPA,CA,94558,
CA-W-21678,"TURLEY WINE CELLARS, INC.",TURLEY WINE CELLARS,2747 NAPA VALLEY CORPORATE DR,NAPA,CA,94558,
CA-W-23931,"1-800-WINESHOP.COM, INC.",WINESHOP AT HOME,918 ENTERPRISE WAY STE G & I,NAPA,CA,94558,
CA-W-23620,GEN V LLC,SERRES RANCH WINE,110 122 CAMINO ORUGA,NAPA,CA,94558,
CA-W-21533,"DRIFTWOOD RACES, LLC",,1115 LOMA VISTA DRIVE,NAPA,CA,94558,
CA-W-23196,"SLO DOWN WINES, LLC",SLO DOWN WINES,2731 & 2747 NAPA VALLEY CORPORATE DR,NAPA,CA,94558,
CA-W-23324,ESTEE HILL VINEYARD LLC,,1103 4TH AVE,NAPA,CA,94559,
CA-W-23513,VITUS WINE GROUP,VITUS WINE GROUP,2731 AND 2747 NAPA VALLEY CORPORATE DR,NAPA,CA,94558,
CA-W-22451,ROBERT SCHERMEISTER,SCHERMEISTER CELLARS,5055 SOLANO AVE,NAPA,CA,94559,
CA-W-22877,BALE'S CREEK LLC,BALE'S CREEK WINERY,360 ZINFANDEL LN,NAPA,CA,94574,
CA-W-22732,"601 CELLARS, LLC",601 CELLARS,2545 NAPA VALLEY CORPORATE DR STE C,NAPA,CA,94558,
CA-W-22523,"ARTISAN DISTRIBUTING, LLC",ARTISAN DISTRIBUTING,918 ENTERPRISE WAY STE G & I,NAPA,CA,94558,
CA-W-23172,AARON ROBINSON,VANDELLA,6520 GORDON VALLEY RD,NAPA,CA,94558,
CA-W-21474,HOMEFIRE OF SONOMA LLC,,918 ENTERPRISE WAY STE G,NAPA,CA,94558,
CA-W-22966,"KEPLINGER WINES, LLC",KEPLINGER WINES,1221 DUHIG RD,NAPA,CA,94558,
CA-W-23181,SHIFFLETT RANCH & VINEYARD LLC,,1201 DARMS LN,NAPA,CA,94558,
CA-W-22663,KRUPP BROTHERS LLC,KRUPP BROTHERS,1094 HARDMAN AVE,NAPA,CA,94558,
CA-W-22561,"JAM CELLARS, INC.",JAM CELLARS,2545 NAPA VALLEY CORPORATE DR STE C,NAPA,CA,94558,
CA-W-23219,"HEMISPHERES, LLC",,520 AIRPARK RD,NAPA,CA,94558,
CA-W-22128,"DOWN BY LAW, LLC",DOWN BY LAW WINES,2747 NAPA VALLEY CORPORATE DR,NAPA,CA,94558,
CA-W-22204,"MOONE FAMILY VINEYARD, LLC",MOONE ONE THOUSAND VINES,2921 SILVERADO TRL,NAPA,CA,94558,
CA-W-22163,"L18 WINES, LLC",TR WINES,2545 NAPA VALLEY CORPORATE DR STE C,NAPA,CA,94558,
CA-W-23131,CRANE FAMILY VINEYARDS,,5055 SOLANO AVE,NAPA,CA,94558,
CA-W-22104,"BLACK CAT VINEYARD, LLC",BLACK CAT VINEYARD,194 CAMINO ORUGA STE 17-20,NAPA,CA,94558,
CA-W-22864,"MAISON D' AMIS, LLC",,110 CAMINO ORUGA,NAPA,CA,94558,
CA-W-23696,PASS WINES LLC,PASS WINES,2222 N THIRD AVE,NAPA,CA,94558,
CA-W-22191,"WOODSON WINES, LLC",CHARLES WOODSON WINES,901 ENTERPRISE WAY STE C & D,NAPA,CA,94558,
CA-W-23904,"WINERY EXCHANGE, INC.",,3105 SILVERADO TRL,NAPA,CA,94558,
CA-W-24024,"NAKEDWINES.COM, INC.",NAKEDWINES.COM,918 ENTERPRISE WAY STE G & I,NAPA,CA,94558,
CA-W-21117,"RIPE PEAK WINERY, LLC",RIPE PEAK WINERY,4088 ATLAS PEAK RD,NAPA,CA,94558,
CA-W-23983,THE WINE NOIRE LLC,,"45 ENTERPRISE CT UNIT 1-4,7",NAPA,CA,94558,
CA-W-21586,OLSEN PERRI WINES LLC,,100 W 35TH ST STE M,NATIONAL CITY,CA,91950,
CA-W-23505,ARQUILS LTD. LIABILITY CO.,ARQUILES,11760 CEMENT HILL RD,NEVADA CITY,CA,95959,
CA-W-22578,RICHARD WILES AND PEGGY WILES,WILES WINERY,10886 ENCINO DR,OAK VIEW,CA,93022,
CA-W-22651,FAETHM INC,FINGERS CROSSED,82 W CATALINA DR,OAK VIEW,CA,93022,
CA-W-21956,"OCRW, INC.",THE OLD CREEK RANCH WINERY,10024 OLD CREEK RD,OAK VIEW,CA,93022,
CA-W-24022,THE?ALIXIR?COMPANY,THE ALIXIR COMPANY,7830 ST HELENA HWY,OAKVILLE,CA,94562,
CA-W-21543,"FN CELLARS, LLC",,8164 ST. HELENA HWY,OAKVILLE,CA,94562,
CA-W-21555,"FN CELLARS, LLC",FAR NIENTE WINE ESTATES,1350 ACACIA DR,OAKVILLE,CA,94562,
CA-W-23482,HOOPES VINEYARD LLC,HOOPES VINEYARD & WINERY,7830 -40 ST. HELENA HWY STE 34,OAKVILLE,CA,94562,
CA-W-23701,NICHE DOCTORS LLC,YOONIT,7830-40 ST. HELENA HWY,OAKVILLE,CA,94562,
CA-W-23742,SPARC LLC,SIPWELL WINE COMPANY,4089 OCEANSIDE BLVD STE H,OCEANSIDE,CA,92056,
CA-W-23425,STEVEN MICHALISZYN,PROPAGANDA WINES,3229 ROYMAR RD,OCEANSIDE,CA,92058,
CA-W-23210,"COOMBER CRAFT WINES OCEANSIDE, INC.",,611 MISSION AVE,OCEANSIDE,CA,92054,
CA-W-23872,TIPSY AFTERNOON VINEYARDS LLC,,72 QUAIL HILL PL,OROVILLE,CA,95966,
CA-W-22517,TIMOTHY HAROLD CALVERT,LEE RANCH CIDER COMPANY,2050 SUNSET DR,PACIFIC GROVE,CA,93950,
CA-W-22450,"OLD 44 VINTNERS, LLC",OLD 44 CELLARS,23088 OLD 44 DR,PALO CEDRO,CA,96073,
CA-W-21131,"IN WINE, INC.",OLD OAK CELLARS,2620 E FOOTHILL BLVD UNIT #D,PASADENA,CA,91107,
CA-W-21236,"LIVE AREA, LLC",LXV WINE,2910 LIMESTONE WAY,PASO ROBLES,CA,93446,
CA-W-21409,"FOUR LANTERNS, INC.",,2485 W HWY. 46,PASO ROBLES,CA,93446,
CA-W-21260,"BRECON ESTATE, INC.",,7450 VINEYARD DR,PASO ROBLES,CA,93446,
CA-W-21156,TWO MOONS CELLARS INC,TWO MOONS CELLARS,2490 RAMADA DR,PASO ROBLES,CA,93446,
CA-W-16960,"FRISBY CELLARS, INC.",FRISBY CELLARS,2910 LIMESTONE WAY,PASO ROBLES,CA,93446,
CA-W-23305,"ULTIMA TULIE WINES, LLC",ULTIMA TULIE WINES,1227 PASO ROBLES ST,PASO ROBLES,CA,93446,
CA-W-23370,A. ZANINOVICH ENTERPRISES LLC,TLO WINES,2910 LIMESTONE WAY,PASO ROBLES,CA,93446,
CA-W-22696,BENOM WINES INC.,BENOM WINES,2959 LIMESTONE WAY,PASO ROBLES,CA,93446,
CA-W-22553,"SOLENE, INC.",CLOS SOLENE,2040 NIDERER RD,PASO ROBLES,CA,93446,
CA-W-22658,"MOSHINA, INC",LAZARRE WINES,4230 BUENA VISTA DR,PASO ROBLES,CA,93446,
CA-W-22955,"CMAC PROPERTIES, LLC",FULLDRAW VINEYARD,2660 ANDERSON RD,PASO ROBLES,CA,93446,
CA-W-22049,JENIFER BARTZ,LAST SUMMER...,460 MARQUITA AVE UNIT B,PASO ROBLES,CA,93446,
CA-W-22153,"SURREAL CIDER, LLC",JEAN MARIE CIDERY,3230 RIVERSIDE AVE UNIT 190,PASO ROBLES,CA,93446,
CA-W-23961,PURE PASO LLC,,6380 VISTA DE ROBLES PL,PASO ROBLES,CA,93446,
CA-W-23836,SLAMDANCE KOOPERATIEVE WINES LIMITED LIABILITY CO.,SLAMDANCE KO?PERATIEVE WINES,8355 VINEYARD DR,PASO ROBLES,CA,93446,
CA-W-21746,"WINES THAT DELIVER, LLC",PAYDIRT,2323 TULEY RD STE 110,PASO ROBLES,CA,93446,
CA-W-22665,"ULTRAMARINE WINES, LLC",,1240 HOLM RD STE B,PETALUMA,CA,94954,
CA-W-21237,SUPER PINOT LLC,HARMONIQUE WINE,3155 128 HWY,PHILO,CA,95466,
CA-W-21278,"HART 2 HART, LLC",HART 2 HART VINEYARDS,5821 STATE HIGHWAY 49,PILOT HILL,CA,95664,
CA-W-21594,"GOLD HILL VINEYARD AND BREWERY, INC.",GOLD HILL VINEYARD,5660 VINEYARD LN,PLACERVILLE,CA,95667,
CA-W-21013,ANTHONY & SHARLENE SCOTT,RANCHO DE AMOR VINEYARD AND WINERY,5241 NASHVILLE TRAIL,PLACERVILLE,CA,95667,
CA-W-23462,8 MILLENNIUMS LLC,STORY WINERY,10525 BELL RD,PLYMOUTH,CA,95669,
CA-W-21760,"RANCHO VICTORIA VINEYARD, LLC",RANCHO VICTORIA VINEYARD,16920 GREILICH RD,PLYMOUTH,CA,95669,
CA-W-22860,PAUL J WINES LLC,,10775 SHENANDOAH RD,PLYMOUTH,CA,95669,
CA-W-22329,"NEELY WINE, LLC",NEELY WINE,555 PORTOLA RD,PORTOLA VALLEY,CA,94028,
CA-W-23708,SKY VALLEY CELLARS LLC,SKY VALLEY CELLARS,16729 SKY VALLEY DR,RAMONA,CA,92065,
CA-W-21350,"CASTELLIFV, LLC",,17872 OAK GROVE RD,RAMONA,CA,92065,
CA-W-21573,"LA FINQUITA WINERY & VINEYARD, INC.",,23123 VISTA RAMONA RD,RAMONA,CA,92065,
CA-W-20363,THOMAS JOSEPH CASSIDY,MAGNOLIA ESTATE VINEYARDS,1007 MAGNOLIA AVE,RAMONA,CA,92065,
CA-W-23076,MERMAID VALLEY VINEYARD LLC,,18420 HIGHLAND VALLEY RD,RAMONA,CA,92065,
CA-W-21877,DENISE AWREY AND MICHAEL AWREY,GHOST HORSE VINEYARD,828 PILE ST,RAMONA,CA,92065,
CA-W-22041,ALCHEMY VINES LTD LIABILITY CO,ALCHEMY VINES,16923 HIGHLAND VALLEY RD,RAMONA,CA,92065,
CA-W-23954,"FRISBY CELLARS, INC.",FRISBY WINERY,28446 AIROSO ST. STE. 28522 & 28526,RANCHO MISSION VIEJO,CA,92694,
CA-W-21624,"BRICELAND VINEYARDS, LLC",BRICELAND VINEYARDS,5959 BRICELAND RD,REDWAY,CA,95560,
CA-W-23784,DILETTANTE WINE LLC,DILETTANTE WINE,1401 MARINA WAY S 280,RICHMOND,CA,94804,
CA-W-23969,MOUNTAIN MISERY WINE,MOUNTAIN MISERY WINE,1401 S MARINA WAY S STE 280,RICHMOND,CA,94804,
CA-W-23970,IAN MCCARTHY,ARTEMIS BOTANICAL,1401 S MARINA WAY UNIT 280,RICHMOND,CA,94804,
CA-W-21179,"NICKEL & NICKEL VINEYARDS, L.L.C.",ENROUTE WINERY,1315 BELLA OAKS LN,RUTHERFORD,CA,94573,
CA-W-23101,"EMMOLO RIVER RANCH, LLC",,8700 CONN CREEK RD,RUTHERFORD,CA,94573,
CA-W-22293,TREASURY WINE ESTATES AMERICAS COMPANY,BEAULIEU VINEYARD,1960 SAINT HELENA HWY,RUTHERFORD,CA,94573,
CA-W-21542,"FN CELLARS, LLC",,1315 BELLA OAKS LN,RUTHERFORD,CA,94573,
CA-W-22292,TREASURY WINE ESTATES AMERICAS COMPANY,PROVENANCE VINEYARDS,1695 SAINT HELENA HWY,RUTHERFORD,CA,94573,
CA-W-23830,TANK SPACE,TANK SPACE,1390 VINCI AVE BLDG A,SACRAMENTO,CA,95838,
CA-W-24016,WILD LEAF HOLDINGS US LLC,,"834 STRIKER AVE., SUITE D & E",SACRAMENTO,CA,95834,
CA-W-23350,HAYFORK WINE COMPANY LLC,HAYFORK WINE COMPANY,2820 SAINT HELENA HWY N,SAINT HELENA,CA,94574,
CA-W-22938,"TRIUMVIRATE KY, LLC",,3730 SILVERADO TRL,SAINT HELENA,CA,94574,
CA-W-22929,SUZANNE LLC,BELLA OAKS,588 ZINFANDEL LN,SAINT HELENA,CA,94574,
CA-W-23737,"MONTGOMERY VINEYARD, INC.",MONTGOMERY VINEYARD,3125 N SAINT HELENA HWY,SAINT HELENA,CA,94574,
CA-W-23809,"REN ACQUISITION, INC.",,500 MEADOWOOD LN,SAINT HELENA,CA,94574,
CA-W-23932,"SLJ GROUP, INC.",LIONSTONE INTERNATIONAL,849 ZINFANDEL LN,SAINT HELENA,CA,94574,
CA-W-24001,"STRATUS WINE & SPIRITS, LLC",1849,849 ZINFANDEL LN,SAINT HELENA,CA,94574,
CA-W-21825,"SOUTH CITY CIDERWORKS, LLC",SOUTH CITY CIDERWORKS,1236 MONTGOMERY AVE,SAN BRUNO,CA,94066,
CA-W-21476,"COMARTIN CELLARS, INC.",COMARTIN CELLARS,1697 INDUSTRIAL RD,SAN CARLOS,CA,94070,
CA-W-21644,"ABNORMAL COMPANY, INC.",ABNORMAL WINE COMPANY,16990 VIA TAZON STE 123,SAN DIEGO,CA,92127,
CA-W-22527,"LOST CAUSE MEADERY, LLC",LOST CAUSE MEADERY,8665 MIRALANI DR STE 100,SAN DIEGO,CA,92126,
CA-W-20064,TODD STUART HIPPER,SAN DIEGO CELLARS,2215 KETTNER BLVD,SAN DIEGO,CA,92101,
CA-W-22475,THOUSAND PETAL ENTERPRISES LLC,THOUSAND PETAL ENTERPRISES,4901 MORENA BLVD STE 320,SAN DIEGO,CA,92117,
CA-W-22330,"CRAFTWURX, LLC",NEWTOPIA CYDER,10045 CARROLL CANYON RD STE A,SAN DIEGO,CA,92131,
CA-W-21776,MATTHEW RICHARDS,MATTHEW RICHARDS CELLARS,1466 F ST,SAN DIEGO,CA,92101,
CA-W-21396,KYLE ROEMER AND SAMANTHA ROEMER,NICHOLAS & RAE WINERY,2455 THIRD ST,SAN FRANCISCO,CA,94107,
CA-W-23922,OTTAVINO WINES LLC,,495 BARNEVELD AVE,SAN FRANCISCO,CA,94124,
CA-W-22828,"SURFACE AREA, LLC",WOODS BEER CO.,422 CLIPPER COVE WAY,SAN FRANCISCO,CA,94130,
CA-W-21516,WEBSTER GRANGER MARQUEZ,PEDRO GOMEZ INDUSTRIES,53 BLUXOME ST,SAN FRANCISCO,CA,94107,
CA-W-21912,PHILIP C. BOWERS,CB WINE CELLARS,1225 MINNESOTA ST,SAN FRANCISCO,CA,94107,
CA-W-21933,PHILIP CUADRA,HIGHLAWN WINE COMPANY,540 BARNEVELD AVE STE K & L,SAN FRANCISCO,CA,94124,
CA-W-24051,"ALAMITOS VINEYARDS, INC.",ALAMITOS VINEYARDS,23505 ALAMITOS RD,SAN JOSE,CA,95120,
CA-W-22503,"LA FLEUR'S WINERY, LLC",LA FLEUR'S WINERY,215 S PACIFIC ST STE 106,SAN MARCOS,CA,92078,
CA-W-23707,JASON ROBIDEAUX,HAMDOG WINE COMPANY,1 HUMMINGBIRD LN,SAN MARTIN,CA,95046,
CA-W-22615,"SAN MIGUEL WINEWORKS, INC.",LOCATELLI WINERY,8585 CROSS CANYONS RD,SAN MIGUEL,CA,93451,
CA-W-21403,"MARKETSPHERE, INC.",VINO VARGAS,950 INDIAN DUNES RD,SAN MIGUEL,CA,93451,
CA-W-21410,JOHN LLOYD RITCHEY IV,BOTTLE JACK CELLARS,1088 LA MADRONA DR,SANTA CRUZ,CA,95060,
CA-W-21964,WALSH WINE LLC,SER,427 C SWIFT ST,SANTA CRUZ,CA,95060,
CA-W-23421,"GRIMM CELLARS, LLC",GRIMM'S BLUFF,5069 PRESQUILE DR,SANTA MARIA,CA,93455,
CA-W-22501,"CATALYST THREE, LLC",POINT & LINE WINES,2705 & 2717 AVIATION WAY,SANTA MARIA,CA,93455,
CA-W-22654,TYLER ECK,DUNITES WINE CO,2643 INDUSTRIAL PKWY,SANTA MARIA,CA,93455,
CA-W-24073,"NAKEDWINES.COM, INC.",NAKEDWINES.COM,2705 & 2717 AVIATION WAY,SANTA MARIA,CA,93455,
CA-W-23766,AME WINE COMPANY,?MEVIVE,2705 & 2717 AVIATION WAY,SANTA MARIA,CA,93455,
CA-W-21107,LA PITCHOUNE WINERY LLC,LA PITCHOUNE WINERY,3358 COFFEY LN STE C & D,SANTA ROSA,CA,94503,
CA-W-20504,ORPHEUS WINES LLC,ORPHEUS WINES,3360 COFFEY LN STE E,SANTA ROSA,CA,95403,
CA-W-21332,"BELDEN BARNS SONOMA, LLC",BELDEN BARNS,3358-D COFFEY LANE,SANTA ROSA,CA,95403,
CA-W-22585,"L18 WINES, LLC",TR WINES,980 AIRWAY CT BLDG 2,SANTA ROSA,CA,95403,
CA-W-23073,DIRECT CELLARS LLC,,980 AIRWAY BLDG 2 CT STE A-F,SANTA ROSA,CA,95403,
CA-W-22636,"SLJ GROUP, INC.",LIONSTONE INTERNATIONAL,"980 AIRWAY CT, BLDG 2 STE A-F",SANTA ROSA,CA,95403,
CA-W-22374,"BATTLE FAMILY VINEYARDS, LLC",BATTLE FAMILY VINEYARDS,1160 HOPPER AVE,SANTA ROSA,CA,95403,
CA-W-21587,BENNETT VALLEY VINEYARD & WINERY INC.,SIMPATICO WINE COMPANY,6410 BENNETT VALLEY RD,SANTA ROSA,CA,95404,
CA-W-22188,"REDWOOD HILL WINES, LLC",REDWOOD HILL WINES,1160 HOPPER AVE,SANTA ROSA,CA,95403,
CA-W-22913,"EDEN ESTATE WINES, LLC",,22090 MT EDEN RD,SARATOGA,CA,95070,
CA-W-21795,LOUIS D RIGA,RIGA WINERY,19707 MONTAUK DR,SARATOGA,CA,95070,
CA-W-23998,WESLEY D BOX,BOX WINE COMPANY,4950 ROSS RD,SEBASTOPOL,CA,95472,
CA-W-23373,CLOUDS REST VINEYARDS LLC,CLOUDS REST,2064 N GRAVENSTEIN HWY STE 120,SEBASTOPOL,CA,95472,
CA-W-22788,CADA LLC,RAEN WINES,6780 MCKINLEY AVE STE 170,SEBASTOPOL,CA,95472,
CA-W-22121,"K. BEITLER, LLC",,2064 GRAVENSTEIN HWY BLDG 7,SEBASTOPOL,CA,95472,
CA-W-22260,VINOENOLOGY LLC,KUKERI WINES,1446 INDUSTRIAL AVE,SEBASTOPOL,CA,95472,
CA-W-21544,"FN CELLARS, LLC",ENROUTE WINERY,"2064 N HWY 116, STE 503,503A, & 504",SEBASTOPOL,CA,95472,
CA-W-24076,"PLEIADES WINE COMPANY, INC.",PLEIADES WINE COMPANY,4950 ROSS RD,SEBASTOPOL,CA,95472,
CA-W-20464,JJ CUSTOM WINES LLC,,"2064 GRAVENSTEIN HWY N BLDG 1, STE 120",SEBASTOPOL,CA,95472,
CA-W-21132,DUE RAGAZZE VINEYARDS LLC,DUE RAGAZZE VINEYARDS,3046 PONDEROSA RD,SHINGLE SPRINGS,CA,95682,
CA-W-22326,RIDEAU CELLARS LLC,RIDEAU VINEYARD,1562 ALAMO PINTADO RD. A,SOLVANG,CA,93463,
CA-W-23121,VINO DE ORO VINEYARD AND WINERY LLC,VINO DE ORO VINEYARD AND WINERY,7460 DERBY LN,SOMERSET,CA,95684,
CA-W-23959,KK VINEYARDS LLC,,2979 MELLOWOOD DR,SOMERSET,CA,95684,
CA-W-23794,FRESH WINES LLC,FRESH WINES,21481 8TH ST E STE 1,SONOMA,CA,95476,
CA-W-23793,MAGNOLIA WINE SERVICES LLC,MAGNOLIA WINE SERVICES,21481 8TH ST E STE 1,SONOMA,CA,95476,
CA-W-21438,MXB FAMILY LIMITED PARTNERSHIP,BIRCH ESTATE,64 BONNEAU RD,SONOMA,CA,95476,
CA-W-22472,STE. MICHELLE WINE ESTATES LTD.,PATZ & HALL WINE CO.,"21684 8TH STREET EAST BLDG C, #200",SONOMA,CA,95476,
CA-W-23445,EVERARD FAMILY VINEYARDS AND WINERY L.L.C.,EVERARD FAMILY VINEYARDS AND WINERY,2833 WHITE ALDER,SONOMA,CA,95476,
CA-W-22081,"TYGE WILLIAM CELLARS, LLC",,21692 E 8TH ST BLDG B,SONOMA,CA,95476,
CA-W-21819,"LLANDU ESTATE WINERY, LLC",,21481 E 8TH ST STE 30,SONOMA,CA,95476,
CA-W-21818,"CORNER 103, LLC",,21481 8TH ST STE 30,SONOMA,CA,95476,
CA-W-24072,DOS PIEDRAS WINES LLC,DOS PIEDRAS WINES LLC,21481 8TH ST E STE 1,SONOMA,CA,95476,
CA-W-23880,TERRACE VIEW VINEYARDS,TERRACE VIEW VINEYARDS - CA,21481 8TH ST E STE 15B,SONOMA,CA,95476,
CA-W-23949,"MANCAN WINE, LLC",FIREHOUSE CAN COMPANY,21945 CARNEROS LAKE LN STE 1,SONOMA,CA,95476,
CA-W-22289,TREASURY WINE ESTATES AMERICAS COMPANY,CELLAR 360,"21468 21480, 21672 8TH STREET EAST",SONOMA,CA,95476,
CA-W-23845,KIRSTEN DENBOW,DELILAH RIDGE,35791 HOPEWELL RD,SQUAW VALLEY,CA,93675,
CA-W-21298,"SEAVEY VINEYARD LIMITED PARTNERSHIP SEAVEY FAMILY GROUP, LLC GP",SEAVEY VINEYARD,1310 CONN VALLEY RD,ST. HELENA,CA,94574,
CA-W-21114,EMERSON BROWN LLC,EMERSON BROWN WINES,"2929 SAINT HELENA HWY, N",ST. HELENA,CA,94574,
CA-W-23781,"FORTUNATE SON WINES, LLC",FORTUNATE SON,825 FULTON LN,ST. HELENA,CA,94574,
CA-W-23436,TESSERACT WINES LLC,TESSERACT WINES,3524 SILVERADO TRL N,ST. HELENA,CA,94574,
CA-W-22642,"GLJR WINE, LLC",,264 N FORK CRYSTAL SPRINGS RD,ST. HELENA,CA,94574,
CA-W-23302,1260 SUMMIT LAKE LLC,IMPENSATA,588 ZINFANDEL LN,ST. HELENA,CA,94574,
CA-W-21853,"TREASURE WINES, LLC",,3524 SILVERADO TRL,ST. HELENA,CA,94574,
CA-W-22027,"LAWER FAMILY WINERY, INC.",,3524 N SILVERADO TRL,ST. HELENA,CA,94574,
CA-W-21137,EMERSON WINES,SONRIA WINES,"2929 SAINT HELENA HWY, N.",ST. HELENA,CA,94574,
CA-W-21203,AWDIRECT INC.,,105 ZINFANDEL LN,ST. HELENA,CA,94574,
CA-W-21289,"NELLA TERRA CELLARS, INC.",,5003 SHERIDAN RD,SUNOL,CA,94586,
CA-W-22008,"DORNER ENTERPRISES, INC.",DORNER FAMILY VINEYARD,18274 OLD RANCH RD,TEHACHAPI,CA,93561,
CA-W-23654,"LORENZI ESTATE WINES, INC.",LORENZI ESTATE VINEYARDS AND WINERY,36095 MONTE DE ORO,TEMECULA,CA,92592,
CA-W-23474,KPC MT. PALOMAR WINERY LLC,MOUNT PALOMAR WINERY,33820 RANCHO CALIFORNIA RD,TEMECULA,CA,92591,
CA-W-23254,"SPERO RANCH, LLC",,32250 VISTA DEL MONTE,TEMECULA,CA,92591,
CA-W-23430,"BATCH MEAD, LLC",BATCH MEAD,42225 REMINGTON AVE STE A25,TEMECULA,CA,92590,
CA-W-22423,HOLME ESTATE CELLARS,,36084 SUMMITVILLE ST,TEMECULA,CA,92592,
CA-W-23976,E. & J. GALLO WINERY,WILD HORSE WINERY,1437 WILD HORSE WINERY CT,TEMPLETON,CA,93465,
CA-W-23824,"STILSON, INC.",,1850 TEMPLETON RD,TEMPLETON,CA,93465,
CA-W-21627,"SEEBASS FAMILY WINES, LLC",,3300 OLD RIVER RD,UKIAH,CA,95482,
CA-W-22617,TRIUMPH NATIONAL SALES LLC,,2350 MCNAB RANCH RD,UKIAH,CA,95482,
CA-W-22525,"BELLAVINI WINERY, LTD.",,2350 MCNAB RANCH RD,UKIAH,CA,95482,
CA-W-23757,RYAN PEDVIN,,1370 W. 9TH ST,UPLAND,CA,91786,
CA-W-21111,"SKY RANCH GROUP, LLC",SKY RANCH GROUP,7351 SKY RANCH LN,VACAVILLE,CA,95688,
CA-W-21322,"VINA MODA, INC.",VINA MODA WINERY,8330 AIROLA RD,VALLECITO,CA,95251,
CA-W-22182,"ORIT TEJ, LLC",ORIT TEJ,100 CORPORATE PLACE STE G,VALLEJO,CA,94590,
CA-W-22592,"OBLOQUY, INC.",NEXT OF KYN,1750 N VENTURA AVE UNIT 5,VENTURA,CA,93001,
CA-W-21723,BROOKING VINEYARDS LLC,BROOKING VINEYARDS,375 SKYLINE DR,VISTA,CA,92084,
CA-W-23127,"MERZ FAMILY WINERY, LLC",,38642 CA-79,WARNER SPRINGS,CA,92086,
CA-W-23521,JANET A WALSH AND CHRISTOPHER F WALSH,LUCKY LION WINERY,37835 HWY 79,WARNER SPRINGS,CA,92086,
CA-W-20525,LINDSEY SHAW AND JASON SHAW,BJORN MEAD,319 BANEBERRY CT,WATERFORD,CA,95386,
CA-W-22159,SANTA CRUZ CIDER COMPANY LLC,SANTA CRUZ CIDER COMPANY,65 HANGER WAY STE C,WATSONVILLE,CA,95060,
CA-W-22372,CHRISTOPHER BROADDUS,ANATUM,375 FALCON VIEW TER,WATSONVILLE,CA,95076,
CA-W-22726,"RODENBORN ENTERPRISES, LLC",TRYPHON VINEYARDS,610 HARBOR BLVD,WEST SACRAMENTO,CA,95691,
CA-W-21399,"AC VIN CO., LLC",GROSSECROSS CELLARS,1119 STATE LN,YOUNTVILLE,CA,94599,
CA-W-22424,"OLD VINE WINE PARTNERS, LLC",T VINE CELLARS,1119 STATE LN,YOUNTVILLE,CA,94599,
