PERMIT NUMBER,OWNER NAME,OPERATING NAME,STREET,CITY,STATE,ZIP,COUNTY
CA-W-23154,"PEIRANO ESTATE WINERY, INC.",PEIRANO ESTATE VINEYARDS,205 JIM OSWALT WAY STE A,AMERICAN CANYON,CA,94503,SONOMA
CA-W-1456,"BASIL H., BARBARA G., ARON J., & NICHOLAS A. SCALABRINI",ANNAPOLIS WINERY,26055 SODA SPRING RD,ANNAPOLIS,CA,95412,SONOMA
CA-W-17762,E. & J. GALLO WINERY,ASTI WINERY,26150 ASTI RD,ASTI,CA,95425,SONOMA
CA-W-21401,"CATHERINE-ELIZABETH, INC.",,14701 BODEGA HWY,BODEGA,CA,94922,SONOMA
CA-W-20291,"HELLER FAMILY VINEYARDS, LLC",,5136 SHARP RD,CALISTOGA,CA,94515,SONOMA
CA-W-21582,MARK CAPORALE,CAPORALE WINERY,5300 MOUNTAIN HOME RANCH RD,CALISTOGA,CA,94515,SONOMA
CA-W-2332,"NANCY C. FAHDEN, ANTONE H. FAHDEN & LYALL K. FAHDEN",HANS FAHDEN VINEYARDS,5300 MOUNTAIN HOME RANCH RD,CALISTOGA,CA,94515,SONOMA
CA-W-1636,PETER MICHAEL WINERY,,12400 IDA CLAYTON RD,CALISTOGA,CA,94515,SONOMA
CA-W-1755,DANIEL THEODORE SCHOENFELD,WILD HOG VINEYARD,30904 KING RIDGE RD,CAZADERO,CA,95421,SONOMA
CA-W-3133,"HIRSCH WINERY, LLC",HIRSCH WINERY,45075 BOHAN DILLON RD,CAZADERO,CA,95421,SONOMA
CA-W-23593,HUNEEUS WINES LLC,FLOWERS VINEYARD & WINERY,28500 SEAVIEW RD,CAZADERO,CA,95421,SONOMA
CA-W-17336,"BEDARRA ESTATES, INC.",BEDARRA VINEYARDS,24505 CHIANTI RD,CLOVERDALE,CA,95425,SONOMA
CA-W-15772,"BLUEROCK VINEYARD, LLC",BLUE ROCK VINEYARD,24511 RICH RANCH RD,CLOVERDALE,CA,95425,SONOMA
CA-W-16841,"BOBDOG, LLC",,31969 PINE MOUNTAIN RD,CLOVERDALE,CA,95425,SONOMA
CA-W-24067,"BYRDCOOP, LLC",BYRD VINEYARD,24505 CHIANTI RD,CLOVERDALE,CA,95425,SONOMA
CA-W-17323,CKG PARTNERS LLC,ALDRICH BROWNE,227 TREADWAY DR,CLOVERDALE,CA,95425,SONOMA
CA-W-22180,DAVID JOHN SCHEIDT,MASTRO SCHEIDT CELLARS,24505 CHIANTI RD,CLOVERDALE,CA,95425,SONOMA
CA-W-16668,"DEERING WINE USA, LLC",DEERING WINE,24505 CHIANTI RD,CLOVERDALE,CA,95425,SONOMA
CA-W-3291,"DERBES, LLC",DERBES WINES,227 TREADWAY DR,CLOVERDALE,CA,95425,SONOMA
CA-W-23749,"DOT WINES, LLC",LILY CASSIUS WINES,24505 CHIANTI RD,CLOVERDALE,CA,95425,SONOMA
CA-W-23338,"ERIC KENT WINE CELLARS, LLC",ERIC KENT WINE CELLARS,24505 CHIANTI RD,CLOVERDALE,CA,95425,SONOMA
CA-W-587,FRANK P. PASTORI,PASTORI WINERY,23189 GEYSERVILLE AVE,CLOVERDALE,CA,95425,SONOMA
CA-W-1015,"FRITZ CELLARS, INC.",FRITZ CELLARS,24691 DUTCHER CREEK RD,CLOVERDALE,CA,95425,SONOMA
CA-W-3301,"FRUITFUL ENDEAVOR, LLC",,25500 RIVER RD,CLOVERDALE,CA,95425,SONOMA
CA-W-22189,"HAYES & COMPANY, LLC",COSA OBRA WINES,24505 CHIANTI RD,CLOVERDALE,CA,95425,SONOMA
CA-W-17041,HILLEND FARMS LLC,HILLEND VINEYARDS,24415 RICH RANCH RD,CLOVERDALE,CA,95425,SONOMA
CA-W-21261,ICARIA CREEK WINERY,,27750 ASTI RD,CLOVERDALE,CA,95425,SONOMA
CA-W-20268,"IN WINE, INC.",OLD OAK CELLARS,24505 CHIANTI RD,CLOVERDALE,CA,95425,SONOMA
CA-W-15236,"J. RICKARDS WINERY, LLC",J. RICKARDS WINERY,24505 CHIANTI RD,CLOVERDALE,CA,95425,SONOMA
CA-W-21976,KELLEY & YOUNG LLC,,302 N MAIN ST,CLOVERDALE,CA,95425,SONOMA
CA-W-15169,"LONE OAK ESTATE WINERY, LLC",LONE OAK ESTATE WINERY,36050 HWY 128,CLOVERDALE,CA,95425,SONOMA
CA-W-22446,"MATHY WINERY, LLC",MATHY WINERY,25510 RIVER RD,CLOVERDALE,CA,95425,SONOMA
CA-W-21159,"MERCURY WINE, LLC",,30 A INDUSTRIAL DR,CLOVERDALE,CA,95425,SONOMA
CA-W-15489,MICHALL WAYNE PENDLETON,PENDLETON ESTATE VINEYARDS & WINERY,35100 HIGHWAY 128,CLOVERDALE,CA,95425,SONOMA
CA-W-23822,"MOUNTAIN HOUSE ESTATE, LLC",MOUNTAIN HOUSE WINERY,33714 HIGHWAY 128,CLOVERDALE,CA,95425,SONOMA
CA-W-15009,O. G. LINDE & SYLVIA LINDE,LINDE VINEYARDS,24400 GEYSERVILLE AVE,CLOVERDALE,CA,95425,SONOMA
CA-W-22164,OAKLAND BEVERAGE GROUP,,24505 CHIANTI RD,CLOVERDALE,CA,95425,SONOMA
CA-W-3651,"PEAY VINEYARDS, LLC",PEAY VINEYARDS,227 TREADWAY DR,CLOVERDALE,CA,95425,SONOMA
CA-W-22940,PINE MOUNTAIN VINEYARDS LLC,,25475 CLOVERDALE PEAK RD,CLOVERDALE,CA,95425,SONOMA
CA-W-22271,PROLACOM INVESTMENTS INC,,155 CHERRY CREEK RD,CLOVERDALE,CA,95425,SONOMA
CA-W-17191,"QUAKING HILLS WINERY, INC.",QUAKING HILLS WINERY,25094 ASTI RD,CLOVERDALE,CA,95425,SONOMA
CA-W-15272,"RAMAZZOTTI WINES, LLC",RAMAZZOTTI WINES,30 INDUSTRIAL DR,CLOVERDALE,CA,95425,SONOMA
CA-W-22936,RIVERLANE BRANDS LLC,,24505 CHIANTI RD,CLOVERDALE,CA,95425,SONOMA
CA-W-17248,VALDEZ FAMILY WINERY,,"595 SANTANA DR UNIT C, D",CLOVERDALE,CA,95425,SONOMA
CA-W-22167,"VENTURI FAMILY VINEYARDS, LLC",VENTURI FAMILY VINEYARDS,1900 OAK HOLLOW DR,CLOVERDALE,CA,95625,SONOMA
CA-W-2056,WATTLE CREEK WINERY,,25510 RIVER RD,CLOVERDALE,CA,95425,SONOMA
CA-W-15741,WILLIAM GORDON LLC,WILLIAM GORDON WINERY,27800 RIVER RD,CLOVERDALE,CA,95425,SONOMA
CA-W-3319,MOHAMED A. KARAH,KARAH ESTATE VINEYARDS,1010 W RAILROAD AVE,COTATI,CA,94931,SONOMA
CA-W-22562,ALVIN STUART HASIN,KARPE KANEM WINERY,7380 HIDDEN LAKE RD,FORESTVILLE,CA,95436,SONOMA
CA-W-2839,BELVEDERE WINE COMPANY,RUSSIAN RIVER WINE WORKS,7190 TRENTON HEALDSBURG RD,FORESTVILLE,CA,95436,SONOMA
CA-W-21773,BROWN BAG BEVERAGES LLC,AGRESTIC,9287 TORRS WAY,FORESTVILLE,CA,95436,SONOMA
CA-W-15063,"DEBURKA WINES, LLC",DEBURCA WINES,6581 RIVER RD,FORESTVILLE,CA,95436,SONOMA
CA-W-20114,"HARTFORD-JACKSON, LLC",HARTFORD FAMILY WINES,8075 MARTINELLI RD,FORESTVILLE,CA,95436,SONOMA
CA-W-21531,JOHN R MASON AND CHRISTINE R MASON,EMTU ESTATE WINES,6111 VAN KEPPEL RD,FORESTVILLE,CA,95436,SONOMA
CA-W-2643,"JOSEPH SWAN VINEYARDS, INC.",JOSEPH SWAN VINEYARDS,2916 LAGUNA RD,FORESTVILLE,CA,95436,SONOMA
CA-W-17644,"K. BEITLER, LLC",BOHEME WINES,6450 FIRST ST UNITS A&B,FORESTVILLE,CA,95436,SONOMA
CA-W-22411,"KISTLER VINEYARDS, LLC",,7095 TRENTON-HEALDSBURG RD,FORESTVILLE,CA,95436,SONOMA
CA-W-22258,"P & M VINEYARDS HOLDINGS, LLC",CHAMBOULE,"6450 FIRST ST STE D, K & L",FORESTVILLE,CA,95436,SONOMA
CA-W-16871,"PAX MAHLE WINES, LLC",,"6450 1ST ST UNITS D, K",FORESTVILLE,CA,95436,SONOMA
CA-W-16712,"RUSSIAN RIVER VINEYARDS, LLC",RUSSIAN RIVER VINEYARDS,5700 HIGHWAY 116,FORESTVILLE,CA,95436,SONOMA
CA-W-16588,SANTA ROSA JUNIOR COLLEGE SHONE FARM FOUNDATION,,7450 STEVE OLSON LN,FORESTVILLE,CA,95436,SONOMA
CA-W-24082,"SC CELLARS, LLC",SUBJECT TO CHANGE,"6450 FIRST ST STE D,K,L, J",FORESTVILLE,CA,95436,SONOMA
CA-W-21360,"VIA GIUSTI, INC.",VIA GIUSTI WINES,7782 GIUSTI RD,FORESTVILLE,CA,95436,SONOMA
CA-W-20463,JOSEPH PHELPS VINEYARDS LLC,,1625 FREESTONE FLAT RD,FREESTONE,CA,95472,SONOMA
CA-W-2585,DAREK ALLEN TROWBRIDGE,OLD WORLD WINERY,850 RIVER RD,FULTON,CA,95439,SONOMA
CA-W-2279,"JACKSON FAMILY WINES, INC.",KENDALL-JACKSON WINE CENTER,5007 FULTON RD,FULTON,CA,95439,SONOMA
CA-W-21577,"MOUNTAIN VALLEY VINEYARDS, INC.",FOGLINE VINEYARDS,875 RIVER RD,FULTON,CA,95439,SONOMA
CA-W-22200,"VENGE VINEYARDS, INC.",CROIX ESTATE,1406 WOOD RD,FULTON,CA,95439,SONOMA
CA-W-21226,8500 DRY CREEK ROAD LLC,,8500 DRY CREEK RD,GEYSERVILLE,CA,95441,SONOMA
CA-W-2662,CHATEAU FELICE CORP.,CHATEAU FELICE,4001 HIGHWAY 128,GEYSERVILLE,CA,95441,SONOMA
CA-W-21105,"CITY VINES, LLC",VINIUM,4001 HIGHWAY 128,GEYSERVILLE,CA,95441,SONOMA
CA-W-16633,CORAL MUSTANG WINES LLC,CORAL MUSTANG WINES,4001 HIGHWAY 128,GEYSERVILLE,CA,95441,SONOMA
CA-W-2024,DAVID F. COFFARO,,7485 DRY CREEK RD,GEYSERVILLE,CA,95441,SONOMA
CA-W-21241,DRY CREEK BUSINESS AUTHORITY,BELLACANA,4001 HIGHWAY 128,GEYSERVILLE,CA,95441,SONOMA
CA-W-21790,DUSTY RIVERVIEW CELLARS,,300 VIA ARCHIMEDES,GEYSERVILLE,CA,95441,SONOMA
CA-W-22468,"FOLEY FAMILY WINES, INC.",FOLEY SONOMA,5110 HIGHWAY 128,GEYSERVILLE,CA,95441,SONOMA
CA-W-23899,"FOLEY FAMILY WINES, INC.",PREVAIL WINERY,2450 HIGHWAY 128,GEYSERVILLE,CA,95441,SONOMA
CA-W-15593,"FRANCIS COPPOLA WINERY, LLC",,300 VIA ARCHIMEDES,GEYSERVILLE,CA,95441,SONOMA
CA-W-3531,"GARDEN CREEK VINEYARDS, LLC",GARDEN CREEK VINEYARDS,2335 GEYSERS RD,GEYSERVILLE,CA,95441,SONOMA
CA-W-17239,"GARY RAPHAEL VINTNERS, LLC",GARY RAPHAEL VINTNERS,4001 HIGHWAY 128,GEYSERVILLE,CA,95441,SONOMA
CA-W-23103,"GOLDSCHMIDT VINEYARDS, LLC.",,19170 GEYSERVILLE AVE,GEYSERVILLE,CA,95441,SONOMA
CA-W-15229,HAWKES LLC,HAWKES,18850 HASSETT LN UNITS 6 &,GEYSERVILLE,CA,95441,SONOMA
CA-W-16932,HAWKES LLC,HAWKES,18850 HASSETT LN UNIT 3,GEYSERVILLE,CA,95441,SONOMA
CA-W-21092,"IDLEWILD WINES, INC.",IDLEWILD WINES,18850 HASSETT LN,GEYSERVILLE,CA,95441,SONOMA
CA-W-568,J. PEDRONCELLI WINERY,,1220 CANYON RD,GEYSERVILLE,CA,95441,SONOMA
CA-W-1934,"JACKSON FAMILY WINES, INC.",VINWOOD,18700 GEYSERVILLE AVE,GEYSERVILLE,CA,95441,SONOMA
CA-W-2130,JOHN HART III,HART'S DESIRE WINES,18850 HASSET LN,GEYSERVILLE,CA,95441,SONOMA
CA-W-21724,JOHN MOREHOUSE,MOREHOUSE ESTATES,18850 HASSETT LN BLDG B,GEYSERVILLE,CA,95441,SONOMA
CA-W-15917,KELLEY & YOUNG LLC,,4960 RED WINERY RD,GEYSERVILLE,CA,95441,SONOMA
CA-W-16930,LAURA CARPENTER,CARPENTER,18850 HASSETT LN 6&7,GEYSERVILLE,CA,95441,SONOMA
CA-W-1811,"MARIETTA CELLARS, INCORPORATED",MARIETTA CELLARS,22295 CHIANTI RD,GEYSERVILLE,CA,95441,SONOMA
CA-W-22079,MICHAEL JOHN LUCIA,ROOT DOWN WINE CELLARS,18850 HASSETT LN BLDG 2,GEYSERVILLE,CA,95441,SONOMA
CA-W-21074,"MICHAEL PATRICK WINE COMPANY, LLC",CRUX WINERY,18850 HASSETT LN BLDG C,GEYSERVILLE,CA,95441,SONOMA
CA-W-21764,"ML WINES, LLC",ZIALENA WINES,21112 RIVER RD,GEYSERVILLE,CA,95441,SONOMA
CA-W-17198,MURPHY VINEYARDS LLC,4001 CELLARS,4001 HIGHWAY 128,GEYSERVILLE,CA,95441,SONOMA
CA-W-16497,"PAHLAVAN FAMILY CELLARS, LLC",STARLITE VINEYARDS,5511 HIGHWAY 128,GEYSERVILLE,CA,95441,SONOMA
CA-W-17013,PETRICHOR VINEYARDS,PETRICHOR,"18850 HASSETT LN BLDG 1, SP",GEYSERVILLE,CA,95441,SONOMA
CA-W-2050,PHILIP K. STALEY,PHILIP STALEY VINEYARDS & WINERY,18850 HASSETT LN,GEYSERVILLE,CA,95441,SONOMA
CA-W-22876,"PHILLIPS FARMS, LLC",,24625 CHIANTI RD,GEYSERVILLE,CA,95441,SONOMA
CA-W-21141,"PORTALUPI WINE COMPANY, INC.",PORTALUPI WINE COMPANY,18850 HASSETT LN BLDG B,GEYSERVILLE,CA,95441,SONOMA
CA-W-23671,"POUR MANAGEMENT, LLC",POUR MANAGEMENT,18850 HASSETT LN BLDG 2 (U15/16),GEYSERVILLE,CA,95441,SONOMA
CA-W-21537,"RB WINE ASSOCIATES, LLC",RACK & RIDDLE,4001 HIGHWAY 128,GEYSERVILLE,CA,95441,SONOMA
CA-W-3105,"ROBERT YOUNG ESTATE WINERY, LLC",ROBERT YOUNG ESTATE WINERY,4960 RED WINERY RD,GEYSERVILLE,CA,95441,SONOMA
CA-W-23215,"RUTH LEWANDOWSKI WINES, INC",RUTH LEWANDOWSKI WINES,18850 HASSETT LN,GEYSERVILLE,CA,95441,SONOMA
CA-W-17704,"RYME CELLARS, LLC",RYME WINE CELLARS,18850 HASSETT LN UNIT 29-34,GEYSERVILLE,CA,95441,SONOMA
CA-W-15791,"SBRAGIA FAMILY VINEYARDS, LLC",SBRAGIA FAMILY VINEYARDS,9990 DRY CREEK RD,GEYSERVILLE,CA,95441,SONOMA
CA-W-21683,"SHARE A SPLASH WINE CO., LLC",,4001 HIGHWAY 128,GEYSERVILLE,CA,95441,SONOMA
CA-W-21907,SHELTON-MACKENZIE WINE COMPANY,CAROL SHELTON WINES,4001 HIGHWAY 128,GEYSERVILLE,CA,95441,SONOMA
CA-W-22634,"SLJ GROUP, INC.",LIONSTONE INTERNATIONAL,300 VIA ARCHIMEDES,GEYSERVILLE,CA,95441,SONOMA
CA-W-16925,SONOMA SANTE PARTNERS,VIVO VINEGAR,18850 HASSETT LN,GEYSERVILLE,CA,95441,SONOMA
CA-W-15505,"SOUTH BAY WINE GROUP, LLC",CASTLE ROCK WINERY,300 VIA ARCHIMEDES,GEYSERVILLE,CA,95441,SONOMA
CA-W-17437,"STAVE 28, LTD.",STAVE 28,4001 HIGHWAY 128,GEYSERVILLE,CA,95441,SONOMA
CA-W-16685,"STONECUSHION, INC.",MOSAIC WINERY,2001 HIGHWAY 128,GEYSERVILLE,CA,95441,SONOMA
CA-W-21342,"SV SITUM, INC.",STEPHEN SITUM,4001 128 HWY,GEYSERVILLE,CA,95441,SONOMA
CA-W-17627,"THUMBPRINT WINE GROUP, INC.",THUMBPRINT CELLARS,18850 HASSETT LN BLDG. B,GEYSERVILLE,CA,95441,SONOMA
CA-W-16458,"TRIONE VINEYARDS, LLC",TRIONE VINEYARDS,19550 GEYSERVILLE AVE,GEYSERVILLE,CA,95441,SONOMA
CA-W-20007,"TWIN RIDGE ESTATES, LLC",TWIN RIDGE ESTATES,7878 DRY CREEK RD,GEYSERVILLE,CA,95441,SONOMA
CA-W-21503,VELVET ANTLER WINE LLC,VELVET ANTLER WINE,4001 HIGHWAY 128,GEYSERVILLE,CA,95441,SONOMA
CA-W-22087,"VTPR, INC.",VTPR,18850 HASSETT LN UNIT 9,GEYSERVILLE,CA,95441,SONOMA
CA-W-15443,WILLIAM JAMES WILLIAMSON,WILLIAMSON WINES,HIGHWAY 128,GEYSERVILLE,CA,95441,SONOMA
CA-W-703,WILLIAM R. FRICK,FRICK WINERY,23072 WALLING RD,GEYSERVILLE,CA,95441,SONOMA
CA-W-15599,WILSON FLEMING LLC,WILSON FLEMING ESTATE WINERY,18850 HASSETT LN,GEYSERVILLE,CA,95441,SONOMA
CA-W-16978,"ZMARZLY ENTERPRISES, LLC",ALBERTINA WINE CELLARS,4001 HIGHWAY 128,GEYSERVILLE,CA,95441,SONOMA
CA-W-16933,"BALDWIN WINES, LLC",BALDWIN WINES,2242 NELLIGAN RD,GLEN ELLEN,CA,95442,SONOMA
CA-W-16771,"BELLEG WINE CELLARS, INC.",,13101 ARNOLD DR,GLEN ELLEN,CA,95442,SONOMA
CA-W-23796,"BLACK DOG RANCH, LLC",,14300 ARNOLD DR,GLEN ELLEN,CA,95442,SONOMA
CA-W-16724,BRUCE H. AND KRASSIMIRA RECTOR,AHH WINERY,13470 MOUND AVE,GLEN ELLEN,CA,95442,SONOMA
CA-W-2856,CHRISTOPHER M. LOXTON,LOXTON CELLARS,11466 DUNBAR RD,GLEN ELLEN,CA,95442,SONOMA
CA-W-16275,DAVID BRIAN NOYES,DAVID NOYES WINES,11600 DUNBAR RD,GLEN ELLEN,CA,95442,SONOMA
CA-W-2953,DEERFIELD RANCH WINERY LLC,DEERFIELD RANCH WINERY,1310 WARM SPRINGS RD,GLEN ELLEN,CA,95442,SONOMA
CA-W-23741,"ECHO ECHO, LLC",ABBOT'S PASSAGE WINERY & MERCANTILE,777 MADRONE RD,GLEN ELLEN,CA,95442,SONOMA
CA-W-16806,ERIC ROSS WINERY LLC,ERIC ROSS WINERY,14300 ARNOLD DR,GLEN ELLEN,CA,95442,SONOMA
CA-W-16514,"GLENLYON WINERY, LLC",GLENLYON WINERY,2750 JOHNS HILL RD,GLEN ELLEN,CA,95442,SONOMA
CA-W-870,"H. COTURRI AND SONS, LTD.",,6725 ENTERPRISE RD,GLEN ELLEN,CA,95442,SONOMA
CA-W-16114,"JACKSON FAMILY WINES, INC.",ARROWOOD WINERY,14347 SONOMA HWY,GLEN ELLEN,CA,95442,SONOMA
CA-W-22834,JAMBE DE BOIS WINES LLC,,1 VINTAGE LN,GLEN ELLEN,CA,42476,SONOMA
CA-W-3363,LASSETER FAMILY WINERY LLC,LASSETER FAMILY WINERY,1 VINTAGE LN,GLEN ELLEN,CA,95442,SONOMA
CA-W-22628,LASSETER FAMILY WINERY LLC,LASSETER FAMILY WINERY,3875 TRINITY RD,GLEN ELLEN,CA,95442,SONOMA
CA-W-3599,"LITTLE VINEYARDS FAMILY WINERY, LLC",LITTLE VINEYARDS FAMILY WINERY,15188 SONOMA HWY,GLEN ELLEN,CA,95442,SONOMA
CA-W-3385,MAYO FAMILY WINERY,,8801 BENNETT VALLEY RD,GLEN ELLEN,CA,95442,SONOMA
CA-W-3389,MAYO FAMILY WINERY,,13101 ARNOLD DR,GLEN ELLEN,CA,95442,SONOMA
CA-W-15585,"SPANN VINEYARDS, INC.",SPANN VINEYARDS,12900 MAPLE GLEN RD,GLEN ELLEN,CA,95442,SONOMA
CA-W-22568,STEVE NOBLE LEDSON,MOUNTAIN TERRACES WINERY AND VINEYARD,2990 CAVEDALE RD,GLEN ELLEN,CA,95442,SONOMA
CA-W-22129,THE WINE GROUP LLC,BENZIGER FAMILY WINERY,1883 LONDON RANCH RD,GLEN ELLEN,CA,95442,SONOMA
CA-W-21425,TWO AMIGOS WINERY LLC,TWO AMIGOS WINERY,13101 ARNOLD DR,GLEN ELLEN,CA,95442,SONOMA
CA-W-22099,"VINTAGE WINE ESTATES, INC.",B.R. COHN WINERY,15000 SONOMA HWY,GLEN ELLEN,CA,95442,SONOMA
CA-W-21664,VJB LLC,VJB VINEYARDS & WINERY,11600 DUNBAR RD,GLEN ELLEN,CA,95442,SONOMA
CA-W-21169,WEST COAST WINE PARTNERS LLC,,777 MADRONE RD,GLEN ELLEN,CA,95442,SONOMA
CA-W-2579,"DREYER WINE, LLC",,9119 GRATON RD STE O,GRATON,CA,95444,SONOMA
CA-W-21821,"HEMISPHERES, LLC",,9119 GRATON RD,GRATON,CA,95444,SONOMA
CA-W-2126,LANCE CHARLES RANDOLPH,PEIRANO ESTATE VINEYARDS,9119 GRATON RD STE L,GRATON,CA,95444,SONOMA
CA-W-21494,"PURPLE WINE COMPANY, LLC",PURPLE WINES,9119 GRATON RD,GRATON,CA,95444,SONOMA
CA-W-23497,TASTE IT INC.,IN GOOD TASTE,9119 GRATON RD BLDG F,GRATON,CA,95444,SONOMA
CA-W-17635,"WINERY EXCHANGE, INC.",WX,9119 GRATON RD,GRATON,CA,95444,SONOMA
CA-W-32,F. KORBEL & BROS.,F. KORBEL & BROS.,13250 RIVER RD,GUERNEVILLE,CA,95446,SONOMA
CA-W-15320,"PORTER-BASS, LLC",PORTER-BASS VINEYARDS,11750 MAYS CANYON RD,GUERNEVILLE,CA,95446,SONOMA
CA-W-15204,A. RAFANELLI WINERY AND VINEYARDS LP,,4685 W DRY CREEK RD,HEALDSBURG,CA,95448,SONOMA
CA-W-2446,"A.V.V. WINERY CO., LLC",ALEXANDER VALLEY VINEYARDS,8644 HIGHWAY 128,HEALDSBURG,CA,95448,SONOMA
CA-W-23051,"ACCLIVITY VINEYARDS, LLC",,"25 HEALDSBURG AVE, BLDG 20, 21, 30",HEALDSBURG,CA,95448,SONOMA
CA-W-2195,ACORN ALEGRIA WINERY,ACORN ALEGRIA WINERY,1290 DRY CREEK RD,HEALDSBURG,CA,95448,SONOMA
CA-W-2663,"ADAMS WINERY, LLC",BELLA VINEYARDS,9711 W DRY CREEK RD,HEALDSBURG,CA,95448,SONOMA
CA-W-23465,ALTBIER OPERATIONS LLC,ALTBIER OPERATIONS,499 MOORE LN,HEALDSBURG,CA,95448,SONOMA
CA-W-15900,"AMISTA VINEYARDS, INC.",AMISTA VINEYARDS,3320 DRY CREEK RD,HEALDSBURG,CA,95448,SONOMA
CA-W-17359,"AMOROSA BELLA, LLC",,499 MOORE LN,HEALDSBURG,CA,95448,SONOMA
CA-W-15400,ANTHILL FARMS LLC,ANTHILL FARMS WINERY,4791 DRY CREEK RD,HEALDSBURG,CA,95448,SONOMA
CA-W-23449,"APERTURE CELLARS, LLC",APERTURE CELLARS,12293 OLD REDWOOD HIGHWAY,HEALDSBURG,CA,95448,SONOMA
CA-W-21637,"ARISTA WINES, LLC",ARISTA WINES,7011 & 7015 WESTSIDE RD,HEALDSBURG,CA,95448,SONOMA
CA-W-2276,"ARMIDA WINERY, INC.",,2201 WESTSIDE RD,HEALDSBURG,CA,95448,SONOMA
CA-W-16217,"ARNOT-ROBERTS, LLC",ARNOT-ROBERTS WINES,33 HEALDSBURG AVE STE I,HEALDSBURG,CA,95448,SONOMA
CA-W-20333,AUSA PACIFIC LLC,,4155 WINE CREEK RD,HEALDSBURG,CA,95448,SONOMA
CA-W-3408,AVANTI VINEYARDS,,1290 DRY CREEK RD,HEALDSBURG,CA,95448,SONOMA
CA-W-22315,BANNISTER WINES LLC,BANNISTER WINES,101 GRANT AVE UNIT F & G,HEALDSBURG,CA,95448,SONOMA
CA-W-15774,BAVARIAN LION WINERY LLC,,"25 HEALDSBURG AVE BLDGS. 20,",HEALDSBURG,CA,95448,SONOMA
CA-W-2450,BELVEDERE WINE COMPANY,BRADFORD MOUNTAIN,6309 W DRY CREEK RD,HEALDSBURG,CA,95448,SONOMA
CA-W-20270,"BLANCHARD FAMILY WINES, LLC",BLANCHARD FAMILY WINES,109 W NORTH ST,HEALDSBURG,CA,95448,SONOMA
CA-W-23155,"BONANNO VINTNERS, LLC",,1141 GRANT AVE,HEALDSBURG,CA,95448,SONOMA
CA-W-23890,"BOUQUET PARTNERS, LLC",LANGHART-HILL WINES,435 W DRY CREEK RD,HEALDSBURG,CA,95448,SONOMA
CA-W-16616,BRASSET CELLARS LLC,BRASSET CELLARS,428 HUDSON ST,HEALDSBURG,CA,95448,SONOMA
CA-W-23650,"BREATHLESS, LLC",BREATHLESS WINES,499 MOORE LN,HEALDSBURG,CA,95448,SONOMA
CA-W-23044,"BRICK & MORTAR WINES, LLC",,"25 HEALDSBURG AVE UNIT 20, 21, 30",HEALDSBURG,CA,95448,SONOMA
CA-W-23948,"CADLE FAMILY WINES, LLC",CADLE FAMILY WINES,"25 HEALDSBURG AVE BLDG 20, 21, 30",HEALDSBURG,CA,95448,SONOMA
CA-W-3640,CAL VIN ENTERPRISES CORPORATION,OPTIMA WINERY,101 GRANT AVE UNIT F & G,HEALDSBURG,CA,95448,SONOMA
CA-W-21530,"CARDINAL RULE WINES, LLC",CARDINAL RULE WINES,4791 DRY CREEK RD BLDG 9-C,HEALDSBURG,CA,95448,SONOMA
CA-W-20197,CAZADERO WINERY LLC,CAZADERO WINERY,11654 LOS AMIGOS RD,HEALDSBURG,CA,95448,SONOMA
CA-W-16067,CERITAS WINES LLC,CERITAS,60 W NORTH ST SUITE A,HEALDSBURG,CA,95448,SONOMA
CA-W-16649,"CHARLES NORMAN ELSBREE, JR. AND DIANA LYNN ELSBREE",ELSBREE FAMILY VINEYARDS,4791 DRY CREEK RD,HEALDSBURG,CA,95448,SONOMA
CA-W-2161,"CHATEAU DIANA, LLC",CHATEAU DIANA,6195 DRY CREEK RD,HEALDSBURG,CA,95448,SONOMA
CA-W-3464,"CHRISTIES OF SONOMA, INC.",CHRISTIES OF SONOMA,851 LIMERICK LN,HEALDSBURG,CA,95448,SONOMA
CA-W-17469,"CHRONICLE WINES, INC.",CHRONICLE WINES,851 MAGNOLIA DR,HEALDSBURG,CA,95448,SONOMA
CA-W-23826,CIDER WORKS LLC,,499 MOORE LN,HEALDSBURG,CA,95448,SONOMA
CA-W-22116,"COASTAL WINEWORKS, LLC",KINFOLK,"25 HEALDSBURG AVE BLDG 20,21,30",HEALDSBURG,CA,95448,SONOMA
CA-W-2554,"COLLIER FALLS VINEYARD, LLC",COLLIER FALLS VINEYARD,9711 W DRY CREEK RD,HEALDSBURG,CA,95448,SONOMA
CA-W-21101,COMPASS WINDS LLC,COMPASS WINDS,1010 DRY CREEK RD,HEALDSBURG,CA,95448,SONOMA
CA-W-16051,"COPAIN WINE CELLARS, LLC",COPAIN WINE CELLARS,7800 EASTSIDE RD,HEALDSBURG,CA,95448,SONOMA
CA-W-16037,"D. H. GUSTAFSON FAMILY VINEYARDS, LLC",D.H. GUSTAFSON FAMILY VINEYARDS,9100 STEWARTS POINT SKAGGS SPRINGS RD,HEALDSBURG,CA,95448,SONOMA
CA-W-23434,"D. NOVY LEE, LLC",FLAUNT WINE COMPANY,851 MAGNOLIA DR,HEALDSBURG,CA,95448,SONOMA
CA-W-1936,DAN PETE TELDESCHI,F. TELDESCHI WINERY,3555 DRY CREEK RD,HEALDSBURG,CA,95448,SONOMA
CA-W-15298,"DAVERO SONOMA, INC.",DAVERO SONOMA,766 WESTSIDE RD,HEALDSBURG,CA,95448,SONOMA
CA-W-3434,DAVIS-LEHRMITAGE LLC,DAVIS-LEHRMITAGE,52 FRONT ST,HEALDSBURG,CA,95448,SONOMA
CA-W-20154,"DE LA MONTANYA WINERY, INC.",DE LA MONTANYA WINERY AND VINEYARDS,999 FOREMAN LN,HEALDSBURG,CA,95448,SONOMA
CA-W-22090,"DENNIS M., GARY M., JAMES M. AND LILLIAN E. KIMMEL",KIMMEL & SONS,499 MOORE LN,HEALDSBURG,CA,95448,SONOMA
CA-W-23190,"DEVOTO-WADE, LLC.",GOLDEN STATE CIDER,1451 GROVE ST,HEALDSBURG,CA,95448,SONOMA
CA-W-15802,"DIAMOND RIDGE ESTATE WINERY AND VINEYARDS, INC.",MALM CELLARS,119 W NORTH ST,HEALDSBURG,CA,95448,SONOMA
CA-W-23419,DOMAINE DUPUITS LLC,DUPUIS WINES,"25 HEALDSBURG AVE BLDG 20, 21, 30",HEALDSBURG,CA,95448,SONOMA
CA-W-1760,DOMAINE ST. GEORGE,,1141 GRANT AVE,HEALDSBURG,CA,95448,SONOMA
CA-W-22406,"DRAXTON WINE STORAGE, LLC",,1141 GRANT AVE,HEALDSBURG,CA,95448,SONOMA
CA-W-483,DRY CREEK VINEYARD INC.,DRY CREEK VINEYARD,3770 LAMBERT BRIDGE RD,HEALDSBURG,CA,95448,SONOMA
CA-W-21739,"E STRING CELLARS, LLC",CAPO CREEK WINERY,7171 W DRY CREEK RD,HEALDSBURG,CA,95448,SONOMA
CA-W-17752,E. & J. GALLO WINERY,J VINEYARDS & WINERY,11447 OLD REDWOOD HWY,HEALDSBURG,CA,95448,SONOMA
CA-W-1947,E. & J. GALLO WINERY,GALLO FAMILY VINEYARDS,3387 DRY CREEK RD,HEALDSBURG,CA,95448,SONOMA
CA-W-21292,E3 STRATEGIES LLC,ROADHOUSE WINES,121 W NORTH ST,HEALDSBURG,CA,95448,SONOMA
CA-W-22166,"ECO TERRENO WINES, INC.",ECO TERRENO WINES,2859 DRY CREEK RD,HEALDSBURG,CA,95448,SONOMA
CA-W-22701,"EIFRIG CELLARS, LLC",,1290 DRY CREEK RD,HEALDSBURG,CA,95448,SONOMA
CA-W-22062,EMMITT-SCORSONE WINES LLC,EMMITT SCORSONE WINES,1830 JAMESON RD,HEALDSBURG,CA,95448,SONOMA
CA-W-15469,"ERIK MILLER WINES, INC.",KOKOMO WINES,4791 DRY CREEK RD BLDG 9-C & 15,HEALDSBURG,CA,95448,SONOMA
CA-W-20149,ESTATE 1856 WINES LLC,ESTATE 1856 WINES,2859 DRY CREEK RD,HEALDSBURG,CA,95448,SONOMA
CA-W-23939,FANTASMA WINE COMPANY LLC,,435 W DRY CREEK RD,HEALDSBURG,CA,95448,SONOMA
CA-W-764,"FIELD STONE WINERY & VINEYARD, INC.",FIELD STONE WINERY,10075 HIGHWAY 128,HEALDSBURG,CA,95448,SONOMA
CA-W-21521,FIERI ENTERPRISES LLC,,52 FRONT ST,HEALDSBURG,CA,95448,SONOMA
CA-W-23898,"FOLEY FAMILY WINES, INC.",FERRARI-CARANO VINEYARDS & WINERY,8761 DRY CREEK RD,HEALDSBURG,CA,95448,SONOMA
CA-W-17480,"FOLEY FAMILY WINES, INC.",CHALK HILL ESTATE WINERY,10300 CHALK HILL RD,HEALDSBURG,CA,95448,SONOMA
CA-W-16566,FORTH DRY CREEK ESTATE LLC,FORTH VINEYARDS,5 FITCH ST UNIT B,HEALDSBURG,CA,95448,SONOMA
CA-W-23726,"FREERUN WINERY SERVICES, LLC",,499 MOORE LN,HEALDSBURG,CA,95448,SONOMA
CA-W-22336,"FRIEDEMAN WINES, LLC",FRIEDEMAN WINES,"25 HEALDSBURG AVE BLDG 20, 21, 30",HEALDSBURG,CA,95448,SONOMA
CA-W-21009,"FRONT PORCH FARM, LLC",,851 MAGNOLIA DR,HEALDSBURG,CA,95448,SONOMA
CA-W-16604,GARY RICHARD BRANHAM,BRANHAM ESTATE WINES,1141 GRANT AVE,HEALDSBURG,CA,95448,SONOMA
CA-W-3503,"GEORGE WINE COMPANY, LLC",GEORGE WINE COMPANY,10295 WESTSIDE RD,HEALDSBURG,CA,95448,SONOMA
CA-W-17524,"GF WINES, LLC",GARY FARRELL WINERY,10701 WESTSIDE RD,HEALDSBURG,CA,95448,SONOMA
CA-W-21171,"GONZAGUE & CLAIRE LURTON VINEYARDS, INC.",TRINITE WINERY,10603 CHALK HILL RD,HEALDSBURG,CA,95448,SONOMA
CA-W-23927,GOODACRE VINEYARDS LLC,GOODACRE VINEYARDS,1430 GROVE ST,HEALDSBURG,CA,95448,SONOMA
CA-W-22174,"GORE FAMILY VINEYARDS, LLC",GORE FAMILY VINEYARDS,119 W NORTH ST,HEALDSBURG,CA,95448,SONOMA
CA-W-21882,"GRAPESEED WINE FUND, LLC",,"25 HEALDSBURG AVE BLDG 20, 21, 30",HEALDSBURG,CA,95448,SONOMA
CA-W-16747,GRAPEWAGON CORPORATION,GRAPEWAGON CORP.,851 MAGNOLIA DR,HEALDSBURG,CA,95448,SONOMA
CA-W-20461,"GUADAGNI FAMILY WINES, LLC",GUADAGNI FAMILY WINES,1431 A&B GROVE ST,HEALDSBURG,CA,95448,SONOMA
CA-W-23581,"GWTS,LLC",SEI QUERCE,"435 W DRY CREEK RD BLDG A,B,C,E",HEALDSBURG,CA,95448,SONOMA
CA-W-16290,H.D.D. LLC,TRUETT HURST,5610 DRY CREEK RD,HEALDSBURG,CA,95448,SONOMA
CA-W-17768,"HAFNER VINEYARD, LLC",,4280 PINE FLAT RD,HEALDSBURG,CA,95448,SONOMA
CA-W-23336,"HALL WINES, LLC",HALL WINES,779 WESTSIDE RD,HEALDSBURG,CA,95448,SONOMA
CA-W-22282,"HANDAL-DENIER VINEYARDS, LLC",HANDAL-DENIER VINEYARDS,5 FITCH ST UNIT B,HEALDSBURG,CA,95448,SONOMA
CA-W-1992,HANNA WINERY INC.,,9280 HIGHWAY 128,HEALDSBURG,CA,95448,SONOMA
CA-W-21303,HAUCK CELLARS LLC,HAUCK CELLARS,999 FOREMAN LN,HEALDSBURG,CA,95448,SONOMA
CA-W-23326,"HAUS BEVERAGE, INC.",HAUS BEVERAGE,1337 GROVE ST STE D,HEALDSBURG,CA,95448,SONOMA
CA-W-21575,HBG WINE SERVICES LLC,,1430 GROVE ST,HEALDSBURG,CA,95448,SONOMA
CA-W-22039,"HEALDSBURG CUSTOM CRUSH, INC.",HEALDSBURG CUSTOM CRUSH,"25 HEALDSBURG AVE BLDG 20, 21, 30",HEALDSBURG,CA,95448,SONOMA
CA-W-21129,HERITAGE VINEYARDS OF NAPA LLC,,12707 OLD REDWOOD HWY,HEALDSBURG,CA,95448,SONOMA
CA-W-23590,HUNEEUS WINES LLC,FLOWERS VINEYARD AND WINERY,4035 WESTSIDE RD,HEALDSBURG,CA,95448,SONOMA
CA-W-16286,HUTCHINSON WINES INC.,AMPHORA WINERY,4791 DRY CREEK RD BLDG # 6,HEALDSBURG,CA,95448,SONOMA
CA-W-16040,I.S.R. VINEYARDS ASSOCIATION,MACLEOD FAMILY VINEYARD,2859 DRY CREEK RD,HEALDSBURG,CA,95448,SONOMA
CA-W-23369,"INTENT WINES, LLC",,10295 WESTSIDE RD,HEALDSBURG,CA,95448,SONOMA
CA-W-3028,"J. ROCHIOLI VINEYARD & WINERY, LLC",ROCHIOLI WINERY,6192 WESTSIDE RD,HEALDSBURG,CA,95448,SONOMA
CA-W-23082,J.VAN SANT WINES LLC,JACLYNN RENEE WINES,1290 DRY CREEK RD,HEALDSBURG,CA,95448,SONOMA
CA-W-22559,"JACKSON FAMILY WINES, INC.",,10075 HIGHWAY 128,HEALDSBURG,CA,95448,SONOMA
CA-W-22507,"JACKSON FAMILY WINES, INC.",COPAIN WINE CELLARS,7800 EASTSIDE RD,HEALDSBURG,CA,95448,SONOMA
CA-W-16490,"JACKSON FAMILY WINES, INC.",STONESTREET WINERY,7111 HIGHWAY 128,HEALDSBURG,CA,95448,SONOMA
CA-W-16491,"JACKSON FAMILY WINES, INC.",VERITE WINERY,4611 THOMAS RD,HEALDSBURG,CA,95448,SONOMA
CA-W-21112,"JACKSON FAMILY WINES, INC.",PARTAKE BY KJ,241 HEALDSBURG AVE,HEALDSBURG,CA,95448,SONOMA
CA-W-2291,JAMES F. FORCHINI AND ANITA K. FORCHINI,FORCHINI VINEYARDS AND WINERY,5141 DRY CREEK RD,HEALDSBURG,CA,95448,SONOMA
CA-W-3174,JOHN A. HOLDREDGE & CARRIE J. O'LOUGHLIN,HOLDREDGE WINES,51 FRONT ST,HEALDSBURG,CA,95448,SONOMA
CA-W-2321,"JOHN HAWLEY WINES, INC.",HAWLEY WINERY,6387 W DRY CREEK RD,HEALDSBURG,CA,95448,SONOMA
CA-W-21792,JOHN MICHAEL KOETZNER,CHATEAU LEAN-TO,376 W GRANT ST,HEALDSBURG,CA,95448,SONOMA
CA-W-16911,JOSEPH JEWELL WINES LLC,JOSEPH JEWELL WINES,10295 WESTSIDE RD,HEALDSBURG,CA,95448,SONOMA
CA-W-2894,"JPPZ, INC.",DEUX AMIS WINERY,1290 DRY CREEK RD,HEALDSBURG,CA,95448,SONOMA
CA-W-22415,JUSTIN VINEYARDS & WINERY LLC,LANDMARK VINEYARDS,6050 WESTSIDE RD,HEALDSBURG,CA,95448,SONOMA
CA-W-2020,JVW CORPORATION,JORDAN VINEYARD & WINERY,1474 ALEXANDER VALLEY RD,HEALDSBURG,CA,95448,SONOMA
CA-W-1824,KEITH A. MIETZ,MIETZ CELLARS,602 LIMERICK LN,HEALDSBURG,CA,95448,SONOMA
CA-W-23122,"KELSEY PHELPS WINES, LLC",,499 MOORE LN,HEALDSBURG,CA,95448,SONOMA
CA-W-15836,KENNETH D. SIMONCINI,SIMONCINI VINEYARDS,2307 W DRY CREEK,HEALDSBURG,CA,95448,SONOMA
CA-W-22379,KEVIN CASEY,FINNELLA CELLARS,25 HEALDSBURG AVE,HEALDSBURG,CA,95448,SONOMA
CA-W-1664,"KLEIN FOODS, INC.",RODNEY STRONG VINEYARDS,11455 OLD REDWOOD HWY,HEALDSBURG,CA,95448,SONOMA
CA-W-21153,"KOBLER ESTATE, LLC.",KOBLER ESTATE WINERY,"25 HEALDSBURG AVE BLDG 20,21 & 30",HEALDSBURG,CA,95448,SONOMA
CA-W-21404,"KOBLER ESTATE, LLC.",,107 W NORTH ST STE B,HEALDSBURG,CA,95448,SONOMA
CA-W-20599,"KSSM, LLC",MICHEL SCHLUMBERGER,4155 WINE CREEK RD,HEALDSBURG,CA,95448,SONOMA
CA-W-308,L. FOPPIANO WINE CO.,L. FOPPIANO WINE CO,12707 OLD REDWOOD HWY BLDG,HEALDSBURG,CA,95448,SONOMA
CA-W-1955,"LAMBERT BRIDGE WINERY, INC.",,4085 W DRY CREEK RD,HEALDSBURG,CA,95448,SONOMA
CA-W-22462,"LANCASTER ESTATE VINEYARD & WINERY, LLC",LANCASTER ESTATE,15001 CHALK HILL RD,HEALDSBURG,CA,95448,SONOMA
CA-W-17632,"LONGBOARD VINEYARDS, LLC",LONGBOARD VINEYARDS,5 FITCH ST,HEALDSBURG,CA,95448,SONOMA
CA-W-16157,LORI ANN TELDESCHI & RAYMOND GENE TELDESCHI,DEL CARLO WINERY,9611 W DRY CREEK RD,HEALDSBURG,CA,95448,SONOMA
CA-W-23866,LUSSIER WINE CO LLC,LUSSIER WINE CO,10295 WESTSIDE RD,HEALDSBURG,CA,95448,SONOMA
CA-W-15545,"LYTTON ROAD, LLC",MOJON'S BENCH,2859 DRY CREEK RD,HEALDSBURG,CA,95448,SONOMA
CA-W-21557,"M. DRAXTON, INC.",DRAXTON WINES,1431 A&B GROVE ST,HEALDSBURG,CA,95448,SONOMA
CA-W-2594,MADRONA PROPERTY COMPANY,STUHLMULLER VINEYARDS,4951 W SODA ROCK LN,HEALDSBURG,CA,95448,SONOMA
CA-W-22414,MANTRA WINE CELLARS,MANTRA WINE CELLARS,101 GRANT AVE UNIT H,HEALDSBURG,CA,95448,SONOMA
CA-W-2522,MARGARET J. WIERENGA,BROGAN CELLARS,3232 DRY CREEK RD,HEALDSBURG,CA,95448,SONOMA
CA-W-16082,"MARTORANA ENTERPRISES, LLC",,5956 W DRY CREEK RD,HEALDSBURG,CA,95448,SONOMA
CA-W-23399,"MASTER THE WORLD, INC",MASTER THE WORLD,12707 OLD REDWOOD HWY,HEALDSBURG,CA,95448,SONOMA
CA-W-21098,MATHEW HENRY GUSTAFSON,PAUL MATHEW COMPANY,10295 WESTSIDE RD,HEALDSBURG,CA,95448,SONOMA
CA-W-15939,"MATHY WINERY, LLC",DUTCHER CROSSING,8533 DRY CREEK RD,HEALDSBURG,CA,95448,SONOMA
CA-W-3465,MAURITSON FAMILY WINERY,,2859 DRY CREEK RD,HEALDSBURG,CA,95448,SONOMA
CA-W-15452,MAYO FAMILY WINERY,MAYO FAMILY WINERY,340 CENTER ST,HEALDSBURG,CA,95448,SONOMA
CA-W-3430,"MEDLOCK AMES VINTNERS, LLC",MEDLOCK AMES,13414 CHALK HILL RD,HEALDSBURG,CA,95448,SONOMA
CA-W-22426,"MENGLER FAMILY WINES, LLC",MENGLER FAMILY WINES,1290 DRY CREEK RD,HEALDSBURG,CA,95448,SONOMA
CA-W-2882,MICHAEL S. TALTY,TALTY WINERY,7127 DRY CREEK RD,HEALDSBURG,CA,95448,SONOMA
CA-W-926,MILL CREEK VINEYARDS,,1401 WESTSIDE RD,HEALDSBURG,CA,95448,SONOMA
CA-W-23752,MOLLDOLL LLC,ULLAGE WINES,851 MAGNOLIA DR,HEALDSBURG,CA,95448,SONOMA
CA-W-22296,"MORLEY WINERY, LLC",,435 W DRY CREEK RD,HEALDSBURG,CA,95448,SONOMA
CA-W-15257,"MOSHIN VINEYARDS, INC.",MOSHIN VINEYARDS,10295 WESTSIDE RD,HEALDSBURG,CA,95448,SONOMA
CA-W-15503,"MOUNTS FAMILY WINES, INC.",MOUNTS FAMILY WINES,3901 WINE CREEK RD,HEALDSBURG,CA,95448,SONOMA
CA-W-16737,"MUNSELLE VINEYARDS, LLC",MUNSELLE VINEYARDS,2859 DRY CREEK RD,HEALDSBURG,CA,95448,SONOMA
CA-W-3481,"MUTT LYNCH WINERY, INC.",MUTT LYNCH,11654 LOS AMIGOS RD,HEALDSBURG,CA,95448,SONOMA
CA-W-20085,"N&H WINES, LLC",TROUT STREET WINES,"25 HEALDSBURG AVE BLDG 20,21,& 30",HEALDSBURG,CA,95448,SONOMA
CA-W-21488,"NAKEDWINES.COM, INC.",NAKEDWINES.COM,499 MOORE LN,HEALDSBURG,CA,95448,SONOMA
CA-W-1768,"NALLE WINERY, INC.",NALLE WINERY,2385 DRY CREEK RD,HEALDSBURG,CA,95448,SONOMA
CA-W-22463,"NEXUS BRANDS, LLC",,499 MOORE LN,HEALDSBURG,CA,95448,SONOMA
CA-W-15738,NICKOLAI V. STEZ & ZINAIDA A. BOWER,WOODENHEAD VINTNERS,3291 WESTSIDE RD,HEALDSBURG,CA,95448,SONOMA
CA-W-17413,NORTH COAST VINEYARD SERVICES INC,SAPPHIRE HILL,51 FRONT ST SUITE A,HEALDSBURG,CA,95448,SONOMA
CA-W-23800,ORSI FAMILY VINEYARDS LLC,,2306 MAGNOLIA DR,HEALDSBURG,CA,95448,SONOMA
CA-W-21256,"OUSTERHOUT WINE, LLC",OUSTERHOUT WINE,10295 WESTSIDE RD,HEALDSBURG,CA,95448,SONOMA
CA-W-15326,"PAPAPIETRO AND PERRY, INC.",PAPAPIETRO PERRY WINERY,4791 DRY CREEK RD,HEALDSBURG,CA,95448,SONOMA
CA-W-21453,PARMESON FAMILY LLC,PARMESON WINES,2859 DRY CREEK RD,HEALDSBURG,CA,95448,SONOMA
CA-W-3596,"PASSALACQUA WINE GROUP, INC",,3805 LAMBERT BRIDGE RD,HEALDSBURG,CA,95448,SONOMA
CA-W-23986,"PEARCE FAMILY WINES, LLC",PEARCE FAMILY WINES,1830 JAMESON RD,HEALDSBURG,CA,95448,SONOMA
CA-W-21803,PERKINS & HARTER LLC,,3491 W DRY CREEK ROAD RD,HEALDSBURG,CA,95448,SONOMA
CA-W-3196,PETER R. & MARYBETH SMIDERLE,MONICLAIRE,1750 LYTTON SPRINGS RD,HEALDSBURG,CA,95448,SONOMA
CA-W-2182,"PETERSON WINERY, LLC",PETERSON WINERY,4791 DRY CREEK RD #7,HEALDSBURG,CA,95448,SONOMA
CA-W-16620,PHILLIP RICHARD MARCUCCI JR AND CHERI LEE MARCUCCI,MARCUCCI FARMS,25 HEALDSBURG AVE,HEALDSBURG,CA,95448,SONOMA
CA-W-21757,PINES PARTNERS LLC,GREGORY JAMES WINES,1290 DRY CREEK RD,HEALDSBURG,CA,95448,SONOMA
CA-W-15794,"PJK WINERY, LLC",QUIVIRA VINEYARDS,4900 W DRY CREEK RD,HEALDSBURG,CA,95448,SONOMA
CA-W-17456,"PORTER CREEK VINEYARDS, LLC",PORTER CREEK VINEYARDS,8757 WESTSIDE RD,HEALDSBURG,CA,95448,SONOMA
CA-W-1732,"PRESTON VINEYARDS, INC.",PRESTON FARM & WINERY,9206 W DRY CREEK RD,HEALDSBURG,CA,95448,SONOMA
CA-W-24048,"PROFESSIONS WINE COMPANY, LLC",SMOKEY ROBINSON WINES,"25 HEALDSBURG AVE BLDG 20,21,30",HEALDSBURG,CA,95448,SONOMA
CA-W-3254,"QUOVIUS, INC.","SALERNO HEALDSBURG ESTATE WINERY, D.O.M.",1441 GROVE ST STE B,HEALDSBURG,CA,95448,SONOMA
CA-W-22981,"R FIVE WINES, LLC",R FIVE WINES,1830 JAMESON RD,HEALDSBURG,CA,95448,SONOMA
CA-W-21844,"RALLY POINT WINES, LLC",RALLY POINT WINES,109 W NORTH ST,HEALDSBURG,CA,95448,SONOMA
CA-W-3248,"RAMEY WINE CELLARS, INC.",RAMEY WINE CELLARS,202 HAYDON ST,HEALDSBURG,CA,95448,SONOMA
CA-W-621,RANCHO SOTOYOME INCORPORATED,JOHNSON'S ALEXANDER VALLEY WINES,8333 STATE HIGHWAY 128,HEALDSBURG,CA,95448,SONOMA
CA-W-2770,RAYMOND E. & BONNIE E. GOEPFRICH,GOPFRICH,7564 W DRY CREEK RD,HEALDSBURG,CA,95448,SONOMA
CA-W-21461,"RB WINE ASSOCIATES, LLC",RACK & RIDDLE,499 & 451 MOORE LN,HEALDSBURG,CA,95448,SONOMA
CA-W-22976,REEVE WINES LLC,REEVE WINES,4551 DRY CREEK RD,HEALDSBURG,CA,95448,SONOMA
CA-W-22996,"RESIGN WINE, LLC",RESIGN WINE,435 W DRY CREEK RD,HEALDSBURG,CA,95448,SONOMA
CA-W-22859,"RICHARD S. GOETZ & COMPANY, INC.",RANCHO COYOTE VINEYARDS & WINERY,"25 HEALDSBURG AVE BLDG 20,21 & 30",HEALDSBURG,CA,95448,SONOMA
CA-W-17250,RICHARD WAYNE SCHULTZ AND MICHELLE TINSLEY SCHULTZ,HARDWOOD CELLARS,1401 WESTSIDE RD,HEALDSBURG,CA,95448,SONOMA
CA-W-1882,"RIDGE VINEYARDS, INC.",RIDGE VINEYARDS,650 LYTTON SPRINGS RD,HEALDSBURG,CA,95448,SONOMA
CA-W-22203,"RIPE LIFE WINES, LLC",,499 MOORE LN,HEALDSBURG,CA,95448,SONOMA
CA-W-23610,"RM2 CONSULTING, INC.",,499 MOORE LN,HEALDSBURG,CA,95448,SONOMA
CA-W-22486,RNGN LLC,ROALD WINE COMPANY,"25 HEALDSBURG AVE BLDG 20, 21, 30",HEALDSBURG,CA,95448,SONOMA
CA-W-1055,ROBERT A. CUTTER & DEBORAH A. CUTTER,DUXOUP WINE WORKS,9611 W DRY CREEK RD,HEALDSBURG,CA,95448,SONOMA
CA-W-22496,ROMIE LLC,OLIVERA WINES,10295 WESTSIDE RD,HEALDSBURG,CA,95448,SONOMA
CA-W-15557,"RUED WINERY, INC.",RUED WINERY,3850 DRY CREEK RD,HEALDSBURG,CA,95448,SONOMA
CA-W-23501,"SAINI - CHRISTIE WINES UNLIMITED, LLC",SAINI VINEYARDS,2503 DRY CREEK RD,HEALDSBURG,CA,95448,SONOMA
CA-W-17210,"SAN LORENZO WINERY, LLC",SAN LORENZO WINERY,3220 PASSALACQUA RD,HEALDSBURG,CA,95448,SONOMA
CA-W-22531,"SAN LORENZO WINERY, LLC",,404 CENTER ST,HEALDSBURG,CA,95448,SONOMA
CA-W-21955,"SEAMUS WINES, LLC",SEAMUS WINES,"25 HEALDSBURG AVE BLDG 20, 21, 30",HEALDSBURG,CA,95448,SONOMA
CA-W-3165,"SELBY ENTERPRISES, INC.",SELBY WINERY,"498 MOORE LN SUITE A, C",HEALDSBURG,CA,95448,SONOMA
CA-W-17320,"SHARE A SPLASH WINE CO., LLC",SHARE A SPLASH WINE CO.,499 MOORE LN,HEALDSBURG,CA,95448,SONOMA
CA-W-16553,SHIPPEY VINEYARDS LLC,SHIPPEY VINEYARDS,101 GRANT AVE UNIT F & G,HEALDSBURG,CA,95448,SONOMA
CA-W-22729,"SILVER OAK WINE CELLARS, LLC",SILVER OAK WINE CELLARS,3004 WESTSIDE RD,HEALDSBURG,CA,95448,SONOMA
CA-W-22737,"SILVER OAK WINE CELLARS, LLC",SILVER OAK WINE CELLARS,120 FOSS CREEK CIR,HEALDSBURG,CA,95448,SONOMA
CA-W-22727,"SILVER OAK WINE CELLARS, LLC",SILVER OAK WINE CELLARS,7300 HWY 128,HEALDSBURG,CA,95448,SONOMA
CA-W-21368,SLOAN FAMILY WINERY LLC,DUE RUSCELLI WINERY,994 LIMERICK LN,HEALDSBURG,CA,95448,SONOMA
CA-W-21397,"SONOMA BEVERAGE WORKS, INC.",,1451 GROVE ST,HEALDSBURG,CA,95448,SONOMA
CA-W-22360,"SONOMA BEVERAGE WORKS, INC.",,44 MILL ST UNIT E&F,HEALDSBURG,CA,95448,SONOMA
CA-W-21352,"SONOMA VALLEY VINEYARDS, INC",SANGIACOMO FAMILY WINES,851 MAGNOLIA DR,HEALDSBURG,CA,95448,SONOMA
CA-W-20004,"STARK WINE COMPANY, LLC",STARK WINE,441 HEALDSBURG AVE,HEALDSBURG,CA,95448,SONOMA
CA-W-23226,"STONECUSHION, INC.",COYOTE SONOMA,44 MILL ST UNIT F,HEALDSBURG,CA,95448,SONOMA
CA-W-17381,"STONECUSHION, INC.",SODA ROCK WINERY,8015 HIGHWAY 128,HEALDSBURG,CA,95448,SONOMA
CA-W-15455,"STONECUSHION, INC.",MAZZOCCO WINERY,1400 LYTTON SPRINGS RD,HEALDSBURG,CA,95448,SONOMA
CA-W-16766,"STONECUSHION, INC.",MATRIX WINERY,3291 WESTSIDE RD,HEALDSBURG,CA,95448,SONOMA
CA-W-17623,"STONECUSHION, INC.",PEZZI-KING,3225 W DRY CREEK RD,HEALDSBURG,CA,95448,SONOMA
CA-W-23471,"SUTRO WINE CO., LLC",,13414 CHALK HILL RD,HEALDSBURG,CA,95448,SONOMA
CA-W-23411,"TALTY WINERY, INC.",TALTY WINERY,7127 DRY CREEK RD,HEALDSBURG,CA,95448,SONOMA
CA-W-16729,"TANDEM WINES, LLC",,4900 W DRY CREEK RD,HEALDSBURG,CA,95448,SONOMA
CA-W-22179,"TBD CELLARS, LLC",BAILARIN CELLARS,11654 LOS AMIGOS RD,HEALDSBURG,CA,95448,SONOMA
CA-W-22803,"TESSIER WINERY, LLC",,25 HEALDSBURG AVE,HEALDSBURG,CA,95448,SONOMA
CA-W-15909,THE MEEKER VINEYARD,,5 FITCH ST UNIT B,HEALDSBURG,CA,95448,SONOMA
CA-W-3135,"THE VINEYARDS OF PATRICIA & PETER LENZ, LTD.",SLAUGHTERHOUSE WINERY,280 CHIQUITA RD,HEALDSBURG,CA,95448,SONOMA
CA-W-17030,THOMAS RAYMOND SIMONEAU AND BRENDA LEE SIMONEAU,SIMONEAU VINEYARDS,11654 LOS AMIGOS RD,HEALDSBURG,CA,95448,SONOMA
CA-W-21157,THRALLS FAMILY WINE LLC,,51 FRONT ST,HEALDSBURG,CA,95448,SONOMA
CA-W-2759,"TOAD HOLLOW VINEYARDS, INC.",TOAD HOLLOW,11455 OLD REDWOOD HWY,HEALDSBURG,CA,95448,SONOMA
CA-W-23405,TOM YOUNG & JOHN MUSTO,DRIVE WINES,1290 DRY CREEK RD,HEALDSBURG,CA,95448,SONOMA
CA-W-23789,TOMAQ WINES,,11654 LOS AMIGOS RD,HEALDSBURG,CA,95448,SONOMA
CA-W-2878,"TPWC, INC.",SIMI WINERY,16275 HEALDSBURG AVE,HEALDSBURG,CA,95448,SONOMA
CA-W-15744,"TRUST WINERY, LTD.",STEPHEN & WALKER,1500 GROVE ST,HEALDSBURG,CA,95448,SONOMA
CA-W-23108,TTG VENTURES LLC,FERREN,7011 WESTSIDE RD,HEALDSBURG,CA,95448,SONOMA
CA-W-21204,"TWO KINGS WINE COMPANY, LLC",CHRISTOPHER CREEK WINERY,641 LIMERICK LN,HEALDSBURG,CA,95448,SONOMA
CA-W-22365,"TWO WORLDS WINE COMPANY, LLC",INIZI WINES,5 FITCH ST,HEALDSBURG,CA,95448,SONOMA
CA-W-2434,"UNTI WINE COMPANY, LLC",,4202 DRY CREEK RD,HEALDSBURG,CA,95448,SONOMA
CA-W-24047,"VAN Z, LLLP",VAN Z WINES,"25 HEALDSBURG AVE BLDG 20, 21, 30",HEALDSBURG,CA,95448,SONOMA
CA-W-16336,VERITAS VENTURES LLC,VERITAS VENTURES,11654 LOS AMIGOS RD,HEALDSBURG,CA,95448,SONOMA
CA-W-16189,"VERSATILE VINES, LLC",BLAGDEN WINES,851 MAGNOLIA DR,HEALDSBURG,CA,95448,SONOMA
CA-W-23738,"VINESSE, LLC",VINESSE,499 MOORE LN,HEALDSBURG,CA,95448,SONOMA
CA-W-22334,"VINEYARD OF D & G PASTERICK, LLC",VINEYARD OF PASTERICK,3491 W DRY CREEK RD,HEALDSBURG,CA,95448,SONOMA
CA-W-23475,"VINTAGES, VINES AND WINE, LLC",CLARICE WINE COMPANY,851 MAGNOLIA DR,HEALDSBURG,CA,95448,SONOMA
CA-W-16153,"VINTERNATIONAL IMPORTS, LTD.",CRU VIN DOGS WINE GROUP,4155 WINE CREEK RD,HEALDSBURG,CA,95448,SONOMA
CA-W-17439,"VISZLAY VINEYARDS, LLC",VISZLAY VINEYARDS,851 LIMERICK LN,HEALDSBURG,CA,95448,SONOMA
CA-W-23450,"VOLPERT VINEYARDS, LLC",,7011 WESTSIDE RD,HEALDSBURG,CA,95448,SONOMA
CA-W-22720,WEST DRY CREEK ROAD PROPERTIES LLC,RAYMOND BURR VINEYARDS,8339 W DRY CREEK RD,HEALDSBURG,CA,95448,SONOMA
CA-W-20130,"WEST WINES, LLC",,1290 DRY CREEK RD,HEALDSBURG,CA,95448,SONOMA
CA-W-16449,"WESTSIDE WINERY, INC.",THOMAS GEORGE ESTATES,8075 WESTSIDE RD,HEALDSBURG,CA,95448,SONOMA
CA-W-2799,"WHITE OAK VINEYARDS & WINERY, LLC",WHITE OAK VINEYARDS & WINERY,7431 HIGHWAY 128,HEALDSBURG,CA,95448,SONOMA
CA-W-21630,WILLIAM JAMES WILLIAMSON,WILLIAMSON WINES,499 MOORE LN,HEALDSBURG,CA,95448,SONOMA
CA-W-23772,"WILLIAMS & SELYEM, LLC",WILLIAMS & SELYEM,6575 WESTSIDE RD,HEALDSBURG,CA,95448,SONOMA
CA-W-16429,"WINDACRE WEST, LLC",MERRIAM VINEYARDS,11654 LOS AMIGOS RD,HEALDSBURG,CA,95448,SONOMA
CA-W-23479,"WINDRACER, LLC",,7111 HIGHWAY 128,HEALDSBURG,CA,95448,SONOMA
CA-W-23270,WINE RETRIEVER LLC,SCOUT & CELLAR,5 FITCH ST UNIT B,HEALDSBURG,CA,95448,SONOMA
CA-W-23892,"WINESELLERS DIRECT, LLC",KIND OF WILD,499 MOORE LN,HEALDSBURG,CA,95448,SONOMA
CA-W-22854,WIRTH WINES & CO.,WIRTH WINES & CO.,10295 WESTSIDE RD,HEALDSBURG,CA,95448,SONOMA
CA-W-16258,WRH PARTNERS LLC,ALYSIAN WINES,1337 GROVE ST,HEALDSBURG,CA,95448,SONOMA
CA-W-3622,"YOAKIM BRIDGE WINERY, LLC",YOAKIM BRIDGE WINERY,7209 DRY CREEK RD,HEALDSBURG,CA,95448,SONOMA
CA-W-21448,"ZERO LINK MARKETS, INC.",WINSTON WINERY,11654 LOS AMIGOS RD,HEALDSBURG,CA,95448,SONOMA
CA-W-15559,"ZICHICHI FAMILY VINEYARD & WINERY, INC.",ZICHICHI FAMILY VINEYARD & WINERY,8626 W DRY CREEK RD,HEALDSBURG,CA,95448,SONOMA
CA-W-22957,ZO WINES LLC,ZO WINES,10295 WESTSIDE RD,HEALDSBURG,CA,95448,SONOMA
CA-W-22401,ZO WINES LLC,,3232 DRY CREEK RD,HEALDSBURG,CA,95448,SONOMA
CA-W-15317,RANDLE GENE JOHNSON,CALAFIA WINES,851 MAGNOLIA DR,HEALSDBURG,CA,95448,SONOMA
CA-W-16910,ARTHUR FICHTENBERG & ASSOCIATES,FICHTENBERG VINEYARDS,10200 SONOMA HWY,KENWOOD,CA,95452,SONOMA
CA-W-21827,"ARTISAN WINES OF CALIFORNIA, LLC",,233 ADOBE CANYON RD,KENWOOD,CA,95452,SONOMA
CA-W-24009,"BORDIGIONI FAMILY WINERY, LLC",BORDIGIONI FAMILY WINERY,10200 SONOMA HWY,KENWOOD,CA,95442,SONOMA
CA-W-3216,DEBORAH LEE MORTON,COLIN LEE VINEYARDS AND WINERY,1189 LAWNDALE RD,KENWOOD,CA,95452,SONOMA
CA-W-15159,DEERFIELD RANCH WINERY LLC,DEERFIELD RANCH WINERY,10200 SONOMA HWY,KENWOOD,CA,95452,SONOMA
CA-W-2571,"EB INVESTMENTS, LLC",EB WINERY,625 WARM SPRINGS RD,KENWOOD,CA,95452,SONOMA
CA-W-16372,HAYWOOD WINE COMPANY,HAYWOOD WINERY,10200 SONOMA HWY,KENWOOD,CA,95452,SONOMA
CA-W-16079,HENRY ROSARIO BELMONTE,VJB VINEYARDS & CELLARS,7277 SONOMA HWY,KENWOOD,CA,95409,SONOMA
CA-W-23773,"IDLE CELLARS, LLC",IDLE CELLARS,10200 SONOMA HWY,KENWOOD,CA,95452,SONOMA
CA-W-23608,JOHN ROSS STOREY,STOREY WINE GROUP,10200 SONOMA HIGHWAY HWY,KENWOOD,CA,95452,SONOMA
CA-W-20176,JUSTIN VINEYARDS & WINERY LLC,LANDMARK VINEYARDS,101 ADOBE CANYON RD,KENWOOD,CA,95452,SONOMA
CA-W-1759,"KUNDE ENTERPRISES, INC.",KUNDE FAMILY WINERY,9825 SONOMA HWY,KENWOOD,CA,95452,SONOMA
CA-W-22826,LIFE IS SHORT! LLC,HAND OF GOD WINES,10200 SONOMA HWY,KENWOOD,CA,95452,SONOMA
CA-W-22471,"MANZANITA GROVE, LLC",MANZANITA GROVE WINERY,10300 HWY. 12 HWY,KENWOOD,CA,95452,SONOMA
CA-W-15725,MUSCARDINI CELLARS LLC,MUSCARDINI CELLARS,10200 SONOMA HWY,KENWOOD,CA,95452,SONOMA
CA-W-23533,PERNOD RICARD KENWOOD HOLDING LLC,KENWOOD VINEYARDS,8555 SONOMA HWY,KENWOOD,CA,95452,SONOMA
CA-W-1852,"SIMON LEVI COMPANY, LTD.",SL CELLARS,10200 SONOMA HWY,KENWOOD,CA,95452,SONOMA
CA-W-16682,STEPHEN ASHTON,ASHTON VINEYARDS,10200 SONOMA HWY,KENWOOD,CA,95452,SONOMA
CA-W-24008,STEVE AND CANDACE SOMMER,DRY CREEK FLOWER CO.,10200 SONOMA HWY,KENWOOD,CA,95442,SONOMA
CA-W-21036,"STONECUSHION, INC.",ST. ANNE'S CROSSING,8450 SONOMA HWY,KENWOOD,CA,95452,SONOMA
CA-W-22997,THE HONEY WINE COMPANY LLC,WANCHA WINES,10200 SONOMA HWY,KENWOOD,CA,95452,SONOMA
CA-W-21139,TOPOLOS VINEYARDS LLC,TOPOLOS VINEYARDS,10200 SONOMA HWY,KENWOOD,CA,95452,SONOMA
CA-W-637,TREASURY WINE ESTATES AMERICAS COMPANY,,8555 SONOMA HWY,KENWOOD,CA,95452,SONOMA
CA-W-21294,VJB LLC,VJB VINEYARDS & CELLARS,60 SHAW AVE,KENWOOD,CA,95452,SONOMA
CA-W-22632,"STUDIO BEVERAGE GROUP, INC.",NAPA WINE CELLAR,2545 NAPA VALLEY CORPORATE DR STE C,NAPA,CA,94558,SONOMA
CA-W-22731,"ACRE AND SPADE, LLC",,111 GOODWIN AVE STE B,PENNGROVE,CA,94951,SONOMA
CA-W-23454,"COLIN AND CHRISTINA, LLC",COLIN AND CHRISTINA,111 GOODWIN AVE,PENNGROVE,CA,94951,SONOMA
CA-W-23546,"DENMAN RANCH, LLC",DENMAN RANCH,111 GOODWIN AVE,PENNGROVE,CA,94951,SONOMA
CA-W-22725,"SONOMA APERITIF, LLC",SONOMA APERITIF,111 GOODWIN AVE,PENNGROVE,CA,94951,SONOMA
CA-W-17023,"BARRY SINGER GALLERY, INC",SINGER CELLARS,833 CHILENO VALLEY RD,PETALUMA,CA,94952,SONOMA
CA-W-23694,"BDV 500, LLC",,5875 LAKEVILLE HWY,PETALUMA,CA,94954,SONOMA
CA-W-23673,"BROOKS NOTE WINES, LLC",BROOKS-NOTE WINERY,426 PETALUMA BLVD N,PETALUMA,CA,94952,SONOMA
CA-W-15336,"BUCKLER FAMILY VINEYARDS, LLC",ADOBE ROAD WINERY,1995 S MCDOWELL BLVD EXT,PETALUMA,CA,94954,SONOMA
CA-W-2977,"CORDA WINERY, INC.",CORDA WINERY,833 CHILENO VALLEY RD,PETALUMA,CA,94952,SONOMA
CA-W-22165,"CRUSE WINE COMPANY, LLC",,1003 CLEGG CT STE C & D,PETALUMA,CA,94954,SONOMA
CA-W-21355,"CRUSE WINE COMPANY, LLC",,1240 HOLM RD,PETALUMA,CA,94954,SONOMA
CA-W-23887,CURATION FOODS INC,,1997 S MCDOWELL BLVD,PETALUMA,CA,94954,SONOMA
CA-W-23201,GOAT ROCK CIDER COMPANY LLC,GOAT ROCK CIDER COMPANY LLC,1364 N MCDOWELL BLVD UNIT 24,PETALUMA,CA,94954,SONOMA
CA-W-23753,GRIFFO DISTILLERY LLC,GRIFFO DISTILLERY,1320 SCOTT ST STE A AND B,PETALUMA,CA,94954,SONOMA
CA-W-16519,KAMAL YOUSSEFI AZARI AND PARICHEHER AZARI,AZARI WINERY,1399 SPRING HILL RD,PETALUMA,CA,94952,SONOMA
CA-W-2817,KELLER ESTATE LTD.,KELLER ESTATE WINERY,5875 LAKEVILLE HWY,PETALUMA,CA,94954,SONOMA
CA-W-16602,"MCEVOY OF MARIN, LLC",MCEVOY RANCH,5935 RED HILL RD,PETALUMA,CA,94952,SONOMA
CA-W-2664,MURRAY'S CYDER LLC,,2200 PINE VIEW WAY SUITE C,PETALUMA,CA,94954,SONOMA
CA-W-22762,NATURAL SELECTIONS 357 LLC,,1240 HOLM RD STE B,PETALUMA,CA,94954,SONOMA
CA-W-23699,PARUM LEO WINE LLC,PARUM LEO WINE,4415 KASTANIA RD,PETALUMA,CA,94952,SONOMA
CA-W-20058,RE:WINED LLC,SONOMA VALLEY PORTWORKS,613 2ND ST,PETALUMA,CA,94952,SONOMA
CA-W-22895,REIS RANCH PRODUCTIONS INC.,REIS RIVER RANCH VINEYARDS,4867 PETALUMA BLVD S,PETALUMA,CA,94952,SONOMA
CA-W-23167,"RUSSE WINE PARTNERS, LLC",,5875 CANNON LN,PETALUMA,CA,94954,SONOMA
CA-W-16512,"SALTONSTALL ESTATE COMPANY, LLC",SALTONSTALL ESTATE,2805 SPRING HILL RD,PETALUMA,CA,94952,SONOMA
CA-W-23431,VINE SUPPLY LLC,,3066 ADOBE RD,PETALUMA,CA,94954,SONOMA
CA-W-16288,FLOYD-PISONI WINE COMPANY,BACCHANT WINES,607 MARTIN AVE SUITES 102,ROHNERT PARK,CA,94928,SONOMA
CA-W-21473,"RAVE VINES & WINES, LLC",RAVE VINES & WINES,"607 MARTIN AVE STE 102, 109, 111",ROHNERT PARK,CA,94928,SONOMA
CA-W-21463,"RAVE-PISONI, LLC",RAVE-PISONI,607 MARTIN AVE STE 109 & 111,ROHNERT PARK,CA,94928,SONOMA
CA-W-22344,"SONS OF BACCHUS, LLC",SONS OF BACCHUS,"607 MARTIN AVE STE 102, 109 & 111",ROHNERT PARK,CA,94928,SONOMA
CA-W-22132,"A W DIRECT, LLC",AWDIRECT,980 AIRWAY CT BLDG 2,SANTA ROSA,CA,95403,SONOMA
CA-W-22843,"A. VILORIA WINERY, INC.",,4889 GRANGE RD,SANTA ROSA,CA,95404,SONOMA
CA-W-22891,"AGATHON HOLDINGS GP, LLC",,6705 CRISTO LN,SANTA ROSA,CA,95409,SONOMA
CA-W-23008,ALAN BRENT KENNEDY,ADRON WINES,4889 GRANGE RD,SANTA ROSA,CA,95404,SONOMA
CA-W-16281,"AMPLIFIED WINES, LLC",AMPLIFIED WINES,3360 COFFEY LN SUITE E,SANTA ROSA,CA,95403,SONOMA
CA-W-23607,"AMRITA CELLARS, LLC",AMRITA CELLARS,3360 COFFEY LN STE E,SANTA ROSA,CA,95403,SONOMA
CA-W-23989,ANNADEL ESTATE WINERY & FLOWERS LLC,ANNADEL ESTATE WINERY,6687 SONOMA HWY,SANTA ROSA,CA,95409,SONOMA
CA-W-22205,"ANNADEL VINEYARD PARTNERS (DE), LLC",WESTWOOD WINERY,6705 CRISTO LN,SANTA ROSA,CA,95409,SONOMA
CA-W-17408,ANTHONY JACK SCHROTH,PREMONITION CELLARS,3360 E COFFEY LN STE E,SANTA ROSA,CA,95403,SONOMA
CA-W-22749,ARROWHEAD MOUNTAIN WINERY CORPORATION,ARROWHEAD MOUNTAIN WINERY,3451 AIRWAY DR STE C,SANTA ROSA,CA,95403,SONOMA
CA-W-17039,"ATELIER-COPAIN, LLC",PUNCHDOWN CELLARS,1160 HOPPER AVE,SANTA ROSA,CA,95403,SONOMA
CA-W-20128,"AUGUST BRIGGS JR., INC.",AUGUST BRIGGS WINERY,3358 COFFEY LN UNIT D,SANTA ROSA,CA,95403,SONOMA
CA-W-23380,BEEHAVE WINERY LLC,BEEHAVE WINES,3354 COFFEY LN STE A,SANTA ROSA,CA,95403,SONOMA
CA-W-22611,"BENNETT RIDGE VINEYARDS, LLC",,6320 JAMISON RD,SANTA ROSA,CA,95404,SONOMA
CA-W-16570,BENOVIA WINERY LLC,BENOVIA WINERY,3339 HARTMAN LN,SANTA ROSA,CA,95401,SONOMA
CA-W-23134,BIRDHORSE WINES LLC,BIRDHORSE WINES,1160 HOPPER AVE,SANTA ROSA,CA,95403,SONOMA
CA-W-21970,BLACK KNIGHT CELLARS LLC,SHATTERCANE,4889 GRANGE RD,SANTA ROSA,CA,95404,SONOMA
CA-W-21643,"BLUE SKY VINTNERS, LLC",LAUREL GLEN VINEYARDS,1160 HOPPER AVE,SANTA ROSA,CA,95403,SONOMA
CA-W-17445,"BLUE SKY VINTNERS, LLC",LAUREL GLEN VINEYARDS,6609 SONOMA MOUNTAIN RD,SANTA ROSA,CA,95404,SONOMA
CA-W-22324,"BRAVERY BRANDS, LLC",,3360 COFFEY LN STE E,SANTA ROSA,CA,95403,SONOMA
CA-W-22779,BRICOLEUR VINEYARDS LLC,BRICOLEUR VINEYARDS,1160 HOPPER AVE,SANTA ROSA,CA,95403,SONOMA
CA-W-22230,BRIGHT CELLARS INC.,BRIGHT CELLARS,980 AIRWAY CT BLDG 2,SANTA ROSA,CA,95403,SONOMA
CA-W-17718,BUGAY FAMILY LIMITED PARTNERSHIP,BUGAY WINES,1160 HOPPER AVE,SANTA ROSA,CA,95403,SONOMA
CA-W-22186,"BWSC, LLC",WINC,1160 HOPPER AVE,SANTA ROSA,CA,95403,SONOMA
CA-W-1341,"C AND C WINE SERVICES, INC.",HOOK AND LADDER WINERY,2134 OLIVET RD,SANTA ROSA,CA,95401,SONOMA
CA-W-16057,CALLUNA VINEYARDS LLC,CALLUNA VINEYARDS,3358 COFFEY LN STE D,SANTA ROSA,CA,95403,SONOMA
CA-W-21536,CAPTURE WINES LLC,,1160 HOPPER AVE,SANTA ROSA,CA,95403,SONOMA
CA-W-22965,"CARYQ WINES, LLC",CARYQ WINES,1160 HOPPER AVE,SANTA ROSA,CA,95403,SONOMA
CA-W-16974,CELLAR RAT CELLARS LLC,CARTOGRAPH,1160 HOPPER AVE,SANTA ROSA,CA,95403,SONOMA
CA-W-16439,"CHAISE VENTURES, INC.",,3358 COFFEY LANE,SANTA ROSA,CA,95403,SONOMA
CA-W-23012,CHARLES & KERRI F. VAU,COX VINEYARDS,1160 HOPPER AVE,SANTA ROSA,CA,95403,SONOMA
CA-W-22621,"CHENOWETH WINE GROUP, INC.",CHENOWETH WINE GROUP,1160 HOPPER AVE,SANTA ROSA,CA,95403,SONOMA
CA-W-22836,"CONETECH II, INC.",,1450 AIRPORT BLVD STE 180,SANTA ROSA,CA,95403,SONOMA
CA-W-16245,"COPELAND CREEK VINEYARDS, LLC",PFENDLER VINEYARDS,1160 HOPPER AVE,SANTA ROSA,CA,95403,SONOMA
CA-W-21897,CORTERIVA VINEYARDS LLC,,3336 INDUSTRIAL DR,SANTA ROSA,CA,95403,SONOMA
CA-W-15109,"D'ARGENZIO WINERY, INC.",D'ARGENZIO WINERY,1301-A CLEVELAND AVE,SANTA ROSA,CA,95401,SONOMA
CA-W-16333,"DAMSKEY FAMILY WINES, LLC",PALMERI WINES,2191 LAGUNA RD,SANTA ROSA,CA,95401,SONOMA
CA-W-24005,DANLIN CORPORATION,FRANKLIN SON PERE,1160 HOPPER AVE,SANTA ROSA,CA,95403,SONOMA
CA-W-22871,DEWEY'S WINES LLC,,3354 COFFEY LN STE A,SANTA ROSA,CA,95403,SONOMA
CA-W-21740,"DIALECT WINES, LLC",,3360 COFFEY LN STE E,SANTA ROSA,CA,95403,SONOMA
CA-W-21012,"DIRTY AND ROWDY WINE COMPANY, LLC",DIRTY AND ROWDY FAMILY WINE COMPANY,6705 CRISTO LN,SANTA ROSA,CA,95409,SONOMA
CA-W-23558,DOMAINE CO.,,6705 CRISTO LN,SANTA ROSA,CA,95409,SONOMA
CA-W-23089,DOMAINE DELLA DALE LLC,DOMAINE DELLA,3358 COFFEY LN STE D,SANTA ROSA,CA,95401,SONOMA
CA-W-3013,"DONELAN FAMILY WINE CELLARS, LLC",DONELAN FAMILY WINE CELLARS,3352 COFFEY LN,SANTA ROSA,CA,95403,SONOMA
CA-W-23070,DUSTY RIVERVIEW CELLARS,LUCKY ROCK WINE COMPANY,3354 COFFEY LN STE A,SANTA ROSA,CA,95403,SONOMA
CA-W-2612,"DUTTON-GOLDFIELD WINERY, LLC",DUTTON GOLDFIELD,4055 W OLIVET RD,SANTA ROSA,CA,95401,SONOMA
CA-W-15773,DYLAN DAVID SHELDON AND TOBE SHELDON,SHELDON WINES,3360 COFFEY LN SUITE E,SANTA ROSA,CA,95403,SONOMA
CA-W-22021,"EIFRIG CELLARS, LLC",,3451 AIRWAY DR STE C,SANTA ROSA,CA,95403,SONOMA
CA-W-21358,"ELV HOLDINGS, INC.",EVENING LAND & VINEYARD,1160 HOPPER AVE,SANTA ROSA,CA,95403,SONOMA
CA-W-15694,"ERIC KENT WINE CELLARS, LLC",ERIC KENT WINE CELLARS,1160 HOPPER AVE,SANTA ROSA,CA,95403,SONOMA
CA-W-23874,"ESTCRU, LLC",,1160 HOPPER AVE,SANTA ROSA,CA,95403,SONOMA
CA-W-22046,EXPERIENCE WINES LLC,,981 AIRWAY CT STE A,SANTA ROSA,CA,95403,SONOMA
CA-W-22161,FERNRAY LLC,,6860 SERENITY WAY,SANTA ROSA,CA,95404,SONOMA
CA-W-2519,FISHER VINEYARDS,,6200 ST HELENA RD,SANTA ROSA,CA,95404,SONOMA
CA-W-15162,FORT ROSS VINEYARD & WINERY LLC,FORT ROSS VINEYARD & WINERY,3354 COFFEY LN SUITE A,SANTA ROSA,CA,95403,SONOMA
CA-W-1868,FRANE FRANICEVIC,SUNCE' WINERY,1839 OLIVET RD,SANTA ROSA,CA,95401,SONOMA
CA-W-15655,FREDERICK J NUNES,ST. ROSE WINERY,5775 OLD REDWOOD HWY,SANTA ROSA,CA,95403,SONOMA
CA-W-16785,"FROSTWATCH VINEYARD & WINERY, LLC",FROSTWATCH VINEYARD & WINERY,3358 COFFEY LN,SANTA ROSA,CA,95404,SONOMA
CA-W-3275,"GAMBA VINEYARDS AND WINERY, LLC",,3360 COFFEY LN STE E,SANTA ROSA,CA,95403,SONOMA
CA-W-16643,"GANN FAMILY VINEYARDS, INC.",GANN FAMILY CELLARS,4545 THOMAS LAKE HARRIS DR,SANTA ROSA,CA,95403,SONOMA
CA-W-21595,"GARAGISTE CELLARS, LLC",BURT STREET CELLARS,6705 CRISTO LN,SANTA ROSA,CA,95409,SONOMA
CA-W-16291,"GARCIA FAMILY VINEYARDS, INC.",GARCIA FAMILY VINEYARDS,3354 COFFEY LN,SANTA ROSA,CA,95403,SONOMA
CA-W-16028,"GB WINES, LLC",BJORNSTAD CELLARS,3358 COFFEY LN,SANTA ROSA,CA,95403,SONOMA
CA-W-2252,GIUSEPPE J. BATTAGLINI,BATTAGLINI WINERY & VINEYARD,2948 PINER RD,SANTA ROSA,CA,95401,SONOMA
CA-W-20609,"GRACIANNA, INC.",GRACIANNA WINERY,3358 COFFEY LN UNIT D,SANTA ROSA,CA,95403,SONOMA
CA-W-23585,"GRAMMS VINEYARD, LLC",,209 PLEASANT AVE,SANTA ROSA,CA,95403,SONOMA
CA-W-17562,"GRANT FAMILY WINES, LLC",COULOIR WINES,3358 COFFEY LN STE D,SANTA ROSA,CA,95403,SONOMA
CA-W-22242,GREYSTACK WINERY PARTNERS LLC,,1160 HOPPER AVE,SANTA ROSA,CA,95403,SONOMA
CA-W-17545,H.D.D. LLC,VML RUSSIAN RIVER WINERY,6705 SONOMA HWY,SANTA ROSA,CA,95409,SONOMA
CA-W-22799,HALCYON WINES LLC,HALCYON WINES,1160 HOPPER AVE,SANTA ROSA,CA,95403,SONOMA
CA-W-17478,"HALL WINES, LLC",ROESSLER WINES,1160 HOPPER AVE,SANTA ROSA,CA,95403,SONOMA
CA-W-1368,HANNA WINERY INC.,,5345 OCCIDENTAL RD,SANTA ROSA,CA,95401,SONOMA
CA-W-23987,HARROW CELLARS,SOJOURN CELLARS,3358 COFFEY LN UNIT D,SANTA ROSA,CA,95403,SONOMA
CA-W-3382,"HARVEST MOON VINEYARDS AND INVESTMENTS, LLC",,2196 OLIVET RD,SANTA ROSA,CA,95401,SONOMA
CA-W-16181,HAUCK CELLARS LLC,HAUCK CELLARS,1160 HOPPER AVE,SANTA ROSA,CA,95403,SONOMA
CA-W-23001,HAWK HILL LLC,ADELAIDE THOMAS WINERY,5325 CORRICK RD,SANTA ROSA,CA,95409,SONOMA
CA-W-17499,"HAYES & COMPANY, LLC",COSA OBRA WINES,1160 HOPPER AVE,SANTA ROSA,CA,95403,SONOMA
CA-W-22856,HECKA GOODS LLC,,3358 COFFEY LN STE D,SANTA ROSA,CA,95403,SONOMA
CA-W-22800,"HENRY DAVID VINEYARDS, LLC",,1160 HOPPER AVE,SANTA ROSA,CA,95403,SONOMA
CA-W-15050,HENRY ROSARIO BELMONTE,VJB VINEYARDS & CELLARS,237 TODD RD SUITE 103,SANTA ROSA,CA,95401,SONOMA
CA-W-17642,"HORSE & PLOW, INC.",HORSE & PLOW,1160 HOPPER AVE,SANTA ROSA,CA,95403,SONOMA
CA-W-23745,INMAN FAMILY WINES LLC,,5700 OCCIDENTAL RD,SANTA ROSA,CA,95401,SONOMA
CA-W-15482,INMAN FAMILY WINES LLC,,2191 LAGUNA RD SUITE B,SANTA ROSA,CA,95401,SONOMA
CA-W-17024,INMAN FAMILY WINES LLC,,3900 PINER RD,SANTA ROSA,CA,95401,SONOMA
CA-W-16407,J. IMBIMBO FAMILY WINERY INC.,J. IMBIMBO FAMILY WINERY,3134 COFFEY LN,SANTA ROSA,CA,95403,SONOMA
CA-W-16492,"JACKSON FAMILY WINES, INC.",MATANZAS CREEK,6097 BENNETT VALLEY RD,SANTA ROSA,CA,95404,SONOMA
CA-W-2202,"JACKSON FAMILY WINES, INC.",KENDALL-JACKSON,5620 SKYLANE BLVD,SANTA ROSA,CA,95403,SONOMA
CA-W-17251,JAMES MICHAEL COWAN,COWAN CELLARS,3358 COFFEY LN STE D,SANTA ROSA,CA,95403,SONOMA
CA-W-21634,JANET K. HART,ARBOR BENCH VINEYARDS,3358 COFFEY LN STE D,SANTA ROSA,CA,95403,SONOMA
CA-W-3024,JC CELLARS,,3033 COFFEY LN SUITE D,SANTA ROSA,CA,95403,SONOMA
CA-W-23309,"JEAN CLAUDE BOISSET WINES USA, INC.",,1791 OLIVET RD,SANTA ROSA,CA,95401,SONOMA
CA-W-21599,JEFFERY E. GAFFNER,SAXON BROWN,1160 HOPPER AVE,SANTA ROSA,CA,94503,SONOMA
CA-W-22539,JENNIFER JULIE REICHARDT,RAFT WINES,1160 B HOPPER AVE,SANTA ROSA,CA,95403,SONOMA
CA-W-21482,JENNIFER MAREE HARDCASTLE AND JAMES MICHAEL LARSEN,LITTLE RED VINEYARD,3360 COFFEY LN STE E,SANTA ROSA,CA,95403,SONOMA
CA-W-17378,"JIGAR PATEL WINES, INC.",JIGAR WINES,5700 OCCIDENTAL RD,SANTA ROSA,CA,95401,SONOMA
CA-W-21750,JOHN ENFIELD LOCKWOOD,ENFIELD WINE CO.,1160 HOPPER AVE,SANTA ROSA,CA,95403,SONOMA
CA-W-3494,JON BRIAN PHILLIPS,INSPIRATION VINEYARDS AND WINERY,3360 COFFEY LN STE E,SANTA ROSA,CA,95403,SONOMA
CA-W-21735,JOON S MOON,MOONSTAR WINERY,5580 ALPINE RD,SANTA ROSA,CA,95404,SONOMA
CA-W-16062,"KB CELLARS, LLC",KB CELLARS,400 TESCONI CIR SUITE D1,SANTA ROSA,CA,95401,SONOMA
CA-W-15405,KENNETH SCOTT LIKITPRAKONG,THE HOBO WINE COMPANY,412 TIMOTHY RD SUITE C,SANTA ROSA,CA,95407,SONOMA
CA-W-16762,"KRUTZ FAMILY CELLARS, LLC",KRUTZ FAMILY CELLARS,3354 COFFEY LN STE A,SANTA ROSA,CA,95403,SONOMA
CA-W-21807,"LAGOSTA WINE CO., LLC",ALDENALLI,3358 D COFFEY LN,SANTA ROSA,CA,95403,SONOMA
CA-W-2970,"LAGUNA OAKS VINEYARDS & WINERY, INC.",BALLETTO VINEYARDS,5700 OCCIDENTAL RD,SANTA ROSA,CA,95401,SONOMA
CA-W-21267,"LATTANZIO FAMILY WINERY, LLC",,3358 COFFEY LN,SANTA ROSA,CA,95403,SONOMA
CA-W-22770,"LEONARD WINE COMPANY, LLC",LEONARD WINE COMPANY,6705 CRISTO LN,SANTA ROSA,CA,95409,SONOMA
CA-W-16370,"LIOCO WINE COMPANY, LLC",LIOCO WINE COMPANY,1160 HOPPER AVE,SANTA ROSA,CA,95403,SONOMA
CA-W-23758,"LION NATHAN USA, INC.",MACROSTIE WINERY,3354 COFFEE LN STE A,SANTA ROSA,CA,95403,SONOMA
CA-W-22694,LOCANDA WINES LLC,,6705 CRISTO LN,SANTA ROSA,CA,95409,SONOMA
CA-W-17128,"LULA CELLARS, LLC",LULA CELLARS,6705 SONOMA HWY,SANTA ROSA,CA,95409,SONOMA
CA-W-16681,"LUTEA WINE CELLARS, INC.",LUTEA,1160 HOPPER AVE,SANTA ROSA,CA,95403,SONOMA
CA-W-23656,M2 TALENT INCORPORATED,SHATTERCANE,4889 GRANGE RD,SANTA ROSA,CA,95404,SONOMA
CA-W-3107,"MARTIN RAY WINERY, INC",M. RAY WINERY,2191 LAGUNA RD STE C,SANTA ROSA,CA,95401,SONOMA
CA-W-21119,MASCARIN FAMILY ESTATES LLC,32 WINDS WINE,1160 HOPPER AVE,SANTA ROSA,CA,95403,SONOMA
CA-W-22743,"MBB WINES, LLC",BN WINES,6705 CRISTO LN,SANTA ROSA,CA,95409,SONOMA
CA-W-17315,MCDONOUGH WINERY LLC,WREN HOP VINEYARDS,1160 HOPPER AVE,SANTA ROSA,CA,95403,SONOMA
CA-W-17419,"MCINTYRE VINEYARDS, INC.",MCINTYRE VINEYARDS,1160 HOPPER AVE,SANTA ROSA,CA,95403,SONOMA
CA-W-22459,MERSENNE WINES INC.,,3360 COFFEY LN STE E,SANTA ROSA,CA,95403,SONOMA
CA-W-16445,"MIXED NUTS, LLC",ARGOT WINES,3358 COFFEY LN,SANTA ROSA,CA,95403,SONOMA
CA-W-17321,"MJ LORDS WINE CELLARS, LLC",MJ LORDS WINE CELLARS,1319 CENTRAL AVE UNIT D,SANTA ROSA,CA,95401,SONOMA
CA-W-21369,"MOONRIDGE VINEYARD, LLC",,6705 CRISTO LN,SANTA ROSA,CA,95409,SONOMA
CA-W-20267,MORGADO CELLARS LLC,MORGADO CELLARS,3358 D COFFEY LN,SANTA ROSA,CA,95403,SONOMA
CA-W-15783,"MORLEY WINERY, LLC",FLANAGAN FAMILY VINEYARDS,6860 SERENITY WAY,SANTA ROSA,CA,95404,SONOMA
CA-W-22969,"MUSALACON WINE GROUP, LLC",REYNOSO FAMILY VINEYARDS,6705 CRISTO LN,SANTA ROSA,CA,95409,SONOMA
CA-W-20407,"MUTT LYNCH WINERY, INC.",MUTT LYNCH WINERY,3451 AIRWAY DR STE C,SANTA ROSA,CA,95403,SONOMA
CA-W-23310,NOBLE FAMILY VINEYARDS LLC,NOBLE FAMILY VINEYARDS,5700 OCCIDENTAL RD,SANTA ROSA,CA,95401,SONOMA
CA-W-15402,"ODISEA WINE COMPANY, LLC",ODISEA WINE COMPANY,6705 CRISTO LN,SANTA ROSA,CA,95409,SONOMA
CA-W-2008,PARADISE RIDGE WINERY,,4545 THOMAS LAKE HARRIS DR,SANTA ROSA,CA,95403,SONOMA
CA-W-23566,PARADISE RIDGE WINERY,PARADISE RIDGE WINERY,4055 W OLIVET RD,SANTA ROSA,CA,95401,SONOMA
CA-W-23686,PATRICK J TROVATO III,ASKEW WINERY,1160 HOPPER AVE,SANTA ROSA,CA,95403,SONOMA
CA-W-23091,PAUL ANTHONY GORDON,HALCON VINEYARDS,1160 HOPPER AVE,SANTA ROSA,CA,95403,SONOMA
CA-W-1985,"PELLEGRINI BROS. WINES, INC.",PELLEGRINI FAMILY VINEYARDS AND WINERY,4055 W OLIVET RD,SANTA ROSA,CA,95401,SONOMA
CA-W-21295,PELLEGRINI RANCHES,PELLEGRINI RANCHES,4055 W OLIVET RD,SANTA ROSA,CA,95401,SONOMA
CA-W-22863,"PERRI JAYE VINEYARDS, LLC",PERRI JAYE VINEYARDS,3900 PINER RD,SANTA ROSA,CA,95401,SONOMA
CA-W-23327,PETER MARK TONTI,TONTI FAMILY WINES,3360 COFFEY LN STE E,SANTA ROSA,CA,95403,SONOMA
CA-W-16926,"PETER PAUL WINES, LLC",PETER PAUL WINES,5700 OCCIDENTAL RD,SANTA ROSA,CA,95401,SONOMA
CA-W-22038,"PH FAMILY FARMS, LLC",PH FAMILY FARMS,1160 HOPPER AVE,SANTA ROSA,CA,95403,SONOMA
CA-W-23420,PLANETARY ESTATE LLC,,6860 SERENITY WAY,SANTA ROSA,CA,95404,SONOMA
CA-W-23187,POP TOP PRODUCTIONS LLC.,,4889 GRANGE RD,SANTA ROSA,CA,95404,SONOMA
CA-W-21708,"PORTER-BASS, LLC",PORTER-BASS VINEYARDS,3033 COFFEY LN STE D,SANTA ROSA,CA,95403,SONOMA
CA-W-3604,"PREMIUM WINE STORAGE, LLC",PREMIUM WINE STORAGE,1450 AIRPORT BLVD 120,SANTA ROSA,CA,95403,SONOMA
CA-W-2855,"PRIDE MOUNTAIN VINEYARDS, LLC",PRIDE MOUNTAIN VINEYARDS AT HISTORIC SUMMIT RANCH,3000 SUMMIT TRAIL,SANTA ROSA,CA,95404,SONOMA
CA-W-23314,"PURPLE WINE COMPANY, LLC",PURPLE WINES,2110 & 2120 OLIVET RD,SANTA ROSA,CA,95401,SONOMA
CA-W-20219,QUO VINO LLC,C. DONATIELLO WINERY,1160 HOPPER AVE,SANTA ROSA,CA,95403,SONOMA
CA-W-23183,RAW WINES,,6705 CRISTO LN,SANTA ROSA,CA,95409,SONOMA
CA-W-21653,"REFUGE WINES, INC.",,981 AIRWAY CT STE A,SANTA ROSA,CA,95403,SONOMA
CA-W-16646,"REPERTOIRE WINES, LLC",PERCEPTION WINE COMPANY,1160 HOPPER AVE,SANTA ROSA,CA,95403,SONOMA
CA-W-21244,RICHARD EDWIN DAVIS,CALSTAR CELLARS,3360 COFFEY LN STE E,SANTA ROSA,CA,95403,SONOMA
CA-W-16774,RICHARD MICHAEL MCKEON AND CATHERINE LYNETTE MCKEON,MCKEON FAMILY WINERY,3360 COFFEY LN SUITE E,SANTA ROSA,CA,95403,SONOMA
CA-W-15816,RIVER WEST WINES LLC,RIVER WEST WINES,3354 COFFEY LN STE A,SANTA ROSA,CA,95403,SONOMA
CA-W-17298,RKM WINES LLC,OVERLAND WINES,1160 HOPPER AVE,SANTA ROSA,CA,95403,SONOMA
CA-W-15462,"ROADSEND FARM, LLC",BAKER LANE VINEYARDS ON ROADSEND FARM,3358 COFFEY LANE,SANTA ROSA,CA,95403,SONOMA
CA-W-16690,RODNEY PHILIP SICHEL AND HOLLY MICHELLE SICHEL,SICHEL FAMILY WINERY,3360 COFFEY LN STE E,SANTA ROSA,CA,95403,SONOMA
CA-W-23320,ROJAS VINEYARDS AND WINERY LLC,,3360 COFFEY LN STE E,SANTA ROSA,CA,95403,SONOMA
CA-W-3505,"RUSSIAN RIVER WINERY, INC.",RUSSIAN RIVER WINEMAKERS,2191 LAGUNA RD,SANTA ROSA,CA,95401,SONOMA
CA-W-15649,SALINIA WINE COMPANY LLC,,3350 COFFEY LN,SANTA ROSA,CA,95403,SONOMA
CA-W-16209,SANGLIER CELLARS LLC,SANGLIER CELLARS,1160 HOPPER AVE,SANTA ROSA,CA,95403,SONOMA
CA-W-21077,"SCHEINFELD WINE COMPANY, LLC",SCHEINFELD WINE COMPANY,1160 HOPPER AVE,SANTA ROSA,CA,95403,SONOMA
CA-W-23641,SHANE CHRISTOPHER KECK,BIRD OF NIGHT WINES,1160 HOPPER AVE B,SANTA ROSA,CA,95403,SONOMA
CA-W-15745,SHELTON-MACKENZIE WINE COMPANY,CAROL SHELTON WINES,3354 COFFEY LN,SANTA ROSA,CA,95403,SONOMA
CA-W-2938,"SONS OF BACCHUS, LLC",PISONI VINEYARDS & WINERY,3354 COFFEY LN STE A,SANTA ROSA,CA,95403,SONOMA
CA-W-23818,SOPHIE JAMES LLC,SOPHIE JAMES WINES,6705 CRISTO LN,SANTA ROSA,CA,95409,SONOMA
CA-W-21755,SPELL ESTATE LLC,,3358 COFFEY LN STE D,SANTA ROSA,CA,95403,SONOMA
CA-W-2590,"ST. FRANCIS WINERY & VINEYARD, INC. (GEN. PART.)","ST. FRANCIS WINERY & VINEYARD, LP",500 PYTHIAN RD,SANTA ROSA,CA,95409,SONOMA
CA-W-21527,"STARK WINE COMPANY, LLC",,1160 HOPPER AVE,SANTA ROSA,CA,95448,SONOMA
CA-W-20480,STEWART CELLARS LLC,,6705 CRISTO LN,SANTA ROSA,CA,95409,SONOMA
CA-W-22972,STRESSED VINES LLC,,1160 HOPPER AVE,SANTA ROSA,CA,95403,SONOMA
CA-W-17260,"SUACCI CARCIERE WINES, L.L.C.",SUACCI CARCIERE WINES,981 AIRWAY CT STE E & F,SANTA ROSA,CA,95403,SONOMA
CA-W-22254,SUGARLOAF VENTURES LLC,SUGARLOAF CUSTOM CRUSH,6705 CRISTO LN,SANTA ROSA,CA,95409,SONOMA
CA-W-17339,TARA BELLA WINERY LLC,TARA BELLA WINERY,3701 VIKING RD,SANTA ROSA,CA,95401,SONOMA
CA-W-16735,"TAYLOR CELLARS, LLC",MATT TAYLOR WINES,1160 HOPPER AVE,SANTA ROSA,CA,94503,SONOMA
CA-W-24053,"TEAC MOR, LTD",,4477 OCCIDENTAL RD,SANTA ROSA,CA,95401,SONOMA
CA-W-20507,"TENACITY WINES, LLC",SOLISTE CELLARS,3358 COFFEY LN STE D,SANTA ROSA,CA,95403,SONOMA
CA-W-21691,THE PINOT ELITE LLC,,6860 SERENITY WAY,SANTA ROSA,CA,95404,SONOMA
CA-W-21405,"THE WITHERS WINERY HOLDINGS, LLC",THE WITHERS WINERY,1160 HOPPER AVE,SANTA ROSA,CA,95403,SONOMA
CA-W-21996,THIRD COAST WINES,,3360 COFFEY LN STE E,SANTA ROSA,CA,95403,SONOMA
CA-W-21721,"THOMPSON FAMILY WINES, LLC",,1160 HOPPER AVE,SANTA ROSA,CA,95403,SONOMA
CA-W-21883,"TOM MACKEY CELLARS, LLC",TOM MACKEY CELLARS,3360 COFFEY LN STE E,SANTA ROSA,CA,95403,SONOMA
CA-W-22288,TOPLEG LLC,TOPPING & LEGNON WINES,1301 CLEVELAND AVE STE B,SANTA ROSA,CA,95401,SONOMA
CA-W-21950,TORANO FAMILY VINEYARDS,A. TORANO FAMILY WINES,1160 HOPPER AVE,SANTA ROSA,CA,95403,SONOMA
CA-W-21122,TOWNLEY WINES LLC,TOWNLEY WINES,3358 COFFEY LN STE D,SANTA ROSA,CA,95403,SONOMA
CA-W-16734,TR ELLIOTT LLC,T R ELLIOTT,2191 LAGUNA RD,SANTA ROSA,CA,95401,SONOMA
CA-W-15412,"TRAVERSO WINES, INC.",TRAVERSO WINES,1160 HOPPER AVE,SANTA ROSA,CA,95403,SONOMA
CA-W-23951,UNENCUMBERED LLC,GROOVE WINES,6705 CRISTO LN,SANTA ROSA,CA,95409,SONOMA
CA-W-17685,"VALKYRIE SELECTIONS, LLC",,6705 CRISTO LN,SANTA ROSA,CA,95409,SONOMA
CA-W-23068,"VAUGHN DUFFY WINES, LLC",,3358 COFFEY LN STE D,SANTA ROSA,CA,95403,SONOMA
CA-W-23579,"VILUKO VINEYARD, INC.",,6705 CRISTO LN,SANTA ROSA,CA,95409,SONOMA
CA-W-23580,"VINESSE, LLC",,"980 AIRWAY CT BLDG 2, STE A-F",SANTA ROSA,CA,95403,SONOMA
CA-W-15951,"VINIFY, LLC",VINIFY WINE SERVICES,3358-D COFFEY LN,SANTA ROSA,CA,95403,SONOMA
CA-W-22623,"VINTAGES, VINES AND WINE, LLC",CLARICE WINE COMPANY,6705 CRISTO LN,SANTA ROSA,CA,95409,SONOMA
CA-W-15175,"WALTER HANSEL WINERY & VINEYARDS, LLC",WALTER HANSEL WINERY,5465 HALL RD,SANTA ROSA,CA,95401,SONOMA
CA-W-15487,"WATKINS FAMILY WINERY, LLC",WATKINS FAMILY WINERY,1160 HOPPER AVE,SANTA ROSA,CA,95403,SONOMA
CA-W-23659,"WAYFARER, LLC",WAYFARER,3354 COFFEY LN STE A,SANTA ROSA,CA,95403,SONOMA
CA-W-17028,WESLEY ASHLEY WINES INC,WESLEY ASHLEY WINES,3360 COFFEY LN SUITE E,SANTA ROSA,CA,95403,SONOMA
CA-W-22319,WEST EDGE WINES LLC,SOSIE WINES,6705 CRISTO LN,SANTA ROSA,CA,95409,SONOMA
CA-W-21499,"WEST OF TEMPERANCE, LLC",,3354 COFFEY LN STE A,SANTA ROSA,CA,95403,SONOMA
CA-W-16713,"WESTERHOLD FAMILY VINEYARDS, LLC",WESTERHOLD FAMILY VINEYARDS,3358 COFFEY LN STE D,SANTA ROSA,CA,95403,SONOMA
CA-W-15176,"WHEELER WINERY, INC.",DELOACH WINERY,1791 OLIVET RD,SANTA ROSA,CA,95401,SONOMA
CA-W-16016,WILLIAM DESMOND ROBBINS AND DANETTE SUSANNE ROBBINS,DESMOND WINES,3358 COFFEY LN,SANTA ROSA,CA,95403,SONOMA
CA-W-24017,"WILLIAMS & SELYEM, LLC",WILLIAMS & SELYEM,981 AIRWAY CT STE E&F,SANTA ROSA,CA,95403,SONOMA
CA-W-21539,"WINE HOOLIGANS, LLC",WINE HOOLIGANS,980 AIRWAY CT,SANTA ROSA,CA,95403,SONOMA
CA-W-16869,"WINE OF THE MONTH CLUB, INC.",WINE OF THE MONTH CELLARS,980 AIRWAY CT SUITES A-F,SANTA ROSA,CA,95403,SONOMA
CA-W-23188,WINE RETRIEVER LLC,SCOUT & CELLAR,1160 HOPPER AVE,SANTA ROSA,CA,95403,SONOMA
CA-W-22400,"WINE-STAINED DREAMS, LLC",J. CAGE CELLARS,6705 CRISTO LN,SANTA ROSA,CA,95409,SONOMA
CA-W-23557,WINK AT MEN WINES,WINK AT MEN WINES,3360 COFFEY LN STE E,SANTA ROSA,CA,95403,SONOMA
CA-W-20446,"WINSIDE USA, INC.",THE DONUM ESTATE,1160 HOPPER AVE,SANTA ROSA,CA,95403,SONOMA
CA-W-17401,"WWRD, INC.",WINES WEST,1160 HOPPER AVE,SANTA ROSA,CA,95403,SONOMA
CA-W-21806,XPORTABILITY LLC,,3360 COFFEY LN STE E,SANTA ROSA,CA,95403,SONOMA
CA-W-17279,"ZEPALTAS WINES, LLC",ZEPALTAS WINES,981 AIRWAY CT SUITES E &,SANTA ROSA,CA,95403,SONOMA
CA-W-22831,JULIE LUMGAIR,,4950 ROSS RD,SEBASTAPOL,CA,95472,SONOMA
CA-W-16235,ADRIAN FOG WINERY,ADRIAN FOG WINERY,2064 GRAVENSTEIN HWY,SEBASTOPOL,CA,95472,SONOMA
CA-W-17164,"AGHARTA, LLC",AGHARTA WINES,6780 MCKINLEY ST SUITE 155,SEBASTOPOL,CA,95472,SONOMA
CA-W-15345,AHNFELDT WINES LLC,AHNFELDT,2064 GRAVENSTEIN HWY BUILDING 2,SEBASTOPOL,CA,95472,SONOMA
CA-W-21885,"ALQUIMISTA CELLARS, LLC",,"2064 GRAVENSTEIN HWY, N UNIT 120",SEBASTOPOL,CA,95472,SONOMA
CA-W-17080,"AMERICAN WINESECRETS, LLC",WINESECRETS,1446 INDUSTRIAL AVE WHSE 2,SEBASTOPOL,CA,95472,SONOMA
CA-W-23733,"ARDURE WINES, LLC",ARDURE WINES,6780 MCKINLEY AVE UNIT 170,SEBASTOPOL,CA,95472,SONOMA
CA-W-22073,BENNETT VALLEY VINEYARD & WINERY INC.,SIMPATICO WINE COMPANY,2064 GRAVENSTEIN HWY N BLDG 1,SEBASTOPOL,CA,95472,SONOMA
CA-W-17283,BERRIDGE WINE COMPANY LLC,BERRIDGE WINE COMPANY,2064 GRAVENSTEIN HWY STE 120 BL,SEBASTOPOL,CA,95472,SONOMA
CA-W-23296,"BOBAG, INC.",,2030 BARLOW RD,SEBASTOPOL,CA,95472,SONOMA
CA-W-2545,"CALIFORNIA CIDER CO., INC.",CALIFORNIA CIDER COMPANY,2064 GRAVENSTEIN HWY,SEBASTOPOL,CA,95472,SONOMA
CA-W-17032,"CALIFORNIA WINERY PROPERTIES, LLC",RUTZ CELLARS,3637 FREI RD,SEBASTOPOL,CA,95472,SONOMA
CA-W-21782,"CAMLOW CELLARS, LLC",,1300 MONTGOMERY RD,SEBASTOPOL,CA,95472,SONOMA
CA-W-15765,"CARINALLI VINEYARDS, LLC",D & L CARINALLI VINEYARDS,4905 GRAVENSTEIN HWY,SEBASTOPOL,CA,95472,SONOMA
CA-W-16899,CASTELLI WINERY LLC,CASTELLI WINERY,9760 GREEN VALLEY RD,SEBASTOPOL,CA,95472,SONOMA
CA-W-1898,"CATHERINE-ELIZABETH, INC.",,4707 VINE HILL RD,SEBASTOPOL,CA,95472,SONOMA
CA-W-21667,"CHAR VALE VINEYARDS, LLC",,9280 OCCIDENTAL RD,SEBASTOPOL,CA,95472,SONOMA
CA-W-15617,CHARLES E. HEINTZ,DUTCH BILL CREEK WINERY,3280 HARRISON GRADE RD,SEBASTOPOL,CA,95472,SONOMA
CA-W-3379,"COHEN WINE, LLC",MOONDANCE CELLARS,4901 BLANK RD,SEBASTOPOL,CA,95472,SONOMA
CA-W-21213,COLLECTIVE PERIL LLC,JOLIE-LAIDE WINES,6780 MCKINLEY ST STE 170,SEBASTOPOL,CA,95472,SONOMA
CA-W-24010,CURVES & EDGES LLC,"CURVES & EDGES, LLC",1600 BARLOW LN,SEBASTOPOL,CA,95472,SONOMA
CA-W-22281,"DEHLINGER WINERY, LLC",,4101 VINE HILL RD,SEBASTOPOL,CA,95472,SONOMA
CA-W-2765,DENISE M. HUBBARD & KIRK W. HUBBARD,WESMAR WINERY,2064 GRAVENSTEIN HWY N BLDG 6 STE 60,SEBASTOPOL,CA,95472,SONOMA
CA-W-23377,"DEVOTO-WADE, LLC.",GOLDEN STATE CIDER,180 MORRIS ST STE 140 & 150,SEBASTOPOL,CA,95472,SONOMA
CA-W-21618,"DIAMOND RIDGE VINEYARDS, LLC",DIAMOND RIDGE VINEYARDS,2064 GRAVENSTEIN HWY N BLDG 1,SEBASTOPOL,CA,95472,SONOMA
CA-W-21113,DRNK LLC,DRNK,3637 FREI RD,SEBASTOPOL,CA,95472,SONOMA
CA-W-23176,DUCKHORN WINE COMPANY,KOSTA BROWNE,"6751 LAGUNA PARK WAY BLDG B, E, J",SEBASTOPOL,CA,95472,SONOMA
CA-W-17062,"DUTTON-GOLDFIELD WINERY, LLC",,3100 GRAVENSTEIN HWY,SEBASTOPOL,CA,95472,SONOMA
CA-W-21133,"EKTIMO WINES, LLC",ROSS ROAD,4950 ROSS RD,SEBASTOPOL,CA,95472,SONOMA
CA-W-20459,"ENOS VINEYARDS, INC.",BRACK MOUNTAIN WINE COMPANY,2064 N HIGHWAY 116- BLDG. #1 STE 134,SEBASTOPOL,CA,95472,SONOMA
CA-W-23628,ENRIQUEZ ESTATE WINES LLC,,"2064 GRAVENSTEIN HWY N BLDG 1, STE 131",SEBASTOPOL,CA,95472,SONOMA
CA-W-23535,"FITZGERALD WINE COMPANY, INC.",FITZ WINE CO.,2064 N 116 HWY STE 134,SEBASTOPOL,CA,95472,SONOMA
CA-W-16820,FOURTH ESTATE WINES LLC,FOURTH ESTATE,1300 MONTGOMERY RD,SEBASTOPOL,CA,95472,SONOMA
CA-W-2408,FRED C. SCHERRER AND JUDITH B. SCHERRER,SCHERRER WINERY,4940 ROSS RD,SEBASTOPOL,CA,95472,SONOMA
CA-W-3192,"FREEMAN FAMILY WINERY, LLC",FREEMAN FAMILY WINERY,1300 MONTGOMERY RD,SEBASTOPOL,CA,95472,SONOMA
CA-W-23635,"FRITZ CELLARS, INC.",,3905 FREI RD,SEBASTOPOL,CA,95472,SONOMA
CA-W-22265,"FURTHERMORE, LLC",,3541 GRAVENSTEIN HWY N,SEBASTOPOL,CA,95472,SONOMA
CA-W-21836,G. REEDY WINES,,2064 GRAVENSTEIN HWY N BLDG 2,SEBASTOPOL,CA,95472,SONOMA
CA-W-3420,GOLDRIDGEPINOT.COM LLC,EMERITUS VINEYARDS,2500 GRAVENSTEIN HWY,SEBASTOPOL,CA,95472,SONOMA
CA-W-15991,"GRAPECRAFT WINE MARKETING, LIMITED LIABILITY COMPANY",GRAPECRAFT WINES,1365 GRAVENSTEIN HWY,SEBASTOPOL,CA,95472,SONOMA
CA-W-3017,"GREG & GREG, INC.",OWL RIDGE WINE SERVICES,"2064 GRAVENSTEIN HWY N, BLDG 1 STE 120",SEBASTOPOL,CA,95472,SONOMA
CA-W-22307,"HALLECK VINEYARD, LLC",,"2064 GRAVENSTEIN HWY N BLDG 1, STE 120",SEBASTOPOL,CA,95472,SONOMA
CA-W-22606,"HILL OF TARA WINERY, LLC",HILL OF TARA WINERY,2064 GRAVENSTEIN HWY BLDG 2,SEBASTOPOL,CA,95472,SONOMA
CA-W-23594,HUNEEUS WINES LLC,FLOWERS VINEYARD & WINERY,2064 GRAVENSTEIN HWY N BLDG 3 STE. 31-35,SEBASTOPOL,CA,95472,SONOMA
CA-W-3243,HUNTER WINE CELLARS LLC,HUNTER WINE CELLARS,2064 116 HWY,SEBASTOPOL,CA,95472,SONOMA
CA-W-15846,"IRON HORSE VINEYARDS, A LIMITED PARTNERSHIP, IHV, LTD., GENERAL P",IRON HORSE VINEYARDS,9786 ROSS STATION RD,SEBASTOPOL,CA,95472,SONOMA
CA-W-22735,"ISETTA FAMILY, LLC",CAPO ISETTA,3637 FREI RD,SEBASTOPOL,CA,95472,SONOMA
CA-W-22903,"JAIMEE MOTLEY WINES, LLC",,6780 MCKINLEY ST STE 170,SEBASTOPOL,CA,95472,SONOMA
CA-W-16843,JAMES FAMILY CELLARS LLC,JAMES FAMILY CELLARS,8757 GREEN VALLEY RD,SEBASTOPOL,CA,95472,SONOMA
CA-W-21893,JONATHAN MICHAEL BARBER,BARBER CELLARS,4950 ROSS RD,SEBASTOPOL,CA,95472,SONOMA
CA-W-22199,"KANZLER VINEYARDS, LLC",KANZLER VINEYARDS,2064 GRAVENSTEIN HWY N BLDG 2,SEBASTOPOL,CA,95472,SONOMA
CA-W-17093,"KB WINES, LLC",KOSTA BROWNE WINERY,"6751 LAGUNA PKWY BLDG B, E & J",SEBASTOPOL,CA,95472,SONOMA
CA-W-16349,"KISTLER VINEYARDS, LLC",KISTLER VINEYARDS,4707 VINE HILL RD,SEBASTOPOL,CA,95472,SONOMA
CA-W-21124,"KITFOX VINEYARDS, LLC",KITFOX VINEYARDS,"2064 GRAVENSTEIN HWY, N BLDG 120",SEBASTOPOL,CA,95472,SONOMA
CA-W-23198,LAS JARAS WINES LLC,LAS JARAS WINES,2064 GRAVENSTEIN HWY N UNIT 120,SEBASTOPOL,CA,95472,SONOMA
CA-W-16531,"LENNOX VINEYARDS, LLC",LENNOX VINEYARDS,691 FERGUSON RD,SEBASTOPOL,CA,95472,SONOMA
CA-W-16295,"LIMBO, INC.",FOG CREST,7602 OCCIDENTAL RD,SEBASTOPOL,CA,95472,SONOMA
CA-W-21642,"LYNMAR WINERY, LLC",LYNMAR ESTATE WINERY,3905 FREI RD,SEBASTOPOL,CA,95472,SONOMA
CA-W-15770,MAGITO & COMPANY LLC,MAGITO WINES,1446 INDUSTRIAL AVE,SEBASTOPOL,CA,95472,SONOMA
CA-W-21870,"MANZANA PRODUCTS CO., INC.",,9141 GREEN VALLEY RD,SEBASTOPOL,CA,95472,SONOMA
CA-W-22280,MAREK T. LECHOWSKI,BAD RAT RANCH,2064 GRAVENSTEIN HWY,SEBASTOPOL,CA,95472,SONOMA
CA-W-1901,MARIMAR TORRES ESTATE CORPORATION,MARIMAR ESTATE VINEYARDS & WINERY,11400 GRATON RD,SEBASTOPOL,CA,95472,SONOMA
CA-W-22858,"MCEVOY OF MARIN, LLC",MCEVOY RANCH,1600 BARLOW LN,SEBASTOPOL,CA,95472,SONOMA
CA-W-22880,"MCINTYRE VINEYARDS, INC.",MCINTYRE VINEYARDS,1600 BARLOW LN,SEBASTOPOL,CA,95472,SONOMA
CA-W-17242,MELISSA & KENNETH MOHOLT-SIEBERT,ANCIENT OAK CELLARS,2064 GRAVENSTEIN HWY SUITE 120,SEBASTOPOL,CA,95472,SONOMA
CA-W-3014,MERRY D. MCILROY AND WILLIAM A. MCILROY,MCILROY WINES,4950 ROSS RD,SEBASTOPOL,CA,95472,SONOMA
CA-W-2582,"MIURA VINEYARDS, LLC",MIURA VINEYARDS,1600 BARLOW LN,SEBASTOPOL,CA,95472,SONOMA
CA-W-23233,MONTE RIO PARTNERS LLC,MONTE RIO CELLARS,6780 MCKINLEY ST STE 170,SEBASTOPOL,CA,95472,SONOMA
CA-W-23189,"MS WINES, LLC",MARTHA STOUMEN WINES,6780 MCKINLEY AVE STE 170,SEBASTOPOL,CA,95472,SONOMA
CA-W-17675,"NICKEL & NICKEL VINEYARDS, L.L.C.",ENROUTE WINERY,"2064 HIGHWAY 116 STE 503, 5",SEBASTOPOL,CA,95472,SONOMA
CA-W-21662,"NIMROD WINES, LLC",,2030 BARLOW LN,SEBASTOPOL,CA,95476,SONOMA
CA-W-23354,"OCCIDENTAL ROAD CELLARS, LLC",OCCIDENTAL ROAD CELLARS,870 GRAVENSTEIN HWY N,SEBASTOPOL,CA,95472,SONOMA
CA-W-16163,"OCCIDENTAL ROAD CELLARS, LLC",OCCIDENTAL ROAD CELLARS,2064 GRAVENSTEIN HWY,SEBASTOPOL,CA,95472,SONOMA
CA-W-15216,"OWL RIDGE, INC.",OWL RIDGE WINES,"2064 GRAVENSTEIN HWY SUITE 120,",SEBASTOPOL,CA,95472,SONOMA
CA-W-16359,"PAUL HOBBS WINERY LP, PAUL HOBBS WINERY, INC GP",CROSSBARN WINERY,2064 GRAVENSTEIN HWY BLDG 2,SEBASTOPOL,CA,95472,SONOMA
CA-W-2679,"PAUL HOBBS WINERY, L.P.",PAUL HOBBS WINERY,3355 GRAVENSTEIN HWY,SEBASTOPOL,CA,95472,SONOMA
CA-W-22787,"PAX MAHLE WINES, LLC",,6780 MCKINLEY ST STE 170,SEBASTOPOL,CA,95472,SONOMA
CA-W-17082,"PECH MERLE, INC.",PECH MERLE,2064 GRAVENSTEIN HWY BUILDING 1,SEBASTOPOL,CA,95472,SONOMA
CA-W-2849,PETERS FAMILY WINERY,,2064 GRAVENSTEIN HWY BLDG. 1 SU,SEBASTOPOL,CA,95472,SONOMA
CA-W-20457,PETRIFIED FOREST VINEYARDS LLC,,,SEBASTOPOL,CA,95472,SONOMA
CA-W-15619,"RADIO-COTEAU WINE CELLARS, LLC",RADIO-COTEAU WINE CELLARS,2040 BARLOW LN,SEBASTOPOL,CA,95472,SONOMA
CA-W-22100,"RAILLA ESTATES WINES, LLC",WINE GUERILLA,2064 GRAVENSTEIN HWY NORTH,SEBASTOPOL,CA,95472,SONOMA
CA-W-3649,"RED CAR WINE COMPANY, LLC",,8400 GRATON RD,SEBASTOPOL,CA,95472,SONOMA
CA-W-21923,REVOLVE LLC,,4801 MADDOCKS RD,SEBASTOPOL,CA,95472,SONOMA
CA-W-3061,ROBERT HUNTER APPLEBY,ATASCADERO CREEK WINERY,4114 ROSS RD,SEBASTOPOL,CA,95472,SONOMA
CA-W-17588,RUBIN WINES LLC,,5220 ROSS RD,SEBASTOPOL,CA,95472,SONOMA
CA-W-16852,"RUSSIAN RIVER VINEYARDS, LLC",RUSSIAN RIVER VINEYARDS,2064 GRAVENSTEIN HWY SUITE 120,SEBASTOPOL,CA,95472,SONOMA
CA-W-2895,"SEBASTOPOL VINEYARDS & WINERY, CORP.",DUTTON ESTATE WINERY,8757 GREEN VALLEY RD,SEBASTOPOL,CA,95472,SONOMA
CA-W-23537,SHUNYI CELLARS LLC,SHUNYI CELLARS,1600 BARLOW LN,SEBASTOPOL,CA,95472,SONOMA
CA-W-16184,"SMALL VINES WINES, INC.",SMALL VINES WINES,1600 BARLOW LN,SEBASTOPOL,CA,95472,SONOMA
CA-W-23378,"SONOMA VINEYARD COMPANY, INC.",MERRY EDWARDS WINERY,2959 HIGHWAY 116 NORTH,SEBASTOPOL,CA,95472,SONOMA
CA-W-23805,STEVEN MICHAEL CLIFTON,CLIFTON FAMILY WINERY,435 RAGLE RD,SEBASTOPOL,CA,95472,SONOMA
CA-W-16395,"TAFT STREET, INC.",TAFT STREET WINERY,2030 BARLOW LN,SEBASTOPOL,CA,95472,SONOMA
CA-W-23157,THE CAPRA COMPANY LLC,,"2064 GRAVENSTEIN HWY N, BLDG 1 UNIT 120",SEBASTOPOL,CA,95472,SONOMA
CA-W-16364,THE LITTORAI WINES,,788 GOLD RIDGE RD,SEBASTOPOL,CA,95472,SONOMA
CA-W-15644,"TRIONE VINEYARDS, LLC",TRIONE VINEYARDS,2064 GRAVENSTEIN HWY SUITE 120,SEBASTOPOL,CA,95472,SONOMA
CA-W-15652,"VICINI ENTERPRISES, LLC",VICINI ENTERPRISES,2030 BARLOW LN,SEBASTOPOL,CA,95472,SONOMA
CA-W-21876,"VINTAGE SUPPLY PARTNERS, LLC",,2030 BARLOW LN,SEBASTOPOL,CA,95472,SONOMA
CA-W-21243,"VOCES, LLC",VOCES,4950 ROSS RD,SEBASTOPOL,CA,95472,SONOMA
CA-W-22384,"VOKEL CELLARS, INC.",,2064 GRAVENSTEIN HWY N BLDG 1,SEBASTOPOL,CA,95472,SONOMA
CA-W-21703,"WEFEW VINTNERS, LLC",BODKIN WINES,"2064 GRAVENSTEIN HWY, N BLDG 1 STE 122",SEBASTOPOL,CA,95472,SONOMA
CA-W-22855,"WHEELER WINERY, INC.",,2064 HIGHWAY 116 BLDG 1,SEBASTOPOL,CA,95472,SONOMA
CA-W-23863,WILLIAM HENRY WINEWORKS LLC,WINEWORKS SEBASTOPOL,870 GRAVENSTEIN HIGHWAY NORTH,SEBASTOPOL,CA,95472,SONOMA
CA-W-15233,"WILLOWBROOK CELLARS, LLC",WILLOWBROOK WINES,"2064 GRAVENSTEIN HWY BLDG 1, ST",SEBASTOPOL,CA,95472,SONOMA
CA-W-21681,"WINNER'S CIRCLE WINERY, LLC",,4940 ROSS RD,SEBASTOPOL,CA,95472,SONOMA
CA-W-21984,16600 CELLARS LLC,,1700 MOON MOUNTAIN RD,SONOMA,CA,95476,SONOMA
CA-W-23263,3 BADGE BEVERAGE CORPORATION,3 BADGE BEVERAGE,22097 BONNESS RD BLDG A & B,SONOMA,CA,95476,SONOMA
CA-W-21116,"8TH STREET EAST SONOMA HOLDINGS, WINERY LLC",ATTUNE WINES,21684 E 8TH ST STE 440 & 450,SONOMA,CA,95476,SONOMA
CA-W-23094,"ACCOMPLICE WINES, LLC",VIVIER WINES,21660 E 8TH ST BLDG A,SONOMA,CA,94576,SONOMA
CA-W-15608,"ADASTRA WINES, INC.",ADASTRA WINES,21684 EIGHTH ST STE 470,SONOMA,CA,95476,SONOMA
CA-W-16769,"AKA WINES, LLC",SCRIBE WINERY,21692 EIGHTH ST SUITE 340,SONOMA,CA,95476,SONOMA
CA-W-22535,"ALDINA VINEYARDS, LLC",ALDINA VINEYARDS,22985 BURNDALE RD BLDG A & B,SONOMA,CA,95746,SONOMA
CA-W-22994,ANGRY KIWI WINES CORPORATION,ANGRY KIWI WINES,990 CAVEDALE RD,SONOMA,CA,95476,SONOMA
CA-W-17668,"ARCANA, LLC",F ARMSTRONG WINE COMPANY,21684 EIGHTH ST E STE 600,SONOMA,CA,95476,SONOMA
CA-W-22708,"ARS FERMENTUM, LLC",SAWHORSE CIDER,21684 E 8TH ST STE 430--450,SONOMA,CA,95476,SONOMA
CA-W-15318,"ASPECT WINES, LLC",,21660 EIGHTH ST BUILDING A,SONOMA,CA,95476,SONOMA
CA-W-15976,AUTEUR WINES LLC,AUTEUR,22020 CARNEROS VINEYARD WAY STE 5,SONOMA,CA,95476,SONOMA
CA-W-23642,"B WISE VINEYARDS, LLC",B WISE VINEYARDS,392 LONDON WAY,SONOMA,CA,95476,SONOMA
CA-W-15647,"B WISE VINEYARDS, LLC",B WISE VINEYARDS,396 LONDON WAY,SONOMA,CA,95476,SONOMA
CA-W-21783,"BEDROCK WINE COMPANY, LP BEDROCK WINE COMPANY L.L.C. , GENARAL PARTNER",BEDROCK WINE COMPANY,21481 EIGHTH ST E STE 15B,SONOMA,CA,95476,SONOMA
CA-W-23325,BELTANE INC.,BELTANE RANCH,22020 CARNEROS VINEYARD WAY STE 5,SONOMA,CA,95476,SONOMA
CA-W-16551,"BERTHOUD WINERY, INC.",BERTHOUD WINERY,1265 CRAIG AVE,SONOMA,CA,95476,SONOMA
CA-W-21495,BLUE FARM LLC,,21684 8TH ST E STE 440-450,SONOMA,CA,95476,SONOMA
CA-W-22405,"BOB CABRAL WINE CONSULTING, LLC",BOB CABRAL WINES,"21692 E 8TH ST BLDG B, STE 280",SONOMA,CA,95476,SONOMA
CA-W-23538,"BONNEAU WINERY, LLC",BONNEAU WINERY,21660 E 8TH ST BLDG A,SONOMA,CA,95476,SONOMA
CA-W-17311,BRICOLAGE BRANDS,LACUNA WINES,21481 EIGHTH ST E STE 15B,SONOMA,CA,95476,SONOMA
CA-W-21428,BROADWAY VINEYARDS LLC,BROADWAY VINEYARDS,22985 E BURNDALE RD BLDG A & B,SONOMA,CA,95476,SONOMA
CA-W-16074,BUCKLIN LLC,BUCKLIN,21481 8TH ST E STE 1,SONOMA,CA,95476,SONOMA
CA-W-22176,"CALIFORNIA FINE WINES, LLC",,"22985 BURNDALE RD BLDG A, B",SONOMA,CA,95476,SONOMA
CA-W-23407,CALIFORNIA WINERIES & VINEYARDS LLC,,21660 E 8TH ST BLDG A,SONOMA,CA,95476,SONOMA
CA-W-16075,"CANIHAN WINES, LLC",CANIHAN FAMILY CELLARS,21684 EIGHTH ST SUITE 450,SONOMA,CA,95476,SONOMA
CA-W-22790,CARAVEL GROUP LLC,OUTCAST WINES,21660 8TH ST E BLDG A STE A,SONOMA,CA,95476,SONOMA
CA-W-16868,"CARNEROS VINTNERS, INC.",CARNEROS VINTNERS,4202 STAGE GULCH RD,SONOMA,CA,95476,SONOMA
CA-W-21960,"CASSATA-SONOMA, LLC",CASSATA SONOMA,21684 E EIGHTH ST STE 470,SONOMA,CA,95476,SONOMA
CA-W-23839,"CAVE DOG HOLDINGS, LLC",MICHAEL HAVENS WINES,21481 8TH ST E STE 15B,SONOMA,CA,95476,SONOMA
CA-W-3053,"CEJA VINEYARDS, INC.",CEJA VINEYARDS,22985 BURNDALE RD,SONOMA,CA,95476,SONOMA
CA-W-21277,CHANAME WINES LLC,CHANAME WINES,1700 MOON MOUNTAIN RD,SONOMA,CA,95476,SONOMA
CA-W-3448,"CHARLES F. MARA, INC.",MARAMONTE WINES,21481 EIGHTH ST SUITES 7 &,SONOMA,CA,95476,SONOMA
CA-W-23525,"CHATEAU NOIR VINEYARDS, LLC",,21660 8TH STREET EAST BLDG A,SONOMA,CA,95476,SONOMA
CA-W-22103,"CHRONISTER FAMILY WINES, LLC",CHRONISTER FAMILY WINES,21660 8TH ST E BLDG A,SONOMA,CA,95476,SONOMA
CA-W-21569,"CITY WINERY NAPA, LLC",,21684 8TH ST E STE 440-450,SONOMA,CA,95476,SONOMA
CA-W-21501,CLARBEC INC.,CLARBEC WINES,21481 E 8TH ST STE 1,SONOMA,CA,95476,SONOMA
CA-W-20184,"CLAYPOOL CELLARS, LLC",CC PACHYDERM,64 BONNEAU RD,SONOMA,CA,95476,SONOMA
CA-W-1373,"CLINE CELLARS, INC.",CLINE CELLARS,24737 ARNOLD DR,SONOMA,CA,95476,SONOMA
CA-W-23912,"COBB WINES, LLC",COBB WINES,64 BONNEAU RD,SONOMA,CA,95476,SONOMA
CA-W-17026,"COME TOGETHER, LLC",FEL WINES,22020 CARNEROS VINEYARD WAY STE 5,SONOMA,CA,95476,SONOMA
CA-W-23967,D.O.B. WINE COMPANY LLC,GAIL WINES,1700 MOON MOUNTAIN RD,SONOMA,CA,95476,SONOMA
CA-W-23629,DANE CELLARS LLC,DANE CELLARS,22020 CARNEROS VINEYARD WAY STE 2,SONOMA,CA,94576,SONOMA
CA-W-23049,"DAVID JAMES, LLC",SINEGAL ESTATE,21660 E 8TH ST BLDG A,SONOMA,CA,95476,SONOMA
CA-W-23432,"DAYLIGHT WINE COMPANY, LLC",DAYLIGHT WINE COMPANY,21481 8TH ST E STE 25 & 30,SONOMA,CA,95476,SONOMA
CA-W-21028,"DIOTA HOLDINGS, L.L.C.",BAILIWICK WINE COMPANY,"21684 EIGHTH ST., E. STE 470",SONOMA,CA,95476,SONOMA
CA-W-22234,DOBSON FAMILY WINES INC.,,4202 STAGE GULCH RD,SONOMA,CA,95476,SONOMA
CA-W-24046,"EL GRANDOLERO COMPANY, LLC",MARIONI WINES,21481 E 8TH ST STE 1,SONOMA,CA,95476,SONOMA
CA-W-15293,"ENKIDU WINE, LLC",ENKIDU WINE,22985 BURNDALE RD BLDG A & B,SONOMA,CA,95476,SONOMA
CA-W-20323,"ENTOURAGE WINE GROUP, INC.",,"21481 8TH ST, E. UNIT 1",SONOMA,CA,95476,SONOMA
CA-W-21949,"EQUILIBRE, LLC",,21684 8TH ST E STE 600,SONOMA,CA,95476,SONOMA
CA-W-22392,"F ARMSTRONG WINE COMPANY, LLC",ONWARD WINES,21684 EIGHTH ST E STE 600,SONOMA,CA,95476,SONOMA
CA-W-17493,"FOLEY FAMILY WINES, INC.",SEBASTIANI VINEYARDS,389 E 4TH ST,SONOMA,CA,95476,SONOMA
CA-W-22215,FOUR BEARS WINERY LLC,FOUR BEARS WINERY,21481 8TH ST E STE 1,SONOMA,CA,95476,SONOMA
CA-W-2362,FRED S. FAVERO,FAVERO VINEYARDS,3939 LOVALL VALLEY RD,SONOMA,CA,95476,SONOMA
CA-W-17291,"FREE FLOW WINES, LLC",,21945 CARNEROS LAKE LN STE 1,SONOMA,CA,95476,SONOMA
CA-W-1407,"FREIXENET SONOMA CAVES, INC.",GLORIA FERRER WINERY,23555 ARNOLD DR,SONOMA,CA,95476,SONOMA
CA-W-20113,GBF ENTERPRISES LLC,WAYNE GRETZKY ESTATES,355 FOURTH ST E,SONOMA,CA,95476,SONOMA
CA-W-15366,"GENERATIONS OF SONOMA, LLC",GENERATIONS OF SONOMA WINERY,21481 8TH ST SUITE 3-6,SONOMA,CA,95476,SONOMA
CA-W-22901,"GENERATIONS OF SONOMA, LLC",,21481 8TH ST STE 30,SONOMA,CA,95476,SONOMA
CA-W-16830,GEORGE MCKELVY CARR,BUMP WINE CELLARS,22985 BURNDALE RD BLDG A & B,SONOMA,CA,95476,SONOMA
CA-W-15415,GIRARD WINERY LLC,GIRARD WINERY,21684 8TH ST E STE 300,SONOMA,CA,95476,SONOMA
CA-W-17440,"GMIC VINEYARDS, LLC",HANZELL VINEYARDS,18596 LOMITA AVE,SONOMA,CA,95476,SONOMA
CA-W-23408,GRAND NAPA WINE COMPANY LLC,GRAND NAPA WINE COMPANY LLC,21660 8TH ST E BLDG A,SONOMA,CA,95476,SONOMA
CA-W-3324,"GREEN FAMILY WINERY, LLC.",PAINT HORSE RANCH,16510 ARNOLD DR,SONOMA,CA,95476,SONOMA
CA-W-21275,GUERRERO ENTERPRISES LLC,FAUSTA FAMILY VINEYARDS,20120 5TH ST W,SONOMA,CA,95476,SONOMA
CA-W-23547,GUERRERO ENTERPRISES LLC,,24237 ARNOLD DR,SONOMA,CA,95476,SONOMA
CA-W-20315,"HAMEL FAMILY WINES, LLC",HAMEL FAMILY WINES,15401 & 15409 SONOMA HWY,SONOMA,CA,95476,SONOMA
CA-W-20326,"HARASZTHY FAMILY CELLARS, LLC",HARASZTHY FAMILY CELLARS,21684 E EIGHTH ST 520,SONOMA,CA,95476,SONOMA
CA-W-3087,"HARVEST WINES, INC.",CURVARE WINERY,22033 BONNESS RD,SONOMA,CA,95476,SONOMA
CA-W-17045,"HEADLEY WINE GROUP, LLC",,10200 SONOMA HWY,SONOMA,CA,95476,SONOMA
CA-W-23043,HEARTH WINES LLC,,18970 OLIVE AVE,SONOMA,CA,95476,SONOMA
CA-W-20143,"HEIRS OF MY DREAM WINERY, INC.",HEIRS OF MY DREAM,22985 BURNDALE RD BLDG A & B,SONOMA,CA,95476,SONOMA
CA-W-21325,"JACKSON FAMILY WINES, INC.",CARNEROS HILLS WINERY,27000 RAMAL RD,SONOMA,CA,95476,SONOMA
CA-W-15907,"JACUZZI FAMILY VINEYARDS, LLC",JACUZZI FAMILY VINEYARDS,24724 ARNOLD DR,SONOMA,CA,95476,SONOMA
CA-W-17326,"JAM CELLARS, INC.",JAM CELLARS,4202 STAGE GULCH RD,SONOMA,CA,95476,SONOMA
CA-W-22383,"JARDESCA, INC.",JARDESCA,21481 8TH ST E STE 30 & 25,SONOMA,CA,95476,SONOMA
CA-W-22772,JEFFERY T. RIGGS AND NOEL D. RIGGS,TROIKA WINES,22985 BURNDALE RD BLDG A & B,SONOMA,CA,95476,SONOMA
CA-W-23484,JESUS E. HERNANDEZ CAMPOS AND JUANA PADILLA HERNANDEZ,,21481 8TH ST E STE 1,SONOMA,CA,95476,SONOMA
CA-W-16549,"JK CELLARS, LLC",JK CELLARS,21684 E 8TH ST,SONOMA,CA,95476,SONOMA
CA-W-1677,JOSEPH G. & GENEVIEVE D. ROCHE,ROCHE WINERY,28700 ARNOLD DR,SONOMA,CA,95476,SONOMA
CA-W-15420,"KAMEN WINES, LLC",RMK WINES,21692 EIGHT ST,SONOMA,CA,95476,SONOMA
CA-W-24013,KENNETH & PATRICIA KOSICH,KOSICH FAMILY VINEYARD,21660 E 8TH ST,SONOMA,CA,95476,SONOMA
CA-W-22811,"KISMET WINE, INC.",,21481 E 8TH ST STE 15,SONOMA,CA,95476,SONOMA
CA-W-17497,KUTCH WINES,KUTCH WINES,22020 CARNEROS VINEYARD WAY STE 2,SONOMA,CA,95476,SONOMA
CA-W-16133,LADD CELLARS LLC,LADD CELLARS,21481 8TH ST STE 1,SONOMA,CA,95476,SONOMA
CA-W-2569,"LARSON FAMILY WINERY, INC.",,23355 MILLERICK RD,SONOMA,CA,95476,SONOMA
CA-W-22764,"LARUE WINES, INC.",LARUE WINES,64 BONNEAU RD,SONOMA,CA,95476,SONOMA
CA-W-20088,"LION NATHAN USA, INC.",MACROSTIE WINERY,21481 8TH ST ST E STE 25 & 30,SONOMA,CA,95476,SONOMA
CA-W-21655,"M N H, INC.",HOMEWOOD WINERY,23120 BURNDALE RD,SONOMA,CA,95476,SONOMA
CA-W-21429,"MANIC WINES, LLC",MANIC WINES,21481 E 8TH ST STE 1,SONOMA,CA,95476,SONOMA
CA-W-16829,"MARK HEROLD WINES, LLC",MARK HEROLD WINES,64 BONNEAU RD,SONOMA,CA,95476,SONOMA
CA-W-23375,MICHAEL F. SMOLICH AND ROGER R. SMITH,BUMP CITY WINE CO.,23355 MILLERICK RD,SONOMA,CA,95476,SONOMA
CA-W-21504,"MIGNANELLI WINERY, LLC",,21660 8TH ST E BLDG A,SONOMA,CA,95476,SONOMA
CA-W-22111,MODEL FARM LLC,COOPER/WELLS WINE CO.,"21684 8TH ST, E STE 450",SONOMA,CA,95476,SONOMA
CA-W-17485,"MOMTAZEE ESTATE, LLC",,1700 MOON MOUNTAIN RD,SONOMA,CA,95476,SONOMA
CA-W-16498,"NAPA-SONOMA VINEYARD GROUP, INC.",NAPA-SONOMA VINEYARD GROLUP,21684 EIGHTH ST,SONOMA,CA,95476,SONOMA
CA-W-2361,NICHOLAS F. GREBEN,GREBENNIKOFF VINEYARDS,18470 CARRIGER RD,SONOMA,CA,95476,SONOMA
CA-W-3007,NICHOLSON RANCH LLC,,4200 NAPA RD,SONOMA,CA,95476,SONOMA
CA-W-23439,"NIO FAMILY WINES, LLC",FILOMENA WINE COMPANY,21481 8TH ST E STE 15,SONOMA,CA,95476,SONOMA
CA-W-16513,"OBSIDIAN RIDGE WINE COMPANY, LLC",OBSIDIAN WINE CO.,"21684 E 8TH ST STE 430, 440, 450",SONOMA,CA,95476,SONOMA
CA-W-21073,"OPAL MOON WINERY, LLC",OPAL MOON WINERY,21660 8TH ST E BLDG A,SONOMA,CA,95476,SONOMA
CA-W-21578,PANGLOSS CELLARS LLC,PANGLOSS,1700 MOON MOUNTAIN RD,SONOMA,CA,95476,SONOMA
CA-W-16381,"PARMELEE-HILL WINES, LLC",PARMELEE-HILL WINES,21481 EIGHTH ST UNIT 1,SONOMA,CA,95476,SONOMA
CA-W-16287,PETER MATHIS,MATHIS WINE,21684 8TH ST STE 460,SONOMA,CA,95476,SONOMA
CA-W-16141,PETER MAUEL,PETER CELLARS,21708 BROADWAY,SONOMA,CA,95476,SONOMA
CA-W-2983,"PETRONI VINEYARDS, LLC",PETRONI VINEYARDS,990 CAVEDALE RD,SONOMA,CA,95476,SONOMA
CA-W-23814,PROXY WINES LLC,,760 4TH ST E,SONOMA,CA,95476,SONOMA
CA-W-22641,"PUENTES WINE COMPANY, LLC",,22985 BURNDALE RD STE A & B,SONOMA,CA,95476,SONOMA
CA-W-15778,"RAMIAN ESTATE, LLC",RAMIAN ESTATE,"21660 8TH ST BLDG A, ST",SONOMA,CA,95476,SONOMA
CA-W-22867,"RASMUSSEN FAMILY WINES, LLC",RASMUSSEN FAMILY WINES,21481 8TH ST E STE 15B,SONOMA,CA,95476,SONOMA
CA-W-22157,REEVE WINES LLC,REEVE WINES,64 BONNEAU RD,SONOMA,CA,95476,SONOMA
CA-W-17382,"REFUGE WINES, INC.",REFUGE WINES,4202 STAGE GULCH RD STE A BLDG,SONOMA,CA,95476,SONOMA
CA-W-23079,"REGENERATIVE GIFT, LLC",BARTHOLOMEW ESTATE WINERY,1000 VINEYARD LN,SONOMA,CA,95476,SONOMA
CA-W-20569,"RIGHT SIDE, LLC",,1700 MOON MOUNTAIN RD,SONOMA,CA,95476,SONOMA
CA-W-17010,"ROBLEDO FAMILY WINERY, INC.",ROBLEDO FAMILY WINERY,21684 8TH ST 520,SONOMA,CA,95476,SONOMA
CA-W-17008,"ROBLEDO FAMILY WINERY, INC.",ROBLEDO FAMILY WINERY,21903 BONNESS RD,SONOMA,CA,95476,SONOMA
CA-W-22763,ROCHE WINERY LLC,,22097 BONNESS RD BLDG A & B,SONOMA,CA,95476,SONOMA
CA-W-16802,"ROESSLER WINE CELLAR, LLC",ROESSLER WINE CELLAR,21481 8TH ST E STE 1,SONOMA,CA,95476,SONOMA
CA-W-17333,"ROWLAND TEBB WINES, LLC",,21481 8TH ST EAST UNIT,SONOMA,CA,95476,SONOMA
CA-W-22797,SAND HILL WINES LLC,DUNSTAN WINES,21684 E EIGHTH ST STE 440-450,SONOMA,CA,95476,SONOMA
CA-W-15873,SCHUG WINERY LLC,SCHUG WINERY,602 BONNEAU RD,SONOMA,CA,95476,SONOMA
CA-W-22412,"SCOUT AND GRANGE, LLC",SCOUT AND GRANGE,21481 8TH ST E STE 1,SONOMA,CA,95476,SONOMA
CA-W-15387,"SKYLARK WINE COMPANY, INC",SKYLARK WINE COMPANY,21684 EIGHT ST EAST #600,SONOMA,CA,95476,SONOMA
CA-W-22830,"SMITH STORY WINE CELLARS, LLC",SMITH STORY WINE CELLARS,21684 E 8TH ST STE 430440450,SONOMA,CA,95476,SONOMA
CA-W-22661,"SONOMA HARVEST OLIVE OIL & WINERY, LLC",,21481 E 8TH ST STE 30,SONOMA,CA,95476,SONOMA
CA-W-21608,"SONOMA VALLEY CUSTOM WINE, LLC",,21481 E 8TH ST STE 25 & 30,SONOMA,CA,95476,SONOMA
CA-W-15321,STEVE NOBLE LEDSON,LEDSON VINEYARDS AND WINERY,21692 EIGHTH ST BLDG B,SONOMA,CA,95476,SONOMA
CA-W-2295,STEVE NOBLE LEDSON,LEDSON VINEYARDS AND WINERY,21692 8TH ST SUITE 120A,SONOMA,CA,95476,SONOMA
CA-W-20345,STEVEN LAW,MACLAREN WINE COMPANY,22020 CARNEROS VINEYARD WAY STE 2,SONOMA,CA,95476,SONOMA
CA-W-15477,STONE EDGE WINERY LLC,,21692 EIGHTH ST STE 100 &,SONOMA,CA,95476,SONOMA
CA-W-15558,"SWEAZEY WINERY INVESTMENT, LLC",ANABA WINES,64 BONNEAU RD,SONOMA,CA,95467,SONOMA
CA-W-23168,"TALERUCIO, LLC",FIGONE'S OF CALIFORNIA,21660 8TH ST E BLDG A,SONOMA,CA,95476,SONOMA
CA-W-15923,TALISMAN WINES LLC,TALISMAN,21684 EIGHTH ST SUITE 470,SONOMA,CA,95476,SONOMA
CA-W-23778,TERRATORIUM LLC,TERRATORIUM,22020 CARNEROS VINEYARD WAY STE 5,SONOMA,CA,95476,SONOMA
CA-W-16658,"THE CATON WINE ORGANIZATION, LLC",TY CATON VINEYARDS,"21684 E EIGHTH ST STE 430, 440, 450",SONOMA,CA,95476,SONOMA
CA-W-15882,"THE CATON WINE ORGANIZATION, LLC",TY CATON VINEYARDS,21684 EIGHTH ST SUITE 460,SONOMA,CA,95476,SONOMA
CA-W-24023,"THE ELKHOURY FAMILY VINEYARD, INC.",,22097 BONNESS RD BLDG A & B,SONOMA,CA,95476,SONOMA
CA-W-22820,THE?ALIXIR?COMPANY,THE ALIXIR COMPANY,21945 CARNEROS LAKE LN STE 1,SONOMA,CA,95476,SONOMA
CA-W-23347,"THREE FAT GUYS WINE, L.L.C.",THREE FAT GUYS WINES,22097 BONNESS RD BLDG A&B,SONOMA,CA,95476,SONOMA
CA-W-15395,THREE STICKS LLC,THREE STICKS,21692 8TH ST E SUITE 280,SONOMA,CA,95476,SONOMA
CA-W-3339,"TIN BARN VINEYARDS, LLC",TIN BARN VINEYARDS,21692 8TH ST 340,SONOMA,CA,95476,SONOMA
CA-W-3266,"TPWC, INC.","QUARRY LAKE WINERY, SONOMA",26200 ARNOLD DR,SONOMA,CA,95476,SONOMA
CA-W-24006,UNICO INC,TINTO AMORIO,21945 CARNEROS LAKE LN STE 1,SONOMA,CA,95476,SONOMA
CA-W-16822,VEROTTO LLC,VEROTTO,21481 EIGHTH ST UNIT 1,SONOMA,CA,95476,SONOMA
CA-W-2930,VINEBURG LLC,GUNDLACH BUNDSCHU WINERY,2000 DENMARK ST,SONOMA,CA,95476,SONOMA
CA-W-21502,"VINTAGE WINE ESTATES, INC.",VIANSA WINERY,25200 ARNOLD DR,SONOMA,CA,95476,SONOMA
CA-W-22528,VIVANT WINES INC,CHATEAU DE POMMARD,3360 COFFEY LN STE E,SONOMA,CA,95403,SONOMA
CA-W-22007,VULTURE WINERY LLC,,21692 EIGHTH ST E STE 100-110,SONOMA,CA,95476,SONOMA
CA-W-22565,WASH PARK VINTNERS LLC,BIGSBY'S FOLLY,21660 E 8TH ST BLDG A STE A,SONOMA,CA,95476,SONOMA
CA-W-23900,"WATER INTO WINE, INC.",SONOMA COLLECTIVE WINES,21945 CARNEROS LAKE LN STE 3,SONOMA,CA,95476,SONOMA
CA-W-17540,"WHEELER WINERY, INC.",,18000 OLD WINERY RD,SONOMA,CA,95476,SONOMA
CA-W-17634,"WINECRAFT, INC.",,21684 E 8TH ST UNIT 600,SONOMA,CA,95476,SONOMA
CA-W-17724,"WINERY EXCHANGE, INC.",WX BOTTLING,4202 STAGE GULCH RD,SONOMA,CA,95476,SONOMA
CA-W-23402,"WINSIDE USA, INC.",THE DONUM ESTATE,24520 RAMAL RD,SONOMA,CA,95476,SONOMA
CA-W-22645,"AUGUR WINE CO, LLC",AUGUR WINE CO.,7763 BELL RD,WINDSOR,CA,95492,SONOMA
CA-W-21732,BENNETT VALLEY VINEYARD & WINERY INC.,SIMPATICO WINE COMPANY,1230 SHILOH RD,WINDSOR,CA,95492,SONOMA
CA-W-15398,"BLACK KITE CELLARS, LLC",,1200 AMERICAN WAY,WINDSOR,CA,95492,SONOMA
CA-W-23264,"BLUE SKY VINTNERS, LLC",LAUREL GLEN VINEYARDS,1200 AMERICAN WAY,WINDSOR,CA,95492,SONOMA
CA-W-23534,BRICOLEUR VINEYARDS LLC,BRICOLEUR VINEYARDS,7394 STARR RD,WINDSOR,CA,95492,SONOMA
CA-W-23022,"BROWNE FAMILY WINES, LLC",CIRQ ESTATE,4525 SLUSSER RD,WINDSOR,CA,95492,SONOMA
CA-W-23587,"BRULIAM WINES, LLC",,1200 AMERICAN WAY,WINDSOR,CA,95492,SONOMA
CA-W-22974,"BYDAND WINES, LLC",BYDAND WINES,1200 AMERICAN WAY,WINDSOR,CA,95492,SONOMA
CA-W-17350,"CALIFORNIA WINERY PROPERTIES, LLC",RUTZ CELLARS,1200 AMERICAN WAY,WINDSOR,CA,95492,SONOMA
CA-W-17507,CAMPANA RANCH WINERY LLC,CAMPANA RANCH WINERY,3631 MARK WEST STATION RD,WINDSOR,CA,95492,SONOMA
CA-W-21343,CARLISLE WINERY & VINEYARDS LLC,CARLISLE WINERY,6301 STARR RD,WINDSOR,CA,95492,SONOMA
CA-W-21052,"CLEARY RANCH VINEYARDS, LLC",CLEARY RANCH VINEYARDS,1200 AMERICAN WAY,WINDSOR,CA,95492,SONOMA
CA-W-24011,CUPERE LLC,CUPERE,1200 AMERICAN WAY,WINDSOR,CA,95492,SONOMA
CA-W-2973,"DEMUTH WINERY & VINEYARDS, LLC",DEMUTH WINERY,2599 LAUGHLIN RD,WINDSOR,CA,95492,SONOMA
CA-W-17651,"DOM WHITNEY WINES, LLC",DOM WHITNEY WINES,9000 WINDSOR RD STE B,WINDSOR,CA,95492,SONOMA
CA-W-22758,"DONALD PATZ WINE GROUP, LLC",MARITANA VINEYARDS,1200 AMERICAN WAY,WINDSOR,CA,95492,SONOMA
CA-W-22273,"DUMOL WINERY, LLC",DUMOL,1400 AMERICAN WAY,WINDSOR,CA,95492,SONOMA
CA-W-21094,"ERIC DEMUTH WINE CO., LLC.",,2599 LAUGHLIN RD,WINDSOR,CA,95492,SONOMA
CA-W-17650,"ERNEST VINEYARDS, LLC",,1200 AMERICAN WAY,WINDSOR,CA,95492,SONOMA
CA-W-17526,"FIREBALL FARM & CIDERS, LLC",,7761 BELL RD,WINDSOR,CA,95492,SONOMA
CA-W-23119,FIVE S WINES LLC,FIVE S WINES,1200 AMERICAN WAY,WINDSOR,CA,95492,SONOMA
CA-W-22341,"FLAMBEAUX WINE, LLC",FLAMBEAUX WINE,1200 AMERICAN WAY,WINDSOR,CA,95492,SONOMA
CA-W-16561,"FOGLAMP VENTURES, INC.",NETNEGOCIANT WINES,4525 SLUSSER RD,WINDSOR,CA,95492,SONOMA
CA-WS-19001,"FRITZ CELLARS, INC.",VINO VALPREDO WINE COMPANY,9006 WINDSOR RD,WINDSOR,CA,95492,SONOMA
CA-W-23676,FULL CELLAR PARTNERS LLC,STRINGER CELLARS,1200 AMERICAN WAY,WINDSOR,CA,95492,SONOMA
CA-W-16954,"GLI AMICI WINE CO., L.L.C.",COLAGROSSI WINES,7755 BELL RD,WINDSOR,CA,95492,SONOMA
CA-W-22639,"GRAND CRU CUSTOM CRUSH, LLC",,1200 AMERICAN WAY,WINDSOR,CA,95492,SONOMA
CA-W-17268,GROS VENTRE CELLARS LLC,GROS VENTRE CELLARS,1200 AMERICAN WAY,WINDSOR,CA,95492,SONOMA
CA-W-23171,"HARD SIX CELLARS, LLC",HARD SIX CELLARS,1200 AMERICAN WAY,WINDSOR,CA,95492,SONOMA
CA-W-21362,"HOLTERMANN FAMILY WINES, LLC",HOLTERMANN FAMILY WINES,1200 AMERICAN WAY,WINDSOR,CA,95492,SONOMA
CA-W-16388,"JACKSON FAMILY WINES, INC.",LA CREMA WINERY,3680 3690 LAUGHLIN RD,WINDSOR,CA,95492,SONOMA
CA-W-23087,JPPZ INC,,7680 BELL RD,WINDSOR,CA,95492,SONOMA
CA-W-17771,"K SQUARED CELLARS, LLC",K SQUARED CELLARS,7975 CAMERON DR BLDG 1500-,WINDSOR,CA,95492,SONOMA
CA-W-15554,"LAUTERBACH CELLARS, LLC",LAUTERBACH CELLARS,3426 WOOLSEY RD,WINDSOR,CA,95492,SONOMA
CA-W-23349,LF WINES LLC,LANDO WINES,1200 AMERICAN WAY,WINDSOR,CA,95492,SONOMA
CA-W-20003,MARCASSIN WINE COMPANY LLC,MARCASSIN WINE COMPANY,7331 CONDE LN,WINDSOR,CA,95492,SONOMA
CA-W-15125,MARTIN GUERRERO AND OLGA FERNANDEZ,GUERRERO FERNANDEZ WINERY,7724 BELL RD,WINDSOR,CA,95492,SONOMA
CA-W-2429,"MARTINELLI WINERY, INC.",MARTINELLI WINERY,3360 RIVER RD,WINDSOR,CA,95492,SONOMA
CA-W-22869,"MILO FAMILY VINEYARDS, LTD.",MILA FAMILY VINEYARDS,1200 AMERICAN WAY,WINDSOR,CA,95492,SONOMA
CA-W-2335,"NOTRE VUE ESTATE WINE GROUP, INC.",,10810 HILLVIEW RD,WINDSOR,CA,95492,SONOMA
CA-W-16089,OWEN D. ALBINI,ALBINI FAMILY VINEYARDS,886 JENSEN LN,WINDSOR,CA,95492,SONOMA
CA-W-2423,"RHEW, INC.",RUSSIAN HILL ESTATE WINERY,4525 SLUSSER RD,WINDSOR,CA,95492,SONOMA
CA-W-2197,ROBERT MUELLER CELLARS,,1200 AMERICAN WAY,WINDSOR,CA,95492,SONOMA
CA-W-22314,ROBERTS FAMILY WINES LLC,MAGNOLIA BLOSSOM,1200 AMERICAN WAY,WINDSOR,CA,95492,SONOMA
CA-W-21118,ROWLEY ESTATES LLC,ROWLEY ESTATES,7730 BELL RD,WINDSOR,CA,95492,SONOMA
CA-W-21390,"SAINI - CHRISTIE WINES UNLIMITED, LLC",,1200 AMERICAN WAY,WINDSOR,CA,95492,SONOMA
CA-W-23885,"SAUNTER WINES, LLC",SAUNTER WINES,1200 AMERICAN WAY,WINDSOR,CA,95492,SONOMA
CA-W-22650,SIERRA COURT LLC,,6475 STARR RD,WINDSOR,CA,95492,SONOMA
CA-W-1075,"SONOMA-CUTRER VINEYARDS, INC.",SONOMA-CUTRER VINEYARDS,4401 SLUSSER RD,WINDSOR,CA,95492,SONOMA
CA-W-16055,"SUPER SONOMAN WINE, LLC",SUPER SONOMAN WINE,7730 BELL RD,WINDSOR,CA,95492,SONOMA
CA-W-23019,UNTURNED STONE PRODUCTIONS LLC,,7763 BELL RD,WINDSOR,CA,95492,SONOMA
CA-W-22713,"VINEYARD ELEVEN CELLARS, LLC",,1200 AMERICAN WAY,WINDSOR,CA,95492,SONOMA
CA-W-24041,"VINTAGE COLLECTIBLES, LLC",,7680 BELL RD,WINDSOR,CA,95492,SONOMA
CA-W-20368,"WEESE BOWLEY WINES, INC.",WEESE FAMILY WINES,7732 BELL RD,WINDSOR,CA,95492,SONOMA
CA-W-23817,YOURWINESTYLIST LLC,ROSS KNOLL VINEYARD,1200 AMERICAN WAY,WINDSOR,CA,95492,SONOMA
